Station_ID,time,altimeter_set_1,air_temp,dew_point_temp,relative_humidity_set_1,wind_speed,wind_direction,wind_gust_set_1,snow_depth_set_1,sea_level_pressure_set_1,weather_cond_code_set_1,cloud_layer_3_code_set_1,cloud_low_symbol_set_1,cloud_mid_symbol_set_1,cloud_high_symbol_set_1,pressure_tendency_set_1,precip_accum_one_hour_set_1,precip_accum_three_hour_set_1,cloud_layer_1_code_set_1,cloud_layer_2_code_set_1,precip_accum_six_hour_set_1,precip_accum_24_hour_set_1,visibility_set_1,metar_remark_set_1,metar_set_1,air_temp_high_6_hour_set_1,air_temp_low_6_hour_set_1,peak_wind_speed_set_1,ceiling_set_1,pressure_change_code_set_1,air_temp_high_24_hour_set_1,air_temp_low_24_hour_set_1,peak_wind_direction_set_1,wind_chill_set_1d,wind_cardinal_direction_set_1d,heat_index_set_1d,weather_condition_set_1d,weather_summary_set_1d,cloud_layer_1_set_1d,cloud_layer_2_set_1d,cloud_layer_3_set_1d,dew_point_temperature_set_1d,pressure,sea_level_pressure_set_1d
KMKE,07/11/2017 08:00 UTC,101049.79,19,,93.94,1.54,50,,,,,,,,,,,,,,,,10,,METAR KMKE 110800Z AUTO 05003KT 10SM 19/18 A2984,,,,,,,,,,NE,,,,,,,18,98439.54,100999
KMKE,07/11/2017 08:05 UTC,101049.79,19,,93.94,2.06,60,,,,,,,,,,,,,,,,10,,METAR KMKE 110805Z AUTO 06004KT 10SM 19/18 A2984,,,,,,,,,,ENE,,,,,,,18,98439.54,100999
KMKE,07/11/2017 08:10 UTC,101049.79,19,,93.94,0,0,,,,,,,,,,,,,,,,10,,METAR KMKE 110810Z AUTO 00000KT 10SM 19/18 A2984,,,,,,,,,,N,,,,,,,18,98439.54,100999
KMKE,07/11/2017 08:15 UTC,101049.79,19,,93.94,0,0,,,,,,,,,,,,,,,,10,,METAR KMKE 110815Z AUTO 00000KT 10SM 19/18 A2984,,,,,,,,,,N,,,,,,,18,98439.54,100999
KMKE,07/11/2017 08:20 UTC,101049.79,19,,100,1.54,100,,,,,,,,,,,,,,,,10,,METAR KMKE 110820Z AUTO 10003KT 10SM 19/19 A2984,,,,,,,,,,E,,,,,,,19,98439.54,100998.99
KMKE,07/11/2017 08:25 UTC,101049.79,19,,93.94,0,0,,,,,,,,,,,,,,,,10,,METAR KMKE 110825Z AUTO 00000KT 10SM 19/18 A2984,,,,,,,,,,N,,,,,,,18,98439.54,100999
KMKE,07/11/2017 08:30 UTC,101049.79,19,,93.94,1.54,70,,,,,,,,,,,,,,,,10,,METAR KMKE 110830Z AUTO 07003KT 10SM 19/18 A2984,,,,,,,,,,ENE,,,,,,,18,98439.54,100999
KMKE,07/11/2017 08:35 UTC,101049.79,19,,93.94,1.54,70,,,,,,,,,,,,,,,,10,,METAR KMKE 110835Z AUTO 07003KT 10SM 19/18 A2984,,,,,,,,,,ENE,,,,,,,18,98439.54,100999
KMKE,07/11/2017 08:40 UTC,101049.79,19,,93.94,1.54,70,,,,,,,,,,,,,,,,10,,METAR KMKE 110840Z AUTO 07003KT 10SM 19/18 A2984,,,,,,,,,,ENE,,,,,,,18,98439.54,100999
KMKE,07/11/2017 08:45 UTC,101049.79,19,,93.94,2.06,80,,,,,,,,,,,,,,,,10,,METAR KMKE 110845Z AUTO 08004KT 10SM 19/18 A2984,,,,,,,,,,E,,,,,,,18,98439.54,100999
KMKE,07/11/2017 08:50 UTC,101083.65,19,,93.94,2.06,110,,,,,,,,,,,,,,,,10,,METAR KMKE 110850Z AUTO 11004KT 10SM 19/18 A2985,,,,,,,,,,ESE,,,,,,,18,98472.52,101032.84
KMKE,07/11/2017 08:52 UTC,101083.65,18.9,18.3,96.32,2.57,110,,,101030,,,,,,3003,,,36,2502,,,10,,KMKE 110852Z 11005KT 10SM FEW003 SCT250 19/18 A2985 RMK AO2 SLP103  T01890183 53003,,,,,,,,,,ESE,,,scattered,,,,18.3,98472.52,101033.72
KMKE,07/11/2017 08:55 UTC,101083.65,19,,93.94,2.06,110,,,,,,,,,,,,32,,,,10,,METAR KMKE 110855Z AUTO 11004KT 10SM SCT003 19/18 A2985,,,,,,,,,,ESE,,,scattered,,,,18,98472.52,101032.84
KMKE,07/11/2017 09:00 UTC,101083.65,19,,100,3.09,140,,,,,,,,,,,,32,,,,10,,METAR KMKE 110900Z AUTO 14006KT 10SM SCT003 19/19 A2985,,,,,,,,,,SE,,,scattered,,,,19,98472.52,101032.82
KMKE,07/11/2017 09:05 UTC,101117.52,20,,93.98,2.57,140,,,,,,,,,,,,32,,,,10,,METAR KMKE 110905Z AUTO 14005KT 10SM SCT003 20/19 A2986,,,,,,,,,,SE,,,scattered,,,,18.99,98505.52,101057.85
KMKE,07/11/2017 09:10 UTC,101117.52,19,,100,2.06,160,,,,,,,,,,,,32,,,,10,,METAR KMKE 110910Z AUTO 16004KT 10SM SCT003 19/19 A2986,,,,,,,,,,SSE,,,scattered,,,,19,98505.52,101066.68
KMKE,07/11/2017 09:15 UTC,101117.52,19,,100,2.06,170,,,,,,,,,,,,32,,,,9,,METAR KMKE 110915Z AUTO 17004KT 9SM SCT003 19/19 A2986,,,,,,,,,,S,,,scattered,,,,19,98505.52,101066.68
KMKE,07/11/2017 09:20 UTC,101117.52,20,,93.98,1.54,150,,,,,,,,,,,,32,,,,9,,METAR KMKE 110920Z AUTO 15003KT 9SM SCT003 20/19 A2986,,,,,,,,,,SSE,,,scattered,,,,18.99,98505.52,101057.85
KMKE,07/11/2017 09:25 UTC,101117.52,19,,100,0,0,,,,,,,,,,,,32,,,,10,,METAR KMKE 110925Z AUTO 00000KT 10SM SCT003 19/19 A2986,,,,,,,,,,N,,,scattered,,,,19,98505.52,101066.68
KMKE,07/11/2017 09:30 UTC,101117.52,19,,100,2.06,150,,,,,,,,,,,,32,,,,10,,METAR KMKE 110930Z AUTO 15004KT 10SM SCT003 19/19 A2986,,,,,,,,,,SSE,,,scattered,,,,19,98505.52,101066.68
KMKE,07/11/2017 09:35 UTC,101117.52,19,,100,1.54,130,,,,,,,,,,,,32,,,,10,,METAR KMKE 110935Z AUTO 13003KT 10SM SCT003 19/19 A2986,,,,,,,,,,SE,,,scattered,,,,19,98505.52,101066.68
KMKE,07/11/2017 09:40 UTC,101117.52,19,,100,0,0,,,,,,,,,,,,36,,,,10,,METAR KMKE 110940Z AUTO 00000KT 10SM FEW003 19/19 A2986,,,,,,,,,,N,,,thin scattered,,,,19,98505.52,101066.68
KMKE,07/11/2017 09:45 UTC,101117.52,19,,100,0,0,,,,,,,,,,,,36,,,,10,,METAR KMKE 110945Z AUTO 00000KT 10SM FEW003 19/19 A2986,,,,,,,,,,N,,,thin scattered,,,,19,98505.52,101066.68
KMKE,07/11/2017 09:50 UTC,101151.38,20,,93.98,0,0,,,,9,,,,,,,,,,,,10,,METAR KMKE 110950Z AUTO 00000KT 10SM BCFG 20/19 A2987,,,,,,,,,,N,,fog,fog,,,,18.99,98538.5,101091.69
KMKE,07/11/2017 09:52 UTC,101151.38,19.4,18.9,96.94,0,0,,,101110,9,,,,,,,,2502,,,,10,,KMKE 110952Z 00000KT 10SM BCFG SCT250 19/19 A2987 RMK AO2 SLP111  T01940189,,,,,,,,,,N,,fog,fog,,,,18.9,98538.5,101096.98
KMKE,07/11/2017 09:55 UTC,101185.24,19,,100,1.54,190,,,,9,,,,,,,,,,,,10,,METAR KMKE 110955Z AUTO 19003KT 10SM BCFG 19/19 A2988,,,,,,,,,,S,,fog,fog,,,,19,98571.49,101134.37
KMKE,07/11/2017 10:00 UTC,101151.38,19,,100,0,0,,,,9,,,,,,,,,,,,10,,METAR KMKE 111000Z AUTO 00000KT 10SM BCFG 19/19 A2987,,,,,,,,,,N,,fog,fog,,,,19,98538.5,101100.52
KMKE,07/11/2017 10:05 UTC,101185.24,20,,93.98,2.57,210,,,,9,,,,,,,,,,,,10,,METAR KMKE 111005Z AUTO 21005KT 10SM BCFG 20/19 A2988,,,,,,,,,,SSW,,fog,fog,,,,18.99,98571.49,101125.53
KMKE,07/11/2017 10:10 UTC,101185.24,19,,93.94,2.57,210,,,,9,,,,,,,,,,,,10,,METAR KMKE 111010Z AUTO 21005KT 10SM BCFG 19/18 A2988,,,,,,,,,,SSW,,fog,fog,,,,18,98571.49,101134.39
KMKE,07/11/2017 10:15 UTC,101185.24,19,,100,2.06,210,,,,9,,,,,,,,,,,,10,,METAR KMKE 111015Z AUTO 21004KT 10SM BCFG 19/19 A2988,,,,,,,,,,SSW,,fog,fog,,,,19,98571.49,101134.37
KMKE,07/11/2017 10:20 UTC,101185.24,20,,93.98,1.54,220,,,,9,,,,,,,,,,,,10,,METAR KMKE 111020Z AUTO 22003KT 10SM BCFG 20/19 A2988,,,,,,,,,,SW,,fog,fog,,,,18.99,98571.49,101125.53
KMKE,07/11/2017 10:25 UTC,101185.24,20,,93.98,0,0,,,,9,,,,,,,,,,,,10,,METAR KMKE 111025Z AUTO 00000KT 10SM BCFG 20/19 A2988,,,,,,,,,,N,,fog,fog,,,,18.99,98571.49,101125.53
KMKE,07/11/2017 10:30 UTC,101185.24,20,,93.98,0,0,,,,9,,,,,,,,,,,,10,,METAR KMKE 111030Z AUTO 00000KT 10SM BCFG 20/19 A2988,,,,,,,,,,N,,fog,fog,,,,18.99,98571.49,101125.53
KMKE,07/11/2017 10:35 UTC,101151.38,20,,93.98,0,0,,,,9,,,,,,,,,,,,10,,METAR KMKE 111035Z AUTO 00000KT 10SM BCFG 20/19 A2987,,,,,,,,,,N,,fog,fog,,,,18.99,98538.5,101091.69
KMKE,07/11/2017 10:40 UTC,101151.38,19,,100,0,0,,,,9,,,,,,,,,,,,8,,METAR KMKE 111040Z AUTO 00000KT 8SM BCFG 19/19 A2987,,,,,,,,,,N,,fog,fog,,,,19,98538.5,101100.52
KMKE,07/11/2017 10:45 UTC,101151.38,19,,93.94,0,0,,,,9,,,,,,,,,,,,7,,METAR KMKE 111045Z AUTO 00000KT 7SM BCFG 19/18 A2987,,,,,,,,,,N,,fog,fog,,,,18,98538.5,101100.54
KMKE,07/11/2017 10:50 UTC,101151.38,19,,93.94,0,0,,,,9,,,,,,,,,,,,9,,METAR KMKE 111050Z AUTO 00000KT 9SM BCFG 19/18 A2987,,,,,,,,,,N,,fog,fog,,,,18,98538.5,101100.54
KMKE,07/11/2017 10:52 UTC,101185.24,18.9,18.3,96.32,0,0,,,101130,9,,,,,,,,2002,2503,,,10,,KMKE 111052Z 00000KT 10SM BCFG SCT200 BKN250 19/18 A2988 RMK AO2  SLP113 TCU DSNT SE T01890183,,,,7620,,,,,,N,,fog,fog,,,,18.3,98571.49,101135.27
KMKE,07/11/2017 10:55 UTC,101151.38,19,,93.94,0,0,,,,,,,,,,,,,,,,10,,METAR KMKE 111055Z AUTO 00000KT 10SM 19/18 A2987,,,,,,,,,,N,,,,,,,18,98538.5,101100.54
KMKE,07/11/2017 11:00 UTC,101151.38,19,,93.94,1.54,20,,,,,,,,,,,,,,,,10,,METAR KMKE 111100Z AUTO 02003KT 10SM 19/18 A2987,,,,,,,,,,NNE,,,,,,,18,98538.5,101100.54
KMKE,07/11/2017 11:05 UTC,101151.38,19,,93.94,0,0,,,,,,,,,,,,,,,,10,,METAR KMKE 111105Z AUTO 00000KT 10SM 19/18 A2987,,,,,,,,,,N,,,,,,,18,98538.5,101100.54
KMKE,07/11/2017 11:10 UTC,101117.52,19,,100,1.54,20,,,,,,,,,,,,,,,,10,,METAR KMKE 111110Z AUTO 02003KT 10SM 19/19 A2986,,,,,,,,,,NNE,,,,,,,19,98505.52,101066.68
KMKE,07/11/2017 11:15 UTC,101117.52,19,,100,0,0,,,,,,,,,,,,,,,,10,,METAR KMKE 111115Z AUTO 00000KT 10SM 19/19 A2986,,,,,,,,,,N,,,,,,,19,98505.52,101066.68
KMKE,07/11/2017 11:20 UTC,,,,,,,,,,,,,,,,,,,,,,,,METAR KMKE 111120Z AUTO 00000KT 10SM 20/19 A2986,,,,,,,,,,,,,,,,,,,None
KMKE,07/11/2017 11:25 UTC,,,,,,,,,,,,,,,,,,,,,,,,METAR KMKE 111125Z AUTO 00000KT 10SM 21/19 A2987,,,,,,,,,,,,,,,,,,,None
KMKE,07/11/2017 11:30 UTC,101117.52,21,,88.37,0,0,,,,,,,,,,,,,,,,10,,METAR KMKE 111130Z AUTO 00000KT 10SM 21/19 A2986,,,,,,,,,,N,,,,,,,18.99,98505.52,101049.09
KMKE,07/11/2017 11:35 UTC,101151.38,22,,83.13,0,0,,,,,,,,,,,,,,,,10,,METAR KMKE 111135Z AUTO 00000KT 10SM 22/19 A2987,,,,,,,,,,N,,,,,,,18.99,98538.5,101074.21
KMKE,07/11/2017 11:40 UTC,101117.52,21,,88.37,0,0,,,,,,,,,,,,,,,,10,,METAR KMKE 111140Z AUTO 00000KT 10SM 21/19 A2986,,,,,,,,,,N,,,,,,,18.99,98505.52,101049.09
KMKE,07/11/2017 11:45 UTC,101151.38,22,,83.13,0,0,,,,,,,,,,,,,,,,10,,METAR KMKE 111145Z AUTO 00000KT 10SM 22/19 A2987,,,,,,,,,,N,,,,,,,18.99,98538.5,101074.21
KMKE,07/11/2017 11:50 UTC,101151.38,22,,83.13,0,0,,,,,,,,,,,,,,,,10,,METAR KMKE 111150Z AUTO 00000KT 10SM 22/19 A2987,,,,,,,,,,N,,,,,,,18.99,98538.5,101074.21
KMKE,07/11/2017 11:52 UTC,101151.38,21.7,19.4,86.8,0,0,,,101110,,,,,,8,,,2002,2503,,0.508,10,,KMKE 111152Z 00000KT 10SM SCT200 BKN250 22/19 A2987 RMK AO2 SLP111  70002 T02170194 10222 20189 50008,22.2,18.9,,7620,,,,,,N,,,broken,,,,19.39,98538.5,101076.81
KMKE,07/11/2017 11:55 UTC,101151.38,22,,83.13,0,0,,,,,,,,,,,,1,,,,10,,METAR KMKE 111155Z AUTO 00000KT 10SM CLR 22/19 A2987,,,,,,,,,,N,,,clear,,,,18.99,98538.5,101074.21
KMKE,07/11/2017 12:00 UTC,101151.38,22,,83.13,0,0,,,,,,,,,,,,,,,,10,,METAR KMKE 111200Z AUTO 00000KT 10SM 22/19 A2987,,,,,,,,,,N,,,,,,,18.99,98538.5,101074.21
KMKE,07/11/2017 12:05 UTC,101151.38,22,,83.13,0,0,,,,,,,,,,,,,,,,10,,METAR KMKE 111205Z AUTO 00000KT 10SM 22/19 A2987,,,,,,,,,,N,,,,,,,18.99,98538.5,101074.21
KMKE,07/11/2017 12:10 UTC,101185.24,22,,83.13,0,0,,,,,,,,,,,,,,,,10,,METAR KMKE 111210Z AUTO 00000KT 10SM 22/19 A2988,,,,,,,,,,N,,,,,,,18.99,98571.49,101108.05
KMKE,07/11/2017 12:15 UTC,101185.24,22,,83.13,0,0,,,,,,,,,,,,,,,,10,,METAR KMKE 111215Z AUTO 00000KT 10SM 22/19 A2988,,,,,,,,,,N,,,,,,,18.99,98571.49,101108.05
KMKE,07/11/2017 12:20 UTC,101151.38,22,,83.13,0,0,,,,,,,,,,,,,,,,10,,METAR KMKE 111220Z AUTO 00000KT 10SM 22/19 A2987,,,,,,,,,,N,,,,,,,18.99,98538.5,101074.21
KMKE,07/11/2017 12:25 UTC,101151.38,23,,78.24,0,0,,,,,,,,,,,,,,,,10,,METAR KMKE 111225Z AUTO 00000KT 10SM 23/19 A2987,,,,,,,,,,N,,,,,,,18.99,98538.5,101065.56
KMKE,07/11/2017 12:30 UTC,101185.24,23,,83.25,0,0,,,,,,,,,,,,,,,,10,,METAR KMKE 111230Z AUTO 00000KT 10SM 23/20 A2988,,,,,,,,,,N,,,,,,,19.99,98571.49,101099.38
KMKE,07/11/2017 12:35 UTC,101185.24,23,,78.24,0,0,,,,,,,,,,,,,,,,10,,METAR KMKE 111235Z AUTO 00000KT 10SM 23/19 A2988,,,,,,,,,,N,,,,,,,18.99,98571.49,101099.4
KMKE,07/11/2017 12:40 UTC,101185.24,23,,83.25,1.54,130,,,,,,,,,,,,,,,,10,,METAR KMKE 111240Z AUTO 13003KT 10SM 23/20 A2988,,,,,,,,,,SE,,,,,,,19.99,98571.49,101099.38
KMKE,07/11/2017 12:45 UTC,101219.11,23,,78.24,0,0,,,,,,,,,,,,,,,,10,,METAR KMKE 111245Z AUTO 00000KT 10SM 23/19 A2989,,,,,,,,,,N,,,,,,,18.99,98604.49,101133.24
KMKE,07/11/2017 12:50 UTC,101185.24,23,,78.24,0,0,,,,,,,,,,,,,,,,10,,METAR KMKE 111250Z AUTO 00000KT 10SM 23/19 A2988,,,,,,,,,,N,,,,,,,18.99,98571.49,101099.4
KMKE,07/11/2017 12:52 UTC,101185.24,22.8,19.4,81.19,0,0,,,101150,,,,,,,,,2006,2503,,,10,,KMKE 111252Z 00000KT 10SM FEW200 BKN250 23/19 A2988 RMK AO2 SLP115  T02280194,,,,7620,,,,,,N,,,broken,,,,19.39,98571.49,101101.11
KMKE,07/11/2017 12:55 UTC,,,,,,,,,,,,,,,,,,,,,,,,METAR KMKE 111255Z AUTO 00000KT 10SM 23/19 A2988,,,,,,,,,,,,,,,,,,,None
KMKE,07/11/2017 13:00 UTC,101185.24,23,,83.25,0,0,,,,,,,,,,,,,,,,10,,METAR KMKE 111300Z AUTO 00000KT 10SM 23/20 A2988,,,,,,,,,,N,,,,,,,19.99,98571.49,101099.38
KMKE,07/11/2017 13:05 UTC,101185.24,23,,78.24,0,0,,,,,,,,,,,,,,,,10,,METAR KMKE 111305Z AUTO 00000KT 10SM 23/19 A2988,,,,,,,,,,N,,,,,,,18.99,98571.49,101099.4
KMKE,07/11/2017 13:10 UTC,101185.24,23,,78.24,0,0,,,,,,,,,,,,,,,,10,,METAR KMKE 111310Z AUTO 00000KT 10SM 23/19 A2988,,,,,,,,,,N,,,,,,,18.99,98571.49,101099.4
KMKE,07/11/2017 13:15 UTC,101185.24,23,,83.25,0,0,,,,,,,,,,,,,,,,10,,METAR KMKE 111315Z AUTO 00000KT 10SM 23/20 A2988,,,,,,,,,,N,,,,,,,19.99,98571.49,101099.38
KMKE,07/11/2017 13:20 UTC,101185.24,23,,78.24,0,0,,,,,,,,,,,,,,,,10,,METAR KMKE 111320Z AUTO 00000KT 10SM 23/19 A2988,,,,,,,,,,N,,,,,,,18.99,98571.49,101099.4
KMKE,07/11/2017 13:25 UTC,101219.11,23,,78.24,1.54,170,,,,,,,,,,,,,,,,10,,METAR KMKE 111325Z AUTO 17003KT 10SM 23/19 A2989,,,,,,,,,,S,,,,,,,18.99,98604.49,101133.24
KMKE,07/11/2017 13:30 UTC,,,,,,,,,,,,,,,,,,,,,,,,METAR KMKE 111330Z AUTO 16003KT 10SM 23/20 A2989,,,,,,,,,,,,,,,,,,,None
KMKE,07/11/2017 13:35 UTC,101185.24,23,,83.25,0,0,,,,,,,,,,,,,,,,10,,METAR KMKE 111335Z AUTO 00000KT 10SM 23/20 A2988,,,,,,,,,,N,,,,,,,19.99,98571.49,101099.38
KMKE,07/11/2017 13:40 UTC,101219.11,24,,78.39,0,0,,,,,,,,,,,,,,,,10,,METAR KMKE 111340Z AUTO 00000KT 10SM 24/20 A2989,,,,,,,,,,N,,,,,,,20,98604.49,101124.63
KMKE,07/11/2017 13:45 UTC,101219.11,23,,78.24,0,0,,,,,,,,,,,,,,,,10,,METAR KMKE 111345Z AUTO 00000KT 10SM 23/19 A2989,,,,,,,,,,N,,,,,,,18.99,98604.49,101133.24
KMKE,07/11/2017 13:50 UTC,101219.11,24,,78.39,0,0,,,,,,,,,,,,,,,,10,,METAR KMKE 111350Z AUTO 00000KT 10SM 24/20 A2989,,,,,,,,,,N,,,,,,,20,98604.49,101124.63
KMKE,07/11/2017 13:52 UTC,101219.11,24.4,20,76.54,0,0,,,101160,,,,,,,,,2503,,,,10,,KMKE 111352Z 00000KT 10SM BKN250 24/20 A2989 RMK AO2 SLP116  T02440200,,,,7620,,,,,,N,,,broken,,,,20,98604.49,101121.2
KMKE,07/11/2017 13:55 UTC,101185.24,24,,78.39,0,0,,,,,,,,,,,,,,,,10,,METAR KMKE 111355Z AUTO 00000KT 10SM 24/20 A2988,,,,,,,,,,N,,,,,,,20,98571.49,101090.78
KMKE,07/11/2017 14:00 UTC,101185.24,24,,78.39,0,0,,,,,,,,,,,,,,,,10,,METAR KMKE 111400Z AUTO 00000KT 10SM 24/20 A2988,,,,,,,,,,N,,,,,,,20,98571.49,101090.78
KMKE,07/11/2017 14:05 UTC,101185.24,24,,78.39,0,0,,,,,,,,,,,,,,,,10,,METAR KMKE 111405Z AUTO 00000KT 10SM 24/20 A2988,,,,,,,,,,N,,,,,,,20,98571.49,101090.78
KMKE,07/11/2017 14:10 UTC,101151.38,24,,78.39,0,0,,,,,,,,,,,,,,,,10,,METAR KMKE 111410Z AUTO 00000KT 10SM 24/20 A2987,,,,,,,,,,N,,,,,,,20,98538.5,101056.95
KMKE,07/11/2017 14:15 UTC,101151.38,24,,83.37,0,0,,,,,,,,,,,,,,,,10,,METAR KMKE 111415Z AUTO 00000KT 10SM 24/21 A2987,,,,,,,,,,N,,,,,,,21,98538.5,101056.93
KMKE,07/11/2017 14:20 UTC,101151.38,24,,78.39,0,0,,,,,,,,,,,,,,,,10,,METAR KMKE 111420Z AUTO 00000KT 10SM 24/20 A2987,,,,,,,,,,N,,,,,,,20,98538.5,101056.95
KMKE,07/11/2017 14:25 UTC,101151.38,25,,73.85,1.54,40,,,,,,,,,,,,,,,,10,,METAR KMKE 111425Z AUTO 04003KT 10SM 25/20 A2987,,,,,,,,,,NE,,,,,,,20,98538.5,101048.42
KMKE,07/11/2017 14:30 UTC,101151.38,25,,73.85,0,0,,,,,,,,,,,,,,,,10,,METAR KMKE 111430Z AUTO 00000KT 10SM 25/20 A2987,,,,,,,,,,N,,,,,,,20,98538.5,101048.42
KMKE,07/11/2017 14:35 UTC,101185.24,26,,74.02,1.54,100,,,,,,,,,,,,,,,,10,,METAR KMKE 111435Z AUTO 10003KT 10SM 26/21 A2988,,,,,,,,,,E,,,,,,,21,98571.49,101073.75
KMKE,07/11/2017 14:40 UTC,101185.24,25,,78.54,0,0,,,,,,,,,,,,,,,,10,,METAR KMKE 111440Z AUTO 00000KT 10SM 25/21 A2988,,,,,,,,,,N,,,,,,,21,98571.49,101082.23
KMKE,07/11/2017 14:45 UTC,101185.24,26,,74.02,0,0,,,,,,,,,,,,,,,,10,,METAR KMKE 111445Z AUTO 00000KT 10SM 26/21 A2988,,,,,,,,,,N,,,,,,,21,98571.49,101073.75
KMKE,07/11/2017 14:50 UTC,101185.24,26,,74.02,0,0,,,,,,,,,,,,406,,,,10,,METAR KMKE 111450Z AUTO 00000KT 10SM FEW040 26/21 A2988,,,,,,,,,,N,,,thin scattered,,,,21,98571.49,101073.75
KMKE,07/11/2017 14:52 UTC,101185.24,25.6,20.6,73.95,0,0,,,101130,,,,,,2,,,286,2503,,,10,,KMKE 111452Z 00000KT 10SM FEW028 BKN250 26/21 A2988 RMK AO2 SLP113  T02560206 50002,,,,7620,,,,,,N,,,broken,,,,20.6,98571.49,101077.14
KMKE,07/11/2017 14:55 UTC,101185.24,26,,74.02,3.09,90,,,,,,,,,,,,1,,,,10,,METAR KMKE 111455Z AUTO 09006KT 10SM CLR 26/21 A2988,,,,,,,,,,E,,,clear,,,,21,98571.49,101073.75
KMKE,07/11/2017 15:00 UTC,101185.24,26,,74.02,3.09,90,,,,,,,,,,,,1,,,,10,,METAR KMKE 111500Z AUTO 09006KT 10SM CLR 26/21 A2988,,,,,,,,,,E,,,clear,,,,21,98571.49,101073.75
KMKE,07/11/2017 15:05 UTC,101185.24,25,,78.54,2.57,90,,,,,,,,,,,,1,,,,10,,METAR KMKE 111505Z AUTO 09005KT 10SM CLR 25/21 A2988,,,,,,,,,,E,,,clear,,,,21,98571.49,101082.23
KMKE,07/11/2017 15:10 UTC,101185.24,26,,74.02,3.09,90,,,,,,,,,,,,286,,,,10,,METAR KMKE 111510Z AUTO 09006KT 10SM FEW028 26/21 A2988,,,,,,,,,,E,,,thin scattered,,,,21,98571.49,101073.75
KMKE,07/11/2017 15:15 UTC,101185.24,25,,78.54,3.09,90,,,,,,,,,,,,286,,,,10,,METAR KMKE 111515Z AUTO 09006KT 10SM FEW028 25/21 A2988,,,,,,,,,,E,,,thin scattered,,,,21,98571.49,101082.23
KMKE,07/11/2017 15:20 UTC,101185.24,25,,78.54,3.09,80,,,,,,,,,,,,286,,,,10,,METAR KMKE 111520Z AUTO 08006KT 10SM FEW028 25/21 A2988,,,,,,,,,,E,,,thin scattered,,,,21,98571.49,101082.23
KMKE,07/11/2017 15:25 UTC,101185.24,25,,78.54,3.6,90,,,,,,,,,,,,286,,,,10,,METAR KMKE 111525Z AUTO 09007KT 10SM FEW028 25/21 A2988,,,,,,,,,,E,,,thin scattered,,,,21,98571.49,101082.23
KMKE,07/11/2017 15:30 UTC,101219.11,25,,78.54,3.09,90,,,,,,,,,,,,286,,,,10,,METAR KMKE 111530Z AUTO 09006KT 10SM FEW028 25/21 A2989,,,,,,,,,,E,,,thin scattered,,,,21,98604.49,101116.07
KMKE,07/11/2017 15:35 UTC,,,,,,,,,,,,,,,,,,,,,,,,METAR KMKE 111535Z AUTO 09006KT 10SM FEW028 25/21 A2989,,,,,,,,,,,,,,,,,,,None
KMKE,07/11/2017 15:40 UTC,,,,,,,,,,,,,,,,,,,,,,,,METAR KMKE 111540Z AUTO 09006KT 10SM FEW028 25/21 A2989,,,,,,,,,,,,,,,,,,,None
KMKE,07/11/2017 15:45 UTC,101219.11,25,,78.54,3.09,90,,,,,,,,,,,,286,,,,10,,METAR KMKE 111545Z AUTO 09006KT 10SM FEW028 25/21 A2989,,,,,,,,,,E,,,thin scattered,,,,21,98604.49,101116.07
KMKE,07/11/2017 15:50 UTC,101219.11,26,,74.02,2.57,110,,,,,,,,,,,,286,,,,10,,METAR KMKE 111550Z AUTO 11005KT 10SM FEW028 26/21 A2989,,,,,,,,,,ESE,,,thin scattered,,,,21,98604.49,101107.59
KMKE,07/11/2017 15:52 UTC,101185.24,25,20.6,76.63,3.09,110,,,101140,,,,,,,,,266,2503,,,10,,KMKE 111552Z 11006KT 10SM FEW026 BKN250 25/21 A2988 RMK AO2 SLP114  T02500206,,,,7620,,,,,,ESE,,,broken,,,,20.6,98571.49,101082.23
KMKE,07/11/2017 15:55 UTC,101185.24,26,,74.02,3.6,100,,,,,,,,,,,,266,,,,10,,METAR KMKE 111555Z AUTO 10007KT 10SM FEW026 26/21 A2988,,,,,,,,,,E,,,thin scattered,,,,21,98571.49,101073.75
KMKE,07/11/2017 16:00 UTC,101185.24,26,,74.02,4.12,90,,,,,,,,,,,,266,,,,10,,METAR KMKE 111600Z AUTO 09008KT 10SM FEW026 26/21 A2988,,,,,,,,,,E,,,thin scattered,,,,21,98571.49,101073.75
KMKE,07/11/2017 16:05 UTC,101185.24,26,,74.02,4.12,80,,,,,,,,,,,,266,,,,10,,METAR KMKE 111605Z AUTO 08008KT 10SM FEW026 26/21 A2988,,,,,,,,,,E,,,thin scattered,,,,21,98571.49,101073.75
KMKE,07/11/2017 16:10 UTC,101185.24,25,,78.54,4.63,90,,,,,,,,,,,,266,,,,10,,METAR KMKE 111610Z AUTO 09009KT 10SM FEW026 25/21 A2988,,,,,,,,,,E,,,thin scattered,,,,21,98571.49,101082.23
KMKE,07/11/2017 16:15 UTC,101185.24,25,,78.54,4.63,100,,,,,,,,,,,,266,,,,10,,METAR KMKE 111615Z AUTO 10009KT 10SM FEW026 25/21 A2988,,,,,,,,,,E,,,thin scattered,,,,21,98571.49,101082.23
KMKE,07/11/2017 16:20 UTC,101185.24,25,,78.54,4.12,90,,,,,,,,,,,,266,,,,10,,METAR KMKE 111620Z AUTO 09008KT 10SM FEW026 25/21 A2988,,,,,,,,,,E,,,thin scattered,,,,21,98571.49,101082.23
KMKE,07/11/2017 16:25 UTC,101185.24,25,,78.54,4.12,80,,,,,,,,,,,,266,,,,10,,METAR KMKE 111625Z AUTO 08008KT 10SM FEW026 25/21 A2988,,,,,,,,,,E,,,thin scattered,,,,21,98571.49,101082.23
KMKE,07/11/2017 16:30 UTC,,,,,,,,,,,,,,,,,,,,,,,,METAR KMKE 111630Z AUTO 11008KT 10SM FEW026 25/21 A2988,,,,,,,,,,,,,,,,,,,None
KMKE,07/11/2017 16:35 UTC,101185.24,24,,78.39,3.6,100,,,,,,,,,,,,266,,,,10,,METAR KMKE 111635Z AUTO 10007KT 10SM FEW026 24/20 A2988,,,,,,,,,,E,,,thin scattered,,,,20,98571.49,101090.78
KMKE,07/11/2017 16:40 UTC,101185.24,25,,78.54,3.6,100,,,,,,,,,,,,266,,,,10,,METAR KMKE 111640Z AUTO 10007KT 10SM FEW026 25/21 A2988,,,,,,,,,,E,,,thin scattered,,,,21,98571.49,101082.23
KMKE,07/11/2017 16:45 UTC,101185.24,25,,78.54,4.12,110,,,,,,,,,,,,266,,,,10,,METAR KMKE 111645Z AUTO 11008KT 10SM FEW026 25/21 A2988,,,,,,,,,,ESE,,,thin scattered,,,,21,98571.49,101082.23
KMKE,07/11/2017 16:50 UTC,101219.11,25,,78.54,4.12,120,,,,,,,,,,,,286,,,,10,,METAR KMKE 111650Z AUTO 12008KT 10SM FEW028 25/21 A2989,,,,,,,,,,ESE,,,thin scattered,,,,21,98604.49,101116.07
KMKE,07/11/2017 16:52 UTC,101219.11,25,20.6,76.63,3.6,120,,,101150,,,,,,,,,286,2503,,,10,,KMKE 111652Z 12007KT 10SM FEW028 BKN250 25/21 A2989 RMK AO2 SLP115  T02500206,,,,7620,,,,,,ESE,,,broken,,,,20.6,98604.49,101116.08
KMKE,07/11/2017 16:55 UTC,101185.24,25,,73.85,4.12,110,,,,,,,,,,,,286,,,,10,,METAR KMKE 111655Z AUTO 11008KT 10SM FEW028 25/20 A2988,,,,,,,,,,ESE,,,thin scattered,,,,20,98571.49,101082.25
KMKE,07/11/2017 17:00 UTC,101185.24,26,,74.02,4.12,120,,,,,,,,,,,,286,,,,10,,METAR KMKE 111700Z AUTO 12008KT 10SM FEW028 26/21 A2988,,,,,,,,,,ESE,,,thin scattered,,,,21,98571.49,101073.75
KMKE,07/11/2017 17:05 UTC,101185.24,25,,78.54,3.6,120,,,,,,,,,,,,286,,,,10,,METAR KMKE 111705Z AUTO 12007KT 10SM FEW028 25/21 A2988,,,,,,,,,,ESE,,,thin scattered,,,,21,98571.49,101082.23
KMKE,07/11/2017 17:10 UTC,,,,,,,,,,,,,,,,,,,,,,,,METAR KMKE 111710Z AUTO 12007KT 10SM FEW028 25/20 A2988,,,,,,,,,,,,,,,,,,,None
KMKE,07/11/2017 17:15 UTC,,,,,,,,,,,,,,,,,,,,,,,,METAR KMKE 111715Z AUTO 12008KT 10SM FEW028 26/21 A2987,,,,,,,,,,,,,,,,,,,None
KMKE,07/11/2017 17:20 UTC,101151.38,26,,74.02,4.12,110,,,,,,,,,,,,286,,,,10,,METAR KMKE 111720Z AUTO 11008KT 10SM FEW028 26/21 A2987,,,,,,,,,,ESE,,,thin scattered,,,,21,98538.5,101039.92
KMKE,07/11/2017 17:25 UTC,101185.24,25,,73.85,3.6,100,,,,,,,,,,,,286,,,,10,,METAR KMKE 111725Z AUTO 10007KT 10SM FEW028 25/20 A2988,,,,,,,,,,E,,,thin scattered,,,,20,98571.49,101082.25
KMKE,07/11/2017 17:30 UTC,101185.24,26,,74.02,4.12,140,,,,,,,,,,,,286,,,,10,,METAR KMKE 111730Z AUTO 14008KT 10SM FEW028 26/21 A2988,,,,,,,,,,SE,,,thin scattered,,,,21,98571.49,101073.75
KMKE,07/11/2017 17:35 UTC,101185.24,26,,74.02,4.12,120,,,,,,,,,,,,286,,,,10,,METAR KMKE 111735Z AUTO 12008KT 10SM FEW028 26/21 A2988,,,,,,,,,,ESE,,,thin scattered,,,,21,98571.49,101073.75
KMKE,07/11/2017 17:40 UTC,101185.24,26,,74.02,3.6,110,,,,,,,,,,,,286,,,,10,,METAR KMKE 111740Z AUTO 11007KT 10SM FEW028 26/21 A2988,,,,,,,,,,ESE,,,thin scattered,,,,21,98571.49,101073.75
KMKE,07/11/2017 17:45 UTC,101185.24,26,,74.02,4.12,120,,,,,,,,,,,,286,,,,10,,METAR KMKE 111745Z AUTO 12008KT 10SM FEW028 26/21 A2988,,,,,,,,,,ESE,,,thin scattered,,,,21,98571.49,101073.75
KMKE,07/11/2017 17:50 UTC,101219.11,26,,74.02,4.12,110,,,,,,,,,,,,286,,,,10,,METAR KMKE 111750Z AUTO 11008KT 10SM FEW028 26/21 A2989,,,,,,,,,,ESE,,,thin scattered,,,,21,98604.49,101107.59
KMKE,07/11/2017 17:52 UTC,101219.11,25.6,20.6,73.95,3.6,120,,,101150,,,,,,2,,,306,2503,,,10,,KMKE 111752Z 12007KT 10SM FEW030 BKN250 26/21 A2989 RMK AO2 SLP115  T02560206 10261 20217 50002,26.1,21.7,,7620,,,,,,ESE,,,broken,,,,20.6,98604.49,101110.98
KMKE,07/11/2017 17:55 UTC,101219.11,26,,74.02,4.12,130,,,,,,,,,,,,306,,,,10,,METAR KMKE 111755Z AUTO 13008KT 10SM FEW030 26/21 A2989,,,,,,,,,,SE,,,thin scattered,,,,21,98604.49,101107.59
KMKE,07/11/2017 18:00 UTC,101219.11,26,,74.02,3.09,120,,,,,,,,,,,,306,,,,10,,METAR KMKE 111800Z AUTO 12006KT 10SM FEW030 26/21 A2989,,,,,,,,,,ESE,,,thin scattered,,,,21,98604.49,101107.59
KMKE,07/11/2017 18:05 UTC,101219.11,26,,74.02,3.6,130,,,,,,,,,,,,306,,,,10,,METAR KMKE 111805Z AUTO 13007KT 10SM FEW030 26/21 A2989,,,,,,,,,,SE,,,thin scattered,,,,21,98604.49,101107.59
KMKE,07/11/2017 18:10 UTC,101219.11,26,,74.02,3.6,130,,,,,,,,,,,,306,,,,10,,METAR KMKE 111810Z AUTO 13007KT 10SM FEW030 26/21 A2989,,,,,,,,,,SE,,,thin scattered,,,,21,98604.49,101107.59
KMKE,07/11/2017 18:15 UTC,101252.97,27,,69.79,3.6,150,,,,,,,,,,,,306,,,,10,,METAR KMKE 111815Z AUTO 15007KT 10SM FEW030 27/21 A2990,,,,,,,,,,SSE,28.84,,thin scattered,,,,21.01,98637.47,101132.98
KMKE,07/11/2017 18:20 UTC,101219.11,26,,74.02,4.12,140,,,,,,,,,,,,306,,,,10,,METAR KMKE 111820Z AUTO 14008KT 10SM FEW030 26/21 A2989,,,,,,,,,,SE,,,thin scattered,,,,21,98604.49,101107.59
KMKE,07/11/2017 18:25 UTC,101219.11,26,,74.02,4.12,140,,,,,,,,,,,,306,,,,10,,METAR KMKE 111825Z AUTO 14008KT 10SM FEW030 26/21 A2989,,,,,,,,,,SE,,,thin scattered,,,,21,98604.49,101107.59
KMKE,07/11/2017 18:30 UTC,101219.11,26,,74.02,4.63,140,,,,,,,,,,,,306,,,,10,,METAR KMKE 111830Z AUTO 14009KT 10SM FEW030 26/21 A2989,,,,,,,,,,SE,,,thin scattered,,,,21,98604.49,101107.59
KMKE,07/11/2017 18:35 UTC,101219.11,26,,74.02,3.6,130,,,,,,,,,,,,306,,,,10,,METAR KMKE 111835Z AUTO 13007KT 10SM FEW030 26/21 A2989,,,,,,,,,,SE,,,thin scattered,,,,21,98604.49,101107.59
KMKE,07/11/2017 18:40 UTC,101219.11,27,,69.79,4.12,110,,,,,,,,,,,,306,,,,10,,METAR KMKE 111840Z AUTO 11008KT 10SM FEW030 27/21 A2989,,,,,,,,,,ESE,28.84,,thin scattered,,,,21.01,98604.49,101099.16
KMKE,07/11/2017 18:45 UTC,,,,,,,,,,,,,,,,,,,,,,,,METAR KMKE 111845Z AUTO 12008KT 10SM FEW030 27/21 A2989,,,,,,,,,,,,,,,,,,,None
KMKE,07/11/2017 18:50 UTC,101219.11,27,,69.79,4.12,130,,,,,,,,,,,,326,,,,10,,METAR KMKE 111850Z AUTO 13008KT 10SM FEW032 27/21 A2989,,,,,,,,,,SE,28.84,,thin scattered,,,,21.01,98604.49,101099.16
KMKE,07/11/2017 18:52 UTC,101219.11,26.1,20,69.19,4.63,140,,,101170,,2502,,,,,,,326,1502,,,10,,KMKE 111852Z 14009KT 10SM FEW032 SCT150 SCT250 26/20 A2989 RMK AO2  SLP117 T02610200,,,,,,,,,,SE,,,scattered,,,,20,98604.49,101106.76
KMKE,07/11/2017 18:55 UTC,,,,,,,,,,,,,,,,,,,,,,,,METAR KMKE 111855Z AUTO 12009KT 10SM CLR 26/20 A2989,,,,,,,,,,,,,,,,,,,None
KMKE,07/11/2017 19:00 UTC,101219.11,27,,69.79,4.63,130,,,,,,,,,,,,1,,,,10,,METAR KMKE 111900Z AUTO 13009KT 10SM CLR 27/21 A2989,,,,,,,,,,SE,28.84,,clear,,,,21.01,98604.49,101099.16
KMKE,07/11/2017 19:05 UTC,101219.11,27,,65.62,5.14,120,,,,,,,,,,,,1,,,,10,,METAR KMKE 111905Z AUTO 12010KT 10SM CLR 27/20 A2989,,,,,,,,,,ESE,28.5,,clear,,,,20.01,98604.49,101099.18
KMKE,07/11/2017 19:10 UTC,101219.11,27,,69.79,5.14,130,,,,,,,,,,,,1,,,,10,,METAR KMKE 111910Z AUTO 13010KT 10SM CLR 27/21 A2989,,,,,,,,,,SE,28.84,,clear,,,,21.01,98604.49,101099.16
KMKE,07/11/2017 19:15 UTC,101219.11,26,,74.02,5.66,140,,,,,,,,,,,,336,,,,10,,METAR KMKE 111915Z AUTO 14011KT 10SM FEW033 26/21 A2989,,,,,,,,,,SE,,,thin scattered,,,,21,98604.49,101107.59
KMKE,07/11/2017 19:20 UTC,101185.24,26,,74.02,5.66,140,,,,,,,,,,,,336,,,,10,,METAR KMKE 111920Z AUTO 14011KT 10SM FEW033 26/21 A2988,,,,,,,,,,SE,,,thin scattered,,,,21,98571.49,101073.75
KMKE,07/11/2017 19:25 UTC,101219.11,26,,74.02,6.17,140,,,,,,,,,,,,336,,,,10,,METAR KMKE 111925Z AUTO 14012KT 10SM FEW033 26/21 A2989,,,,,,,,,,SE,,,thin scattered,,,,21,98604.49,101107.59
KMKE,07/11/2017 19:30 UTC,101219.11,26,,74.02,5.66,130,,,,,,,,,,,,336,,,,10,,METAR KMKE 111930Z AUTO 13011KT 10SM FEW033 26/21 A2989,,,,,,,,,,SE,,,thin scattered,,,,21,98604.49,101107.59
KMKE,07/11/2017 19:35 UTC,,,,,,,,,,,,,,,,,,,,,,,,METAR KMKE 111935Z AUTO 14011KT 10SM FEW033 26/20 A2989,,,,,,,,,,,,,,,,,,,None
KMKE,07/11/2017 19:40 UTC,101219.11,26,,65.41,5.66,140,,,,,,,,,,,,336,,,,10,,METAR KMKE 111940Z AUTO 14011KT 10SM FEW033 26/19 A2989,,,,,,,,,,SE,,,thin scattered,,,,19,98604.49,101107.62
KMKE,07/11/2017 19:45 UTC,101219.11,25,,69.4,5.14,140,,,,,,,,,,,,336,,,,10,,METAR KMKE 111945Z AUTO 14010KT 10SM FEW033 25/19 A2989,,,,,,,,,,SE,,,thin scattered,,,,19,98604.49,101116.11
KMKE,07/11/2017 19:50 UTC,101219.11,24,,73.67,6.69,140,,,,,,,,,,,,336,,,,10,,METAR KMKE 111950Z AUTO 14013KT 10SM FEW033 24/19 A2989,,,,,,,,,,SE,,,thin scattered,,,,18.99,98604.49,101124.64
KMKE,07/11/2017 19:52 UTC,101219.11,24.4,19.4,73.74,6.17,130,,,101170,,2503,,,,,,,336,1803,,,10,,KMKE 111952Z 13012KT 10SM FEW033 BKN180 BKN250 24/19 A2989 RMK AO2  SLP117 T02440194,,,,5486.4,,,,,,SE,,,broken,,,,19.39,98604.49,101121.21
KMKE,07/11/2017 19:55 UTC,101219.11,24,,73.67,5.14,130,,,,,,,,,,,,336,,,,10,,METAR KMKE 111955Z AUTO 13010KT 10SM FEW033 24/19 A2989,,,,,,,,,,SE,,,thin scattered,,,,18.99,98604.49,101124.64
KMKE,07/11/2017 20:00 UTC,101219.11,25,,69.4,5.66,130,,,,,,,,,,,,336,,,,10,,METAR KMKE 112000Z AUTO 13011KT 10SM FEW033 25/19 A2989,,,,,,,,,,SE,,,thin scattered,,,,19,98604.49,101116.11
KMKE,07/11/2017 20:05 UTC,101219.11,25,,69.4,5.14,130,,,,,,,,,,,,336,,,,10,,METAR KMKE 112005Z AUTO 13010KT 10SM FEW033 25/19 A2989,,,,,,,,,,SE,,,thin scattered,,,,19,98604.49,101116.11
KMKE,07/11/2017 20:10 UTC,101185.24,25,,69.4,5.66,130,,,,,,,,,,,,336,,,,10,,METAR KMKE 112010Z AUTO 13011KT 10SM FEW033 25/19 A2988,,,,,,,,,,SE,,,thin scattered,,,,19,98571.49,101082.27
KMKE,07/11/2017 20:15 UTC,101185.24,26,,69.6,5.66,130,,,,,,,,,,,,336,,,,10,,METAR KMKE 112015Z AUTO 13011KT 10SM FEW033 26/20 A2988,,,,,,,,,,SE,,,thin scattered,,,,20,98571.49,101073.77
KMKE,07/11/2017 20:20 UTC,,,,,,,,,,,,,,,,,,,,,,,,METAR KMKE 112020Z AUTO 14011KT 10SM FEW033 27/21 A2988,,,,,,,,,,,,,,,,,,,None
KMKE,07/11/2017 20:25 UTC,101219.11,27,,65.62,4.63,130,,,,,,,,,,,,336,,,,10,,METAR KMKE 112025Z AUTO 13009KT 10SM FEW033 27/20 A2989,,,,,,,,,,SE,28.5,,thin scattered,,,,20.01,98604.49,101099.18
KMKE,07/11/2017 20:30 UTC,101219.11,26,,69.6,5.14,120,,,,,,,,,,,,336,,,,10,,METAR KMKE 112030Z AUTO 12010KT 10SM FEW033 26/20 A2989,,,,,,,,,,ESE,,,thin scattered,,,,20,98604.49,101107.61
KMKE,07/11/2017 20:35 UTC,101219.11,27,,69.79,5.14,140,,,,,,,,,,,,336,,,,10,,METAR KMKE 112035Z AUTO 14010KT 10SM FEW033 27/21 A2989,,,,,,,,,,SE,28.84,,thin scattered,,,,21.01,98604.49,101099.16
KMKE,07/11/2017 20:40 UTC,101219.11,26,,69.6,3.09,150,,,,,,,,,,,,336,,,,10,,METAR KMKE 112040Z AUTO 15006KT 10SM FEW033 26/20 A2989,,,,,,,,,,SSE,,,thin scattered,,,,20,98604.49,101107.61
KMKE,07/11/2017 20:45 UTC,101219.11,26,,74.02,3.09,150,,,,,,,,,,,,336,,,,10,,METAR KMKE 112045Z AUTO 15006KT 10SM FEW033 26/21 A2989,,,,,,,,,,SSE,,,thin scattered,,,,21,98604.49,101107.59
KMKE,07/11/2017 20:50 UTC,101219.11,26,,69.6,4.12,130,,,,,,,,,,,,336,,,,10,,METAR KMKE 112050Z AUTO 13008KT 10SM FEW033 26/20 A2989,,,,,,,,,,SE,,,thin scattered,,,,20,98604.49,101107.61
KMKE,07/11/2017 20:52 UTC,101219.11,26.1,20,69.19,3.6,140,,,101170,,2503,,,,1,,,336,2003,,,10,,KMKE 112052Z 14007KT 10SM FEW033 BKN200 BKN250 26/20 A2989 RMK AO2  SLP117 T02610200 50001,,,,6096,,,,,,SE,,,broken,,,,20,98604.49,101106.76
KMKE,07/11/2017 20:55 UTC,,,,,,,,,,,,,,,,,,,,,,,,METAR KMKE 112055Z AUTO 12008KT 10SM FEW033 26/20 A2989,,,,,,,,,,,,,,,,,,,None
KMKE,07/11/2017 21:00 UTC,101219.11,26,,74.02,4.63,130,,,,,,,,,,,,336,,,,10,,METAR KMKE 112100Z AUTO 13009KT 10SM FEW033 26/21 A2989,,,,,,,,,,SE,,,thin scattered,,,,21,98604.49,101107.59
KMKE,07/11/2017 21:05 UTC,101219.11,27,,69.79,4.12,170,,,,,,,,,,,,336,,,,10,,METAR KMKE 112105Z AUTO 17008KT 10SM FEW033 27/21 A2989,,,,,,,,,,S,28.84,,thin scattered,,,,21.01,98604.49,101099.16
KMKE,07/11/2017 21:10 UTC,101252.97,26,,69.6,4.12,170,,,,,,,,,,,,336,,,,10,,METAR KMKE 112110Z AUTO 17008KT 10SM FEW033 26/20 A2990,,,,,,,,,,S,,,thin scattered,,,,20,98637.47,101141.42
KMKE,07/11/2017 21:15 UTC,101219.11,26,,69.6,3.6,170,,,,,,,,,,,,336,,,,10,,METAR KMKE 112115Z AUTO 17007KT 10SM FEW033 26/20 A2989,,,,,,,,,,S,,,thin scattered,,,,20,98604.49,101107.61
KMKE,07/11/2017 21:20 UTC,101252.97,26,,69.6,2.57,200,,,,,,,,,,,,336,,,,10,,METAR KMKE 112120Z AUTO 20005KT 10SM FEW033 26/20 A2990,,,,,,,,,,SSW,,,thin scattered,,,,20,98637.47,101141.42
KMKE,07/11/2017 21:25 UTC,101252.97,27,,69.79,3.09,200,,,,,,,,,,,,336,,,,10,,METAR KMKE 112125Z AUTO 20006KT 10SM FEW033 27/21 A2990,,,,,,,,,,SSW,28.84,,thin scattered,,,,21.01,98637.47,101132.98
KMKE,07/11/2017 21:30 UTC,,,,,,,,,,,,,,,,,,,,,,,,METAR KMKE 112130Z AUTO 20007KT 10SM FEW033 27/21 A2990,,,,,,,,,,,,,,,,,,,None
KMKE,07/11/2017 21:35 UTC,101252.97,27,,69.79,3.09,190,,,,,,,,,,,,336,,,,10,,METAR KMKE 112135Z AUTO 19006KT 10SM FEW033 27/21 A2990,,,,,,,,,,S,28.84,,thin scattered,,,,21.01,98637.47,101132.98
KMKE,07/11/2017 21:40 UTC,101252.97,27,,69.79,3.6,220,,,,,,,,,,,,336,,,,10,,METAR KMKE 112140Z AUTO 22007KT 10SM FEW033 27/21 A2990,,,,,,,,,,SW,28.84,,thin scattered,,,,21.01,98637.47,101132.98
KMKE,07/11/2017 21:45 UTC,101252.97,27,,69.79,4.12,230,,,,,,,,,,,,336,,,,10,,METAR KMKE 112145Z AUTO 23008KT 10SM FEW033 27/21 A2990,,,,,,,,,,SW,28.84,,thin scattered,,,,21.01,98637.47,101132.98
KMKE,07/11/2017 21:50 UTC,101252.97,27,,69.79,3.6,200,,,,,,,,,,,,336,,,,10,,METAR KMKE 112150Z AUTO 20007KT 10SM FEW033 27/21 A2990,,,,,,,,,,SSW,28.84,,thin scattered,,,,21.01,98637.47,101132.98
KMKE,07/11/2017 21:52 UTC,101252.97,26.7,20.6,69.31,3.6,200,,,101200,,2503,,,,,,,336,2003,,,10,,KMKE 112152Z 20007KT 10SM FEW033 BKN200 BKN250 27/21 A2990 RMK AO2  SLP120 CB DSNT W T02670206,,,,6096,,,,,,SSW,28.31,,broken,,,,20.61,98637.47,101135.51
KMKE,07/11/2017 21:55 UTC,101252.97,26,,74.02,3.09,230,,,,,,,,,,,,336,,,,10,,METAR KMKE 112155Z AUTO 23006KT 10SM FEW033 26/21 A2990,,,,,,,,,,SW,,,thin scattered,,,,21,98637.47,101141.4
KMKE,07/11/2017 22:00 UTC,101219.11,27,,69.79,3.09,210,,,,,,,,,,,,336,,,,10,,METAR KMKE 112200Z AUTO 21006KT 10SM FEW033 27/21 A2989,,,,,,,,,,SSW,28.84,,thin scattered,,,,21.01,98604.49,101099.16
KMKE,07/11/2017 22:05 UTC,101219.11,27,,69.79,2.57,210,,,,,,,,,,,,336,,,,10,,METAR KMKE 112205Z AUTO 21005KT 10SM FEW033 27/21 A2989,,,,,,,,,,SSW,28.84,,thin scattered,,,,21.01,98604.49,101099.16
KMKE,07/11/2017 22:10 UTC,101185.24,26,,74.02,2.57,190,,,,,,,,,,,,336,,,,10,,METAR KMKE 112210Z AUTO 19005KT 10SM FEW033 26/21 A2988,,,,,,,,,,S,,,thin scattered,,,,21,98571.49,101073.75
KMKE,07/11/2017 22:15 UTC,101185.24,26,,74.02,3.09,200,,,,,,,,,,,,336,,,,10,,METAR KMKE 112215Z AUTO 20006KT 10SM FEW033 26/21 A2988,,,,,,,,,,SSW,,,thin scattered,,,,21,98571.49,101073.75
KMKE,07/11/2017 22:20 UTC,101151.38,26,,74.02,2.06,210,,,,,,,,,,,,336,,,,10,,METAR KMKE 112220Z AUTO 21004KT 10SM FEW033 26/21 A2987,,,,,,,,,,SSW,,,thin scattered,,,,21,98538.5,101039.92
KMKE,07/11/2017 22:25 UTC,101151.38,26,,74.02,2.57,190,,,,,,,,,,,,336,,,,10,,METAR KMKE 112225Z AUTO 19005KT 10SM FEW033 26/21 A2987,,,,,,,,,,S,,,thin scattered,,,,21,98538.5,101039.92
KMKE,07/11/2017 22:30 UTC,101151.38,26,,74.02,2.57,170,,,,,,,,,,,,336,,,,10,,METAR KMKE 112230Z AUTO 17005KT 10SM FEW033 26/21 A2987,,,,,,,,,,S,,,thin scattered,,,,21,98538.5,101039.92
KMKE,07/11/2017 22:35 UTC,101151.38,26,,74.02,3.09,160,,,,,,,,,,,,336,,,,10,,METAR KMKE 112235Z AUTO 16006KT 10SM FEW033 26/21 A2987,,,,,,,,,,SSE,,,thin scattered,,,,21,98538.5,101039.92
KMKE,07/11/2017 22:40 UTC,101185.24,26,,74.02,4.12,170,,,,13,,,,,,,,336,,,,10,,METAR KMKE 112240Z AUTO 17008KT 10SM -RA FEW033 26/21 A2988,,,,,,,,,,S,,light rain,light rain,,,,21,98571.49,101073.75
KMKE,07/11/2017 22:45 UTC,101151.38,26,,74.02,4.12,170,,,,13,,,,,,,,336,,,,10,,METAR KMKE 112245Z AUTO 17008KT 10SM -RA FEW033 26/21 A2987,,,,,,,,,,S,,light rain,light rain,,,,21,98538.5,101039.92
KMKE,07/11/2017 22:50 UTC,101185.24,26,,74.02,3.6,180,,,,13,,,,,,,,336,,,,10,,METAR KMKE 112250Z AUTO 18007KT 10SM -RA FEW033 26/21 A2988,,,,,,,,,,S,,light rain,light rain,,,,21,98571.49,101073.75
KMKE,07/11/2017 22:52 UTC,101185.24,25.6,21.1,76.26,4.12,190,,,101140,13,1203,,,,,0.025,,656,1003,,,10,,KMKE 112252Z 19008KT 10SM -RA FEW065 BKN100 BKN120 OVC200 26/21  A2988 RMK AO2 RAB37 SLP114 P0000 T02560211,,,,3048,,,,,,S,,light rain,light rain,,,,21.1,98571.49,101077.13
KMKE,07/11/2017 22:55 UTC,101185.24,26,,74.02,3.6,180,,,,13,1203,,,,,,,656,1003,,,10,,METAR KMKE 112255Z AUTO 18007KT 10SM -RA FEW065 BKN100 BKN120 26/21 A2988,,,,3048,,,,,,S,,light rain,light rain,,,,21,98571.49,101073.75
KMKE,07/11/2017 23:00 UTC,101185.24,26,,74.02,2.57,180,,,,,1103,,,,,,,656,902,,,10,,METAR KMKE 112300Z AUTO 18005KT 10SM FEW065 SCT090 BKN110 26/21 A2988,,,,3352.8,,,,,,S,,,broken,,,,21,98571.49,101073.75
KMKE,07/11/2017 23:05 UTC,101219.11,26,,74.02,2.06,190,,,,13,1104,,,,,,,656,902,,,10,,METAR KMKE 112305Z AUTO 19004KT 10SM -RA FEW065 SCT090 OVC110 26/21 A2989,,,,3352.8,,,,,,S,,light rain,light rain,,,,21,98604.49,101107.59
KMKE,07/11/2017 23:10 UTC,101219.11,26,,74.02,2.57,210,,,,13,,,,,,,,656,1104,,,10,,METAR KMKE 112310Z AUTO 21005KT 10SM -RA FEW065 OVC110 26/21 A2989,,,,3352.8,,,,,,SSW,,light rain,light rain,,,,21,98604.49,101107.59
KMKE,07/11/2017 23:15 UTC,101185.24,26,,74.02,3.09,180,,,,13,,,,,,,,656,1104,,,10,,METAR KMKE 112315Z AUTO 18006KT 10SM -RA FEW065 OVC110 26/21 A2988,,,,3352.8,,,,,,S,,light rain,light rain,,,,21,98571.49,101073.75
KMKE,07/11/2017 23:20 UTC,101185.24,26,,74.02,3.6,180,,,,13,,,,,,,,1104,,,,10,,METAR KMKE 112320Z AUTO 18007KT 10SM -RA OVC110 26/21 A2988,,,,3352.8,,,,,,S,,light rain,light rain,,,,21,98571.49,101073.75
KMKE,07/11/2017 23:25 UTC,,,,,,,,,,,,,,,,,,,,,,,,METAR KMKE 112325Z AUTO 19004KT 10SM -RA FEW047 BKN110 26/21 A2987,,,,,,,,,,,,,,,,,,,None
KMKE,07/11/2017 23:30 UTC,101185.24,26,,74.02,2.57,210,,,,13,,,,,,,,476,1103,,,10,,METAR KMKE 112330Z AUTO 21005KT 10SM -RA FEW047 BKN110 26/21 A2988,,,,3352.8,,,,,,SSW,,light rain,light rain,,,,21,98571.49,101073.75
KMKE,07/11/2017 23:35 UTC,101185.24,26,,74.02,2.06,210,,,,,,,,,,,,446,1103,,,10,,METAR KMKE 112335Z AUTO 21004KT 10SM FEW044 BKN110 26/21 A2988,,,,3352.8,,,,,,SSW,,,broken,,,,21,98571.49,101073.75
KMKE,07/11/2017 23:40 UTC,101185.24,26,,74.02,2.57,210,,,,,,,,,,,,446,1103,,,10,,METAR KMKE 112340Z AUTO 21005KT 10SM FEW044 BKN110 26/21 A2988,,,,3352.8,,,,,,SSW,,,broken,,,,21,98571.49,101073.75
KMKE,07/11/2017 23:45 UTC,101151.38,26,,74.02,1.54,210,,,,,,,,,,,,456,1103,,,10,,METAR KMKE 112345Z AUTO 21003KT 10SM FEW045 BKN110 26/21 A2987,,,,3352.8,,,,,,SSW,,,broken,,,,21,98538.5,101039.92
KMKE,07/11/2017 23:50 UTC,101185.24,26,,74.02,2.06,210,,,,13,,,,,,,,456,1003,,,10,,METAR KMKE 112350Z AUTO 21004KT 10SM -RA FEW045 BKN100 26/21 A2988,,,,3048,,,,,,SSW,,light rain,light rain,,,,21,98571.49,101073.75
KMKE,07/11/2017 23:52 UTC,101185.24,26.1,21.1,74.03,2.06,210,,,101120,13,1803,,,,8003,0.025,,456,1003,0.025,,10,,KMKE 112352Z 21004KT 10SM -RA FEW045 BKN100 BKN180 26/21 A2988 RMK AO2 RAE34B50 SLP112 P0000 60000 T02610211 10267 20244  58003,26.7,24.4,,3048,,,,,,SSW,,light rain,light rain,,,,21.1,98571.49,101072.9
KMKE,07/11/2017 23:55 UTC,101185.24,26,,74.02,2.06,200,,,,13,,,,,,,,1006,1202,,,10,,METAR KMKE 112355Z AUTO 20004KT 10SM -RA FEW100 SCT120 26/21 A2988,,,,,,,,,,SSW,,light rain,light rain,,,,21,98571.49,101073.75
KMKE,07/12/2017 00:00 UTC,101185.24,26,,74.02,3.09,210,,,,13,,,,,,,,1102,,,,10,,METAR KMKE 120000Z AUTO 21006KT 10SM -RA SCT110 26/21 A2988,,,,,,,,,,SSW,,light rain,light rain,,,,21,98571.49,101073.75
KMKE,07/12/2017 00:05 UTC,101185.24,26,,74.02,3.09,210,,,,,,,,,,,,1006,1202,,,10,,METAR KMKE 120005Z AUTO 21006KT 10SM FEW100 SCT120 26/21 A2988,,,,,,,,,,SSW,,,scattered,,,,21,98571.49,101073.75
KMKE,07/12/2017 00:10 UTC,101185.24,26,,74.02,3.6,210,,,,,1202,,,,,,,286,1006,,,10,,METAR KMKE 120010Z AUTO 21007KT 10SM FEW028 FEW100 SCT120 26/21 A2988,,,,,,,,,,SSW,,,scattered,,,,21,98571.49,101073.75
KMKE,07/12/2017 00:15 UTC,101151.38,26,,74.02,3.09,210,,,,,,,,,,,,286,956,,,10,,METAR KMKE 120015Z AUTO 21006KT 10SM FEW028 FEW095 26/21 A2987,,,,,,,,,,SSW,,,thin scattered,,,,21,98538.5,101039.92
KMKE,07/12/2017 00:20 UTC,101151.38,26,,74.02,3.09,210,,,,,,,,,,,,286,,,,10,,METAR KMKE 120020Z AUTO 21006KT 10SM FEW028 26/21 A2987,,,,,,,,,,SSW,,,thin scattered,,,,21,98538.5,101039.92
KMKE,07/12/2017 00:25 UTC,,,,,,,,,,,,,,,,,,,,,,,,METAR KMKE 120025Z AUTO 21006KT 10SM FEW028 26/21 A2987,,,,,,,,,,,,,,,,,,,None
KMKE,07/12/2017 00:30 UTC,,,,,,,,,,,,,,,,,,,,,,,,METAR KMKE 120030Z AUTO 22006KT 10SM FEW028 26/21 A2986,,,,,,,,,,,,,,,,,,,None
KMKE,07/12/2017 00:35 UTC,,,,,,,,,,,,,,,,,,,,,,,,METAR KMKE 120035Z AUTO 26004KT 10SM FEW028 26/21 A2986,,,,,,,,,,,,,,,,,,,None
KMKE,07/12/2017 00:40 UTC,101117.52,27,,69.79,2.06,240,,,,,,,,,,,,1,,,,10,,METAR KMKE 120040Z AUTO 24004KT 10SM CLR 27/21 A2986,,,,,,,,,,WSW,28.84,,clear,,,,21.01,98505.52,100997.69
KMKE,07/12/2017 00:45 UTC,101117.52,27,,65.62,3.09,240,,,,,,,,,,,,1,,,,10,,METAR KMKE 120045Z AUTO 24006KT 10SM CLR 27/20 A2986,,,,,,,,,,WSW,28.5,,clear,,,,20.01,98505.52,100997.71
KMKE,07/12/2017 00:50 UTC,101117.52,27,,65.62,2.57,240,,,,,,,,,,,,206,,,,10,,METAR KMKE 120050Z AUTO 24005KT 10SM FEW020 27/20 A2986,,,,,,,,,,WSW,28.5,,thin scattered,,,,20.01,98505.52,100997.71
KMKE,07/12/2017 00:52 UTC,101083.65,26.1,20,69.19,2.06,220,,,101040,,,,,,,0.025,,206,1403,,,10,,KMKE 120052Z 22004KT 10SM FEW020 BKN140 26/20 A2985 RMK AO2 RAE01  SLP104 P0000 T02610200,,,,4267.2,,,,,,SW,,,broken,,,,20,98472.52,100971.44
KMKE,07/12/2017 00:55 UTC,101083.65,26,,69.6,0,0,,,,,,,,,,,,1,,,,10,,METAR KMKE 120055Z AUTO 00000KT 10SM CLR 26/20 A2985,,,,,,,,,,N,,,clear,,,,20,98472.52,100972.29
KMKE,07/12/2017 01:00 UTC,101117.52,27,,61.67,2.57,270,,,,,,,,,,,,206,,,,10,,METAR KMKE 120100Z AUTO 27005KT 10SM FEW020 27/19 A2986,,,,,,,,,,W,28.2,,thin scattered,,,,19.01,98505.52,100997.73
KMKE,07/12/2017 01:05 UTC,101117.52,27,,61.67,2.06,260,,,,,,,,,,,,206,,,,10,,METAR KMKE 120105Z AUTO 26004KT 10SM FEW020 27/19 A2986,,,,,,,,,,W,28.2,,thin scattered,,,,19.01,98505.52,100997.73
KMKE,07/12/2017 01:10 UTC,,,,,,,,,,,,,,,,,,,,,,,,METAR KMKE 120110Z AUTO 27004KT 10SM FEW020 27/19 A2986,,,,,,,,,,,,,,,,,,,None
KMKE,07/12/2017 01:15 UTC,,,,,,,,,,,,,,,,,,,,,,,,METAR KMKE 120115Z AUTO 24004KT 10SM FEW020 27/19 A2986,,,,,,,,,,,,,,,,,,,None
KMKE,07/12/2017 01:20 UTC,101117.52,27,,57.94,2.06,250,,,,,,,,,,,,206,,,,10,,METAR KMKE 120120Z AUTO 25004KT 10SM FEW020 27/18 A2986,,,,,,,,,,WSW,27.94,,thin scattered,,,,18.01,98505.52,100997.74
KMKE,07/12/2017 01:25 UTC,101117.52,27,,57.94,1.54,250,,,,,,,,,,,,206,,,,10,,METAR KMKE 120125Z AUTO 25003KT 10SM FEW020 27/18 A2986,,,,,,,,,,WSW,27.94,,thin scattered,,,,18.01,98505.52,100997.74
KMKE,07/12/2017 01:30 UTC,101117.52,27,,57.94,0,0,,,,,,,,,,,,206,,,,10,,METAR KMKE 120130Z AUTO 00000KT 10SM FEW020 27/18 A2986,,,,,,,,,,N,27.94,,thin scattered,,,,18.01,98505.52,100997.74
KMKE,07/12/2017 01:35 UTC,101117.52,26,,61.44,0,0,,,,,,,,,,,,206,,,,10,,METAR KMKE 120135Z AUTO 00000KT 10SM FEW020 26/18 A2986,,,,,,,,,,N,,,thin scattered,,,,18,98505.52,101006.16
KMKE,07/12/2017 01:40 UTC,,,,,,,,,,,,,,,,,,,,,,,,METAR KMKE 120140Z AUTO 21005KT 10SM FEW020 26/18 A2986,,,,,,,,,,,,,,,,,,,None
KMKE,07/12/2017 01:45 UTC,101117.52,26,,65.41,2.57,210,,,,,,,,,,,,206,,,,10,,METAR KMKE 120145Z AUTO 21005KT 10SM FEW020 26/19 A2986,,,,,,,,,,SSW,,,thin scattered,,,,19,98505.52,101006.14
KMKE,07/12/2017 01:50 UTC,101117.52,26,,65.41,2.06,210,,,,,,,,,,,,506,,,,10,,METAR KMKE 120150Z AUTO 21004KT 10SM FEW050 26/19 A2986,,,,,,,,,,SSW,,,thin scattered,,,,19,98505.52,101006.14
KMKE,07/12/2017 01:52 UTC,101117.52,25.6,18.9,66.56,2.06,200,,,101050,,,,,,,,,506,1403,,,10,,KMKE 120152Z 20004KT 10SM FEW050 BKN140 26/19 A2986 RMK AO2 SLP105  T02560189,,,,4267.2,,,,,,SSW,,,broken,,,,18.9,98505.52,101009.53
KMKE,07/12/2017 01:55 UTC,101117.52,26,,65.41,2.06,200,,,,,,,,,,,,1,,,,10,,METAR KMKE 120155Z AUTO 20004KT 10SM CLR 26/19 A2986,,,,,,,,,,SSW,,,clear,,,,19,98505.52,101006.14
KMKE,07/12/2017 02:00 UTC,101117.52,26,,65.41,3.09,200,,,,,,,,,,,,1,,,,10,,METAR KMKE 120200Z AUTO 20006KT 10SM CLR 26/19 A2986,,,,,,,,,,SSW,,,clear,,,,19,98505.52,101006.14
KMKE,07/12/2017 02:05 UTC,101117.52,26,,65.41,2.57,190,,,,,,,,,,,,1,,,,10,,METAR KMKE 120205Z AUTO 19005KT 10SM CLR 26/19 A2986,,,,,,,,,,S,,,clear,,,,19,98505.52,101006.14
KMKE,07/12/2017 02:10 UTC,,,,,,,,,,,,,,,,,,,,,,,,METAR KMKE 120210Z AUTO 20003KT 10SM CLR 26/19 A2986,,,,,,,,,,,,,,,,,,,None
KMKE,07/12/2017 02:15 UTC,101117.52,25,,69.4,2.57,140,,,,,,,,,,,,1,,,,10,,METAR KMKE 120215Z AUTO 14005KT 10SM CLR 25/19 A2986,,,,,,,,,,SE,,,clear,,,,19,98505.52,101014.61
KMKE,07/12/2017 02:20 UTC,101117.52,24,,73.67,2.57,140,,,,,,,,,,,,1,,,,10,,METAR KMKE 120220Z AUTO 14005KT 10SM CLR 24/19 A2986,,,,,,,,,,SE,,,clear,,,,18.99,98505.52,101023.15
KMKE,07/12/2017 02:25 UTC,101117.52,24,,73.67,2.57,130,,,,,,,,,,,,,,,,10,,METAR KMKE 120225Z AUTO 13005KT 10SM 24/19 A2986,,,,,,,,,,SE,,,,,,,18.99,98505.52,101023.15
KMKE,07/12/2017 02:30 UTC,101151.38,24,,78.39,2.06,150,,,,,,,,,,,,,,,,10,,METAR KMKE 120230Z AUTO 15004KT 10SM 24/20 A2987,,,,,,,,,,SSE,,,,,,,20,98538.5,101056.95
KMKE,07/12/2017 02:35 UTC,101151.38,24,,78.39,2.06,160,,,,,,,,,,,,,,,,10,,METAR KMKE 120235Z AUTO 16004KT 10SM 24/20 A2987,,,,,,,,,,SSE,,,,,,,20,98538.5,101056.95
KMKE,07/12/2017 02:40 UTC,101151.38,24,,83.37,2.57,170,,,,,,,,,,,,,,,,10,,METAR KMKE 120240Z AUTO 17005KT 10SM 24/21 A2987,,,,,,,,,,S,,,,,,,21,98538.5,101056.93
KMKE,07/12/2017 02:45 UTC,101117.52,24,,83.37,2.06,160,,,,,,,,,,,,,,,,10,,METAR KMKE 120245Z AUTO 16004KT 10SM 24/21 A2986,,,,,,,,,,SSE,,,,,,,21,98505.52,101023.11
KMKE,07/12/2017 02:50 UTC,101117.52,24,,83.37,1.54,150,,,,,,,,,,,,306,,,,10,,METAR KMKE 120250Z AUTO 15003KT 10SM FEW030 24/21 A2986,,,,,,,,,,SSE,,,thin scattered,,,,21,98505.52,101023.11
KMKE,07/12/2017 02:52 UTC,101117.52,24.4,21.1,81.9,1.54,150,,,101080,,,,,,5005,,0.025,306,1403,,,10,,KMKE 120252Z 15003KT 10SM FEW030 BKN140 24/21 A2986 RMK AO2 SLP108  60000 T02440211 55005,,,,4267.2,,,,,,SSE,,,broken,,,,21.1,98505.52,101019.69
KMKE,07/12/2017 02:55 UTC,101117.52,24,,83.37,2.57,130,,,,,,,,,,,,306,,,,10,,METAR KMKE 120255Z AUTO 13005KT 10SM FEW030 24/21 A2986,,,,,,,,,,SE,,,thin scattered,,,,21,98505.52,101023.11
KMKE,07/12/2017 03:00 UTC,101117.52,24,,83.37,2.06,120,,,,,,,,,,,,306,,,,10,,METAR KMKE 120300Z AUTO 12004KT 10SM FEW030 24/21 A2986,,,,,,,,,,ESE,,,thin scattered,,,,21,98505.52,101023.11
KMKE,07/12/2017 03:05 UTC,101117.52,24,,88.62,1.54,120,,,,,,,,,,,,306,,,,10,,METAR KMKE 120305Z AUTO 12003KT 10SM FEW030 24/22 A2986,,,,,,,,,,ESE,,,thin scattered,,,,22,98505.52,101023.09
KMKE,07/12/2017 03:10 UTC,101117.52,24,,83.37,2.06,100,,,,,,,,,,,,306,,,,10,,METAR KMKE 120310Z AUTO 10004KT 10SM FEW030 24/21 A2986,,,,,,,,,,E,,,thin scattered,,,,21,98505.52,101023.11
KMKE,07/12/2017 03:15 UTC,101117.52,24,,83.37,2.06,90,,,,,,,,,,,,306,,,,10,,METAR KMKE 120315Z AUTO 09004KT 10SM FEW030 24/21 A2986,,,,,,,,,,E,,,thin scattered,,,,21,98505.52,101023.11
KMKE,07/12/2017 03:20 UTC,101083.65,23,,88.54,2.57,70,,,,,,,,,,,,306,,,,10,,METAR KMKE 120320Z AUTO 07005KT 10SM FEW030 23/21 A2985,,,,,,,,,,ENE,,,thin scattered,,,,21,98472.52,100997.85
KMKE,07/12/2017 03:25 UTC,101083.65,23,,88.54,2.57,70,,,,,,,,,,,,306,,,,10,,METAR KMKE 120325Z AUTO 07005KT 10SM FEW030 23/21 A2985,,,,,,,,,,ENE,,,thin scattered,,,,21,98472.52,100997.85
KMKE,07/12/2017 03:30 UTC,101083.65,24,,88.62,3.09,80,,,,,,,,,,,,306,,,,10,,METAR KMKE 120330Z AUTO 08006KT 10SM FEW030 24/22 A2985,,,,,,,,,,E,,,thin scattered,,,,22,98472.52,100989.24
KMKE,07/12/2017 03:35 UTC,101117.52,24,,88.62,2.06,90,,,,,,,,,,,,306,,,,10,,METAR KMKE 120335Z AUTO 09004KT 10SM FEW030 24/22 A2986,,,,,,,,,,E,,,thin scattered,,,,22,98505.52,101023.09
KMKE,07/12/2017 03:40 UTC,101117.52,23,,94.12,2.57,120,,,,,,,,,,,,306,,,,10,,METAR KMKE 120340Z AUTO 12005KT 10SM FEW030 23/22 A2986,,,,,,,,,,ESE,,,thin scattered,,,,22,98505.52,101031.67
KMKE,07/12/2017 03:45 UTC,,,,,,,,,,,,,,,,,,,,,,,,METAR KMKE 120345Z AUTO 12004KT 10SM FEW030 23/22 A2988,,,,,,,,,,,,,,,,,,,None
KMKE,07/12/2017 03:50 UTC,,,,,,,,,,,,,,,,,,,,,,,,METAR KMKE 120350Z AUTO 12006KT 10SM FEW030 23/21 A2988,,,,,,,,,,,,,,,,,,,None
KMKE,07/12/2017 03:52 UTC,101185.24,22.8,21.1,90.17,3.09,120,,,101130,,2503,,,,,,,142,1503,,,10,,KMKE 120352Z 12006KT 10SM SCT014 BKN150 BKN250 23/21 A2988 RMK AO2  SLP113 T02280211,,,,4572,,,,,,ESE,,,broken,,,,21.1,98571.49,101101.08
KMKE,07/12/2017 03:55 UTC,101219.11,23,,88.54,2.57,120,,,,,,,,,,,,142,,,,10,,METAR KMKE 120355Z AUTO 12005KT 10SM SCT014 23/21 A2989,,,,,,,,,,ESE,,,scattered,,,,21,98604.49,101133.2
KMKE,07/12/2017 04:00 UTC,101252.97,23,,88.54,2.57,140,,,,,,,,,,,,143,,,,10,,METAR KMKE 120400Z AUTO 14005KT 10SM BKN014 23/21 A2990,,,,426.72,,,,,,SE,,,broken,,,,21,98637.47,101167.03
KMKE,07/12/2017 04:04 UTC,101252.97,22.8,21.1,90.17,3.09,130,,,,,,,,,,,,143,2503,,,10,,KMKE 120404Z 13006KT 10SM BKN014 BKN250 23/21 A2990 RMK AO2  T02280211,,,,426.72,,,,,,SE,,,broken,,,,21.1,98637.47,101168.75
KMKE,07/12/2017 04:05 UTC,101252.97,23,,88.54,3.6,130,,,,,,,,,,,,143,,,,10,,METAR KMKE 120405Z AUTO 13007KT 10SM BKN014 23/21 A2990,,,,426.72,,,,,,SE,,,broken,,,,21,98637.47,101167.03
KMKE,07/12/2017 04:10 UTC,101219.11,23,,88.54,4.12,140,,,,,,,,,,,,143,,,,10,,METAR KMKE 120410Z AUTO 14008KT 10SM BKN014 23/21 A2989,,,,426.72,,,,,,SE,,,broken,,,,21,98604.49,101133.2
KMKE,07/12/2017 04:15 UTC,101219.11,23,,88.54,3.6,140,,,,,,,,,,,,143,,,,10,,METAR KMKE 120415Z AUTO 14007KT 10SM BKN014 23/21 A2989,,,,426.72,,,,,,SE,,,broken,,,,21,98604.49,101133.2
KMKE,07/12/2017 04:20 UTC,101252.97,23,,88.54,4.12,150,,,,,,,,,,,,143,,,,10,,METAR KMKE 120420Z AUTO 15008KT 10SM BKN014 23/21 A2990,,,,426.72,,,,,,SSE,,,broken,,,,21,98637.47,101167.03
KMKE,07/12/2017 04:25 UTC,101252.97,23,,88.54,5.14,120,,,,,,,,,,,,143,,,,10,,METAR KMKE 120425Z AUTO 12010KT 10SM BKN014 23/21 A2990,,,,426.72,,,,,,ESE,,,broken,,,,21,98637.47,101167.03
KMKE,07/12/2017 04:30 UTC,101219.11,23,,88.54,3.6,150,,,,,,,,,,,,143,1103,,,10,,METAR KMKE 120430Z AUTO 15007KT 10SM BKN014 BKN110 23/21 A2989,,,,426.72,,,,,,SSE,,,broken,,,,21,98604.49,101133.2
KMKE,07/12/2017 04:35 UTC,101219.11,23,,88.54,4.12,130,,,,,,,,,,,,143,1103,,,10,,METAR KMKE 120435Z AUTO 13008KT 10SM BKN014 BKN110 23/21 A2989,,,,426.72,,,,,,SE,,,broken,,,,21,98604.49,101133.2
KMKE,07/12/2017 04:40 UTC,101219.11,23,,88.54,3.6,140,,,,,,,,,,,,143,1103,,,10,,METAR KMKE 120440Z AUTO 14007KT 10SM BKN014 BKN110 23/21 A2989,,,,426.72,,,,,,SE,,,broken,,,,21,98604.49,101133.2
KMKE,07/12/2017 04:45 UTC,101219.11,23,,88.54,4.12,140,,,,,,,,,,,,143,1103,,,10,,METAR KMKE 120445Z AUTO 14008KT 10SM BKN014 BKN110 23/21 A2989,,,,426.72,,,,,,SE,,,broken,,,,21,98604.49,101133.2
KMKE,07/12/2017 04:50 UTC,101219.11,23,,88.54,4.12,150,,,,,,,,,,,,143,1103,,,10,,METAR KMKE 120450Z AUTO 15008KT 10SM BKN014 BKN110 23/21 A2989,,,,426.72,,,,,,SSE,,,broken,,,,21,98604.49,101133.2
KMKE,07/12/2017 04:52 UTC,101185.24,22.8,21.1,90.17,3.6,140,,,101150,,2504,,,,,,,143,1103,,,10,,KMKE 120452Z 14007KT 10SM BKN014 BKN110 OVC250 23/21 A2988 RMK AO2  LTG DSNT S-W SLP115 T02280211,,,,426.72,,,,,,SE,,,overcast,,,,21.1,98571.49,101101.08
KMKE,07/12/2017 04:55 UTC,101185.24,23,,88.54,3.6,150,,,,,,,,,,,,173,1004,,,10,,METAR KMKE 120455Z AUTO 15007KT 10SM BKN017 OVC100 23/21 A2988,,,,518.16,,,,,,SSE,,,overcast,,,,21,98571.49,101099.36
KMKE,07/12/2017 04:59 UTC,101185.24,22.8,21.1,90.17,3.6,140,,,,,,,,,,,,173,1104,,,10,,KMKE 120459Z 14007KT 10SM BKN017 OVC110 23/21 A2988 RMK AO2 LTG  DSNT S-W T02280211,,,,518.16,,,,,,SE,,,overcast,,,,21.1,98571.49,101101.08
KMKE,07/12/2017 05:00 UTC,101185.24,23,,88.54,4.12,140,,,,,,,,,,,,173,1104,,,10,,METAR KMKE 120500Z AUTO 14008KT 10SM BKN017 OVC110 23/21 A2988,,,,518.16,,,,,,SE,,,overcast,,,,21,98571.49,101099.36
KMKE,07/12/2017 05:05 UTC,101219.11,23,,94.12,4.63,160,,,,,,,,,,,,173,1104,,,10,,METAR KMKE 120505Z AUTO 16009KT 10SM BKN017 OVC110 23/22 A2989,,,,518.16,,,,,,SSE,,,overcast,,,,22,98604.49,101133.18
KMKE,07/12/2017 05:10 UTC,,,,,,,,,,,,,,,,,,,,,,,,METAR KMKE 120510Z AUTO 16010KT 10SM BKN017 OVC110 23/22 A2989,,,,,,,,,,,,,,,,,,,None
KMKE,07/12/2017 05:15 UTC,101219.11,23,,94.12,4.12,170,,,,,,,,,,,,173,1104,,,10,,METAR KMKE 120515Z AUTO 17008KT 10SM BKN017 OVC110 23/22 A2989,,,,518.16,,,,,,S,,,overcast,,,,22,98604.49,101133.18
KMKE,07/12/2017 05:20 UTC,101185.24,23,,94.12,3.6,140,,,,,,,,,,,,173,1104,,,10,,METAR KMKE 120520Z AUTO 14007KT 10SM BKN017 OVC110 23/22 A2988,,,,518.16,,,,,,SE,,,overcast,,,,22,98571.49,101099.34
KMKE,07/12/2017 05:25 UTC,101117.52,23,,94.12,3.6,120,,,,,,,,,,,,173,1104,,,10,,METAR KMKE 120525Z AUTO 12007KT 10SM BKN017 OVC110 23/22 A2986,,,,518.16,,,,,,ESE,,,overcast,,,,22,98505.52,101031.67
KMKE,07/12/2017 05:30 UTC,101117.52,23,,94.12,3.6,130,,,,13,,,,,,,,173,1104,,,10,,METAR KMKE 120530Z AUTO 13007KT 10SM -RA BKN017 OVC110 23/22 A2986,,,,518.16,,,,,,SE,,light rain,light rain,,,,22,98505.52,101031.67
KMKE,07/12/2017 05:35 UTC,101151.38,23,,94.12,3.09,150,,,,13,,,,,,,,173,1104,,,10,,METAR KMKE 120535Z AUTO 15006KT 10SM -RA BKN017 OVC110 23/22 A2987,,,,518.16,,,,,,SSE,,light rain,light rain,,,,22,98538.5,101065.5
KMKE,07/12/2017 05:40 UTC,,,,,,,,,,,,,,,,,,,,,,,,METAR KMKE 120540Z AUTO 15009KT 10SM -RA BKN017 OVC110 23/22 A2987,,,,,,,,,,,,,,,,,,,None
KMKE,07/12/2017 05:45 UTC,101185.24,23,,94.12,4.63,160,,,,,1004,,,,,,,192,462,,,10,,METAR KMKE 120545Z AUTO 16009KT 10SM SCT019 SCT046 OVC100 23/22 A2988,,,,3048,,,,,,SSE,,,overcast,,,,22,98571.49,101099.34
KMKE,07/12/2017 05:48 UTC,101185.24,23,22,94.12,5.14,160,,,,,1004,,,,,0.025,,192,462,,,10,,KMKE 120548Z 16010KT 10SM SCT019 SCT046 OVC100 23/22 A2988 RMK AO2  LTG DSNT S-W RAB27E42 FRQ LTG DSNT S-W CB DSNT S-W P0000,,,,3048,,,,,,SSE,,,overcast,,,,22,98571.49,101099.34
KMKE,07/12/2017 05:50 UTC,101151.38,23,,94.12,5.14,160,,,,,1004,,,,,,,192,462,,,10,,METAR KMKE 120550Z AUTO 16010KT 10SM SCT019 SCT046 OVC100 23/22 A2987,,,,3048,,,,,,SSE,,,overcast,,,,22,98538.5,101065.5
KMKE,07/12/2017 05:52 UTC,101151.38,23.3,22.2,93.56,5.14,150,,,101110,,1004,,,,8002,0.025,,192,462,0.025,,10,,KMKE 120552Z 15010KT 10SM SCT019 SCT046 OVC100 23/22 A2987 RMK AO2  LTG DSNT S-W RAB27E42 SLP111 FRQ LTG DSNT S-W CB DSNT S-W  P0000 60000 T02330222 10267 20228 402670189 58002,26.7,22.8,,3048,,26.7,18.9,,,SSE,,,overcast,,,,22.2,98538.5,101062.91
KMKE,07/12/2017 05:55 UTC,101151.38,23,,94.12,4.63,150,,,,,854,,,,,,,196,753,,,10,,METAR KMKE 120555Z AUTO 15009KT 10SM FEW019 BKN075 OVC085 23/22 A2987,,,,2286,,,,,,SSE,,,overcast,,,,22,98538.5,101065.5
KMKE,07/12/2017 06:00 UTC,101151.38,23,,94.12,3.09,130,,,,,804,,,,,,,172,493,,,10,,METAR KMKE 120600Z AUTO 13006KT 10SM SCT017 BKN049 OVC080 23/22 A2987,,,,1493.52,,,,,,SE,,,overcast,,,,22,98538.5,101065.5
KMKE,07/12/2017 06:05 UTC,101151.38,23,,94.12,2.57,150,,,,,804,,,,,,,172,493,,,10,,METAR KMKE 120605Z AUTO 15005KT 10SM SCT017 BKN049 OVC080 23/22 A2987,,,,1493.52,,,,,,SSE,,,overcast,,,,22,98538.5,101065.5
KMKE,07/12/2017 06:10 UTC,101117.52,23,,94.12,1.54,150,,,,,754,,,,,,,152,502,,,10,,METAR KMKE 120610Z AUTO 15003KT 10SM SCT015 SCT050 OVC075 23/22 A2986,,,,2286,,,,,,SSE,,,overcast,,,,22,98505.52,101031.67
KMKE,07/12/2017 06:15 UTC,101151.38,24,,88.62,4.12,190,,,,,754,,,,,,,116,152,,,10,,METAR KMKE 120615Z AUTO 19008KT 10SM FEW011 SCT015 OVC075 24/22 A2987,,,,2286,,,,,,S,,,overcast,,,,22,98538.5,101056.91
KMKE,07/12/2017 06:20 UTC,101151.38,24,,88.62,5.66,210,,,,,754,,,,,,,116,503,,,10,,METAR KMKE 120620Z AUTO 21011KT 10SM FEW011 BKN050 OVC075 24/22 A2987,,,,1524,,,,,,SSW,,,overcast,,,,22,98538.5,101056.91
KMKE,07/12/2017 06:25 UTC,101151.38,24,,88.62,6.17,220,,,,2493,754,,,,,,,156,553,,,6,,METAR KMKE 120625Z AUTO 22012KT 6SM -RA BR FEW015 BKN055 OVC075 24/22 A2987,,,,1676.4,,,,,,SW,,"light rain,mist","light rain,mist",,,,22,98538.5,101056.91
KMKE,07/12/2017 06:30 UTC,101151.38,23,,94.12,5.14,220,,,,2493,754,,,,,,,136,553,,,6,,METAR KMKE 120630Z AUTO 22010KT 6SM -RA BR FEW013 BKN055 OVC075 23/22 A2987,,,,1676.4,,,,,,SW,,"light rain,mist","light rain,mist",,,,22,98538.5,101065.5
KMKE,07/12/2017 06:35 UTC,101151.38,23,,94.12,4.12,230,,,,13,754,,,,,0.254,,136,553,,,10,,METAR KMKE 120635Z AUTO 23008KT 10SM -RA FEW013 BKN055 OVC075 23/22 A2987 RMK P0001,,,,1676.4,,,,,,SW,,light rain,light rain,,,,22,98538.5,101065.5
KMKE,07/12/2017 06:37 UTC,101151.38,23.3,22.2,93.56,3.6,240,,,,77,754,,,,,0.254,,136,553,,,10,,KMKE 120637Z 24007KT 10SM -TSRA FEW013 BKN055CB OVC075 23/22 A2987 RMK AO2 LTG DSNT S-NW RAB23 TSB25 FRQ LTGICCC SW-NW TS SW-NW  MOV E P0001 T02330222,,,,1676.4,,,,,,WSW,,light rain/thunderstorm,light rain/thunderstorm,,,,22.2,98538.5,101062.91
KMKE,07/12/2017 06:40 UTC,101151.38,23,,94.12,4.63,230,,,,13,704,,,,,0.254,,136,553,,,10,,METAR KMKE 120640Z AUTO 23009KT 10SM -RA FEW013 BKN055 OVC070 23/22 A2987 RMK P0001,,,,1676.4,,,,,,SW,,light rain,light rain,,,,22,98538.5,101065.5
KMKE,07/12/2017 06:45 UTC,101151.38,23,,94.12,6.17,230,,,,13,704,,,,,0.254,,136,553,,,10,,METAR KMKE 120645Z AUTO 23012KT 10SM -RA FEW013 BKN055 OVC070 23/22 A2987 RMK P0001,,,,1676.4,,,,,,SW,,light rain,light rain,,,,22,98538.5,101065.5
KMKE,07/12/2017 06:50 UTC,101185.24,23,,94.12,6.69,230,,,,13,704,,,,,0.254,,136,553,,,10,,METAR KMKE 120650Z AUTO 23013KT 10SM -RA FEW013 BKN055 OVC070 23/22 A2988 RMK P0001,,,,1676.4,,,,,,SW,,light rain,light rain,,,,22,98571.49,101099.34
KMKE,07/12/2017 06:52 UTC,101185.24,23.3,21.7,90.75,7.2,230,,,101120,66,704,,,,,0.254,,136,553,,,10,,KMKE 120652Z 23014KT 10SM TSRA FEW013 BKN055CB OVC070 23/22 A2988 RMK AO2 LTG DSNT S-NW SLP112 RAB23 TSB25 FRQ LTGICCC OHD TS  OHD MOV E P0001 T02330217,,,,1676.4,,,,,,SW,,thunderstorm,thunderstorm,,,,21.7,98571.49,101096.76
KMKE,07/12/2017 06:55 UTC,101151.38,23,,94.12,5.14,230,,,,1,654,,,,,0.254,,156,553,,,10,,METAR KMKE 120655Z AUTO 23010KT 10SM RA FEW015 BKN055 OVC065 23/22 A2987 RMK P0001,,,,1676.4,,,,,,SW,,rain,rain,,,,22,98538.5,101065.5
KMKE,07/12/2017 07:00 UTC,101151.38,23,,94.12,5.66,220,,,,1,654,,,,,,,156,553,,,10,,METAR KMKE 120700Z AUTO 22011KT 10SM RA FEW015 BKN055 OVC065 23/22 A2987,,,,1676.4,,,,,,SW,,rain,rain,,,,22,98538.5,101065.5
KMKE,07/12/2017 07:05 UTC,101151.38,23,,94.12,6.17,220,,,,13,654,,,,,0.508,,156,553,,,10,,METAR KMKE 120705Z AUTO 22012KT 10SM -RA FEW015 BKN055 OVC065 23/22 A2987 RMK P0002,,,,1676.4,,,,,,SW,,light rain,light rain,,,,22,98538.5,101065.5
KMKE,07/12/2017 07:10 UTC,101117.52,23,,94.12,5.14,210,,,,13,654,,,,,0.508,,156,553,,,10,,METAR KMKE 120710Z AUTO 21010KT 10SM -RA FEW015 BKN055 OVC065 23/22 A2986 RMK P0002,,,,1676.4,,,,,,SSW,,light rain,light rain,,,,22,98505.52,101031.67
KMKE,07/12/2017 07:15 UTC,,,,,,,,,,,,,,,,,,,,,,,,METAR KMKE 120715Z AUTO 20011KT 10SM -RA FEW015 SCT055 OVC095 23/22 A2986 RMK P0003,,,,,,,,,,,,,,,,,,,None
KMKE,07/12/2017 07:20 UTC,,,,,,,,,,,,,,,,,,,,,,,,METAR KMKE 120720Z AUTO 21014KT 10SM -RA FEW015 SCT055 OVC095 23/22 A2987 RMK P0003,,,,,,,,,,,,,,,,,,,None
KMKE,07/12/2017 07:25 UTC,101151.38,22,,94.07,8.75,220,,,,13,954,,,,,0.762,,156,552,,,10,,METAR KMKE 120725Z AUTO 22017KT 10SM -RA FEW015 SCT055 OVC095 22/21 A2987 RMK P0003,,,,2895.6,,,,,,SW,,light rain,light rain,,,,21,98538.5,101074.17
KMKE,07/12/2017 07:30 UTC,101151.38,22,,94.07,8.75,210,,,,1,1004,,,,,1.016,,156,552,,,10,,METAR KMKE 120730Z AUTO 21017KT 10SM RA FEW015 SCT055 OVC100 22/21 A2987 RMK P0004,,,,3048,,,,,,SSW,,rain,rain,,,,21,98538.5,101074.17
KMKE,07/12/2017 07:35 UTC,101219.11,22,,94.07,8.23,230,,,,1,1004,,,,,1.27,,156,552,,,9,,METAR KMKE 120735Z AUTO 23016KT 9SM RA FEW015 SCT055 OVC100 22/21 A2989 RMK P0005,,,,3048,,,,,,SW,,rain,rain,,,,21,98604.49,101141.86
KMKE,07/12/2017 07:40 UTC,101252.97,22,,94.07,7.72,230,,,,1,1004,,,,,2.032,,156,552,,,8,,METAR KMKE 120740Z AUTO 23015KT 8SM RA FEW015 SCT055 OVC100 22/21 A2990 RMK P0008,,,,3048,,,,,,SW,,rain,rain,,,,21,98637.47,101175.69
KMKE,07/12/2017 07:45 UTC,101185.24,22,,94.07,4.63,230,,,,13,1004,,,,,2.032,,156,552,,,9,,METAR KMKE 120745Z AUTO 23009KT 9SM -RA FEW015 SCT055 OVC100 22/21 A2988 RMK P0008,,,,3048,,,,,,SW,,light rain,light rain,,,,21,98571.49,101108.01
KMKE,07/12/2017 07:50 UTC,,,,,,,,,,,,,,,,,,,,,,,,METAR KMKE 120750Z AUTO 24006KT 10SM RA FEW015 SCT055 OVC100 22/21 A2987 RMK P0009,,,,,,,,,,,,,,,,,,,None
KMKE,07/12/2017 07:52 UTC,101185.24,22.2,21.1,93.51,3.09,240,,,101140,66,1004,,,,,2.286,,602,752,,,10,,KMKE 120752Z 24006KT 10SM TSRA SCT060CB SCT075 OVC100 22/21 A2988 RMK AO2 LTG DSNT ALQDS SLP114 FRQ LTGCGICCC OHD TS OHD MOV E  P0009 T02220211,,,,3048,,,,,,WSW,,thunderstorm,thunderstorm,,,,21.1,98571.49,101106.27
KMKE,07/12/2017 07:55 UTC,,,,,,,,,,,,,,,,,,,,,,,,METAR KMKE 120755Z AUTO 24009KT 9SM RA FEW080 BKN095 OVC120 22/21 A2990 RMK P0001,,,,,,,,,,,,,,,,,,,None
KMKE,07/12/2017 08:00 UTC,101219.11,22,,94.07,4.12,200,,,,1,1204,,,,,,,802,1003,,,8,,METAR KMKE 120800Z AUTO 20008KT 8SM RA SCT080 BKN100 OVC120 22/21 A2989,,,,3048,,,,,,SSW,,rain,rain,,,,21,98604.49,101141.86