Station_ID,time,altimeter_set_1,air_temp,dew_point_temp,relative_humidity_set_1,wind_speed,wind_direction,wind_gust_set_1,snow_depth_set_1,sea_level_pressure_set_1,weather_cond_code_set_1,cloud_layer_3_code_set_1,cloud_low_symbol_set_1,cloud_mid_symbol_set_1,cloud_high_symbol_set_1,pressure_tendency_set_1,precip_accum_one_hour_set_1,precip_accum_three_hour_set_1,cloud_layer_1_code_set_1,cloud_layer_2_code_set_1,precip_accum_six_hour_set_1,precip_accum_24_hour_set_1,visibility_set_1,metar_remark_set_1,metar_set_1,air_temp_high_6_hour_set_1,air_temp_low_6_hour_set_1,peak_wind_speed_set_1,ceiling_set_1,pressure_change_code_set_1,air_temp_high_24_hour_set_1,air_temp_low_24_hour_set_1,peak_wind_direction_set_1,wind_chill_set_1d,wind_cardinal_direction_set_1d,heat_index_set_1d,weather_condition_set_1d,weather_summary_set_1d,cloud_layer_1_set_1d,cloud_layer_2_set_1d,cloud_layer_3_set_1d,dew_point_temperature_set_1d,pressure,sea_level_pressure_set_1d
KMKE,09/04/2018 16:00 UTC,102167.3,29,,70.17,7.2,210,,,,,,,,,,,,1,,,,10,,METAR KMKE 041600Z AUTO 21014KT 10SM CLR 29/23 A3017,,,,,,,,,,SSW,32.76,,clear,,,,23.02,99528.18,102029.35
KMKE,09/04/2018 16:05 UTC,102167.3,29,,70.17,5.66,220,,,,,,,,,,,,1,,,,10,,METAR KMKE 041605Z AUTO 22011KT 10SM CLR 29/23 A3017,,,,,,,,,,SW,32.76,,clear,,,,23.02,99528.18,102029.35
KMKE,09/04/2018 16:10 UTC,102167.3,29,,70.17,5.14,240,,,,,,,,,,,,1,,,,10,,METAR KMKE 041610Z AUTO 24010KT 10SM CLR 29/23 A3017,,,,,,,,,,WSW,32.76,,clear,,,,23.02,99528.18,102029.35
KMKE,09/04/2018 16:15 UTC,102167.3,29,,66.04,5.14,240,,,,,,,,,,,,1,,,,10,,METAR KMKE 041615Z AUTO 24010KT 10SM CLR 29/22 A3017,,,,,,,,,,WSW,32.02,,clear,,,,22.02,99528.18,102029.37
KMKE,09/04/2018 16:20 UTC,102167.3,29,,70.17,6.17,220,,,,,,,,,,,,1,,,,10,,METAR KMKE 041620Z AUTO 22012KT 10SM CLR 29/23 A3017,,,,,,,,,,SW,32.76,,clear,,,,23.02,99528.18,102029.35
KMKE,09/04/2018 16:25 UTC,102167.3,30,,66.25,5.14,230,,,,,,,,,,,,1,,,,10,,METAR KMKE 041625Z AUTO 23010KT 10SM CLR 30/23 A3017,,,,,,,,,,SW,34.16,,clear,,,,23.03,99528.18,102021.01
KMKE,09/04/2018 16:30 UTC,102167.3,30,,66.25,6.17,210,,,,,,,,,,,,296,,,,10,,METAR KMKE 041630Z AUTO 21012KT 10SM FEW029 30/23 A3017,,,,,,,,,,SSW,34.16,,thin scattered,,,,23.03,99528.18,102021.01
KMKE,09/04/2018 16:35 UTC,102167.3,29,,70.17,5.14,220,,,,,,,,,,,,296,,,,10,,METAR KMKE 041635Z AUTO 22010KT 10SM FEW029 29/23 A3017,,,,,,,,,,SW,32.76,,thin scattered,,,,23.02,99528.18,102029.35
KMKE,09/04/2018 16:40 UTC,102167.3,30,,66.25,4.12,230,,,,,,,,,,,,292,,,,10,,METAR KMKE 041640Z AUTO 23008KT 10SM SCT029 30/23 A3017,,,,,,,,,,SW,34.16,,scattered,,,,23.03,99528.18,102021.01
KMKE,09/04/2018 16:45 UTC,102133.43,31,,62.58,5.14,240,,,,,,,,,,,,292,,,,10,,METAR KMKE 041645Z AUTO 24010KT 10SM SCT029 31/23 A3016,,,,,,,,,,WSW,35.51,,scattered,,,,23.04,99495.19,101978.92
KMKE,09/04/2018 16:50 UTC,102133.43,31,,62.58,5.14,230,8.23,,,,,,,,,,,302,,,,10,,METAR KMKE 041650Z AUTO 23010G16KT 10SM SCT030 31/23 A3016,,,,,,,,,,SW,35.51,,scattered,,,,23.04,99495.19,101978.92
KMKE,09/04/2018 16:52 UTC,102133.43,30.6,22.8,63.25,4.63,230,8.75,,102070,,,,,,,,,302,2502,,,10,,KMKE 041652Z 23009G17KT 10SM SCT030 SCT250 31/23 A3016 RMK AO2  SLP207 T03060228,,,,,,,,,,SW,34.78,,scattered,,,,22.83,99495.19,101982.23
KMKE,09/04/2018 16:55 UTC,102133.43,31,,62.58,7.2,220,9.77,,,,,,,,,,,302,,,,10,,METAR KMKE 041655Z AUTO 22014G19KT 10SM SCT030 31/23 A3016,,,,,,,,,,SW,35.51,,scattered,,,,23.04,99495.19,101978.92
KMKE,09/04/2018 17:00 UTC,102133.43,31,,58.89,6.17,220,8.75,,,,,,,,,,,302,,,,10,,METAR KMKE 041700Z AUTO 22012G17KT 10SM SCT030 31/22 A3016,,,,,,,,,,SW,34.57,,scattered,,,,22.04,99495.19,101978.94
KMKE,09/04/2018 17:05 UTC,102133.43,31,,58.89,6.17,220,,,,,,,,,,,,302,,,,10,,METAR KMKE 041705Z AUTO 22012KT 10SM SCT030 31/22 A3016,,,,,,,,,,SW,34.57,,scattered,,,,22.04,99495.19,101978.94
KMKE,09/04/2018 17:10 UTC,102133.43,31,,58.89,6.17,220,9.26,,,,,,,,,,,302,,,,10,,METAR KMKE 041710Z AUTO 22012G18KT 10SM SCT030 31/22 A3016,,,,,,,,,,SW,34.57,,scattered,,,,22.04,99495.19,101978.94
KMKE,09/04/2018 17:15 UTC,102133.43,31,,58.89,6.69,220,10.8,,,,,,,,,,,302,,,,10,,METAR KMKE 041715Z AUTO 22013G21KT 10SM SCT030 31/22 A3016,,,,,,,,,,SW,34.57,,scattered,,,,22.04,99495.19,101978.94
KMKE,09/04/2018 17:20 UTC,102133.43,31,,58.89,8.23,230,,,,,,,,,,,,302,,,,10,,METAR KMKE 041720Z AUTO 23016KT 10SM SCT030 31/22 A3016,,,,,,,,,,SW,34.57,,scattered,,,,22.04,99495.19,101978.94
KMKE,09/04/2018 17:25 UTC,102133.43,31,,58.89,7.2,220,,,,,,,,,,,,302,,,,10,,METAR KMKE 041725Z AUTO 22014KT 10SM SCT030 31/22 A3016,,,,,,,,,,SW,34.57,,scattered,,,,22.04,99495.19,101978.94
KMKE,09/04/2018 17:30 UTC,102133.43,31,,58.89,6.69,240,9.26,,,,,,,,,,,302,,,,10,,METAR KMKE 041730Z AUTO 24013G18KT 10SM SCT030 31/22 A3016,,,,,,,,,,WSW,34.57,,scattered,,,,22.04,99495.19,101978.94
KMKE,09/04/2018 17:35 UTC,102133.43,31,,55.4,6.69,210,,,,,,,,,,,,302,,,,10,,METAR KMKE 041735Z AUTO 21013KT 10SM SCT030 31/21 A3016,,,,,,,,,,SSW,33.76,,scattered,,,,21.04,99495.19,101978.96
KMKE,09/04/2018 17:40 UTC,102133.43,31,,58.89,7.72,230,,,,,,,,,,,,302,,,,10,,METAR KMKE 041740Z AUTO 23015KT 10SM SCT030 31/22 A3016,,,,,,,,,,SW,34.57,,scattered,,,,22.04,99495.19,101978.94
KMKE,09/04/2018 17:45 UTC,102133.43,31,,58.89,7.72,220,11.83,,,,,,,,,,,302,,,,10,,METAR KMKE 041745Z AUTO 22015G23KT 10SM SCT030 31/22 A3016,,,,,,,,,,SW,34.57,,scattered,,,,22.04,99495.19,101978.94
KMKE,09/04/2018 17:50 UTC,102099.57,31,,58.89,5.66,220,9.26,,,,,,,,,,,372,,,,10,,METAR KMKE 041750Z AUTO 22011G18KT 10SM SCT037 31/22 A3015,,,,,,,,,,SW,34.57,,scattered,,,,22.04,99462.2,101945.13
KMKE,09/04/2018 17:52 UTC,102099.57,31.1,21.7,57.5,6.69,230,11.83,,102050,,,,,,8005,,,372,2502,,,10,,KMKE 041752Z 23013G23KT 10SM SCT037 SCT250 31/22 A3015 RMK AO2  SLP205 T03110217 10311 20222 58005,31.1,22.2,,,,,,,,SW,34.44,,scattered,,,,21.74,99462.2,101944.31
KMKE,09/04/2018 17:55 UTC,102099.57,31,,58.89,6.69,220,,,,,,,,,,,,382,,,,10,,METAR KMKE 041755Z AUTO 22013KT 10SM SCT038 31/22 A3015,,,,,,,,,,SW,34.57,,scattered,,,,22.04,99462.2,101945.13
KMKE,09/04/2018 18:00 UTC,102099.57,31,,55.4,6.69,220,,,,,,,,,,,,382,,,,10,,METAR KMKE 041800Z AUTO 22013KT 10SM SCT038 31/21 A3015,,,,,,,,,,SW,33.76,,scattered,,,,21.04,99462.2,101945.15
KMKE,09/04/2018 18:05 UTC,102099.57,31,,58.89,6.69,250,,,,,,,,,,,,382,,,,10,,METAR KMKE 041805Z AUTO 25013KT 10SM SCT038 31/22 A3015,,,,,,,,,,WSW,34.57,,scattered,,,,22.04,99462.2,101945.13
KMKE,09/04/2018 18:10 UTC,102099.57,31,,58.89,6.69,230,,,,,,,,,,,,382,,,,10,,METAR KMKE 041810Z AUTO 23013KT 10SM SCT038 31/22 A3015,,,,,,,,,,SW,34.57,,scattered,,,,22.04,99462.2,101945.13
KMKE,09/04/2018 18:15 UTC,102099.57,31,,58.89,6.69,230,,,,,,,,,,,,382,,,,10,,METAR KMKE 041815Z AUTO 23013KT 10SM SCT038 31/22 A3015,,,,,,,,,,SW,34.57,,scattered,,,,22.04,99462.2,101945.13
KMKE,09/04/2018 18:20 UTC,102099.57,31,,58.89,5.14,230,8.23,,,,,,,,,,,382,,,,10,,METAR KMKE 041820Z AUTO 23010G16KT 10SM SCT038 31/22 A3015,,,,,,,,,,SW,34.57,,scattered,,,,22.04,99462.2,101945.13
KMKE,09/04/2018 18:25 UTC,102099.57,31,,58.89,6.17,210,,,,,,,,,,,,382,,,,10,,METAR KMKE 041825Z AUTO 21012KT 10SM SCT038 31/22 A3015,,,,,,,,,,SSW,34.57,,scattered,,,,22.04,99462.2,101945.13
KMKE,09/04/2018 18:30 UTC,102099.57,30,,58.66,6.17,230,,,,,,,,,,,,382,,,,10,,METAR KMKE 041830Z AUTO 23012KT 10SM SCT038 30/21 A3015,,,,,,,,,,SW,32.57,,scattered,,,,21.03,99462.2,101953.42
KMKE,09/04/2018 18:35 UTC,102065.7,31,,58.89,4.63,230,7.72,,,,,,,,,,,382,,,,10,,METAR KMKE 041835Z AUTO 23009G15KT 10SM SCT038 31/22 A3014,,,,,,,,,,SW,34.57,,scattered,,,,22.04,99429.21,101911.31
KMKE,09/04/2018 18:40 UTC,102065.7,31,,55.4,5.14,230,,,,,,,,,,,,382,,,,10,,METAR KMKE 041840Z AUTO 23010KT 10SM SCT038 31/21 A3014,,,,,,,,,,SW,33.76,,scattered,,,,21.04,99429.21,101911.34
KMKE,09/04/2018 18:45 UTC,102065.7,31,,58.89,5.66,230,,,,,,,,,,,,382,,,,10,,METAR KMKE 041845Z AUTO 23011KT 10SM SCT038 31/22 A3014,,,,,,,,,,SW,34.57,,scattered,,,,22.04,99429.21,101911.31
KMKE,09/04/2018 18:50 UTC,102065.7,31,,58.89,5.14,240,,,,,,,,,,,,412,,,,10,,METAR KMKE 041850Z AUTO 24010KT 10SM SCT041 31/22 A3014,,,,,,,,,,WSW,34.57,,scattered,,,,22.04,99429.21,101911.31
KMKE,09/04/2018 18:52 UTC,102065.7,31.1,21.1,55.43,4.63,250,,,102010,,,,,,,,,412,2502,,,10,,KMKE 041852Z 25009KT 10SM SCT041 SCT250 31/21 A3014 RMK AO2 SLP201  T03110211,,,,,,,,,,WSW,33.95,,scattered,,,,21.15,99429.21,101910.51
KMKE,09/04/2018 18:55 UTC,102065.7,31,,55.4,5.14,240,,,,,,,,,,,,412,,,,10,,METAR KMKE 041855Z AUTO 24010KT 10SM SCT041 31/21 A3014,,,,,,,,,,WSW,33.76,,scattered,,,,21.04,99429.21,101911.34
KMKE,09/04/2018 19:00 UTC,102065.7,31,,58.89,4.63,240,7.2,,,,,,,,,,,412,,,,10,,METAR KMKE 041900Z AUTO 24009G14KT 10SM SCT041 31/22 A3014,,,,,,,,,,WSW,34.57,,scattered,,,,22.04,99429.21,101911.31
KMKE,09/04/2018 19:05 UTC,102065.7,31,,58.89,4.63,230,,,,,,,,,,,,412,,,,10,,METAR KMKE 041905Z AUTO 23009KT 10SM SCT041 31/22 A3014,,,,,,,,,,SW,34.57,,scattered,,,,22.04,99429.21,101911.31
KMKE,09/04/2018 19:10 UTC,102031.84,31,,58.89,5.14,210,,,,,,,,,,,,412,,,,10,,METAR KMKE 041910Z AUTO 21010KT 10SM SCT041 31/22 A3013,,,,,,,,,,SSW,34.57,,scattered,,,,22.04,99396.22,101877.5
KMKE,09/04/2018 19:15 UTC,102031.84,31,,58.89,5.66,230,,,,,,,,,,,,412,,,,10,,METAR KMKE 041915Z AUTO 23011KT 10SM SCT041 31/22 A3013,,,,,,,,,,SW,34.57,,scattered,,,,22.04,99396.22,101877.5
KMKE,09/04/2018 19:20 UTC,102031.84,31,,58.89,4.12,230,,,,,,,,,,,,412,,,,10,,METAR KMKE 041920Z AUTO 23008KT 10SM SCT041 31/22 A3013,,,,,,,,,,SW,34.57,,scattered,,,,22.04,99396.22,101877.5
KMKE,09/04/2018 19:25 UTC,101997.98,31,,58.89,4.12,220,,,,,,,,,,,,412,,,,10,,METAR KMKE 041925Z AUTO 22008KT 10SM SCT041 31/22 A3012,,,,,,,,,,SW,34.57,,scattered,,,,22.04,99363.24,101843.7
KMKE,09/04/2018 19:30 UTC,101997.98,31,,58.89,5.66,200,,,,,,,,,,,,412,,,,10,,METAR KMKE 041930Z AUTO 20011KT 10SM SCT041 31/22 A3012,,,,,,,,,,SSW,34.57,,scattered,,,,22.04,99363.24,101843.7
KMKE,09/04/2018 19:35 UTC,101997.98,31,,58.89,6.17,190,,,,,,,,,,,,412,502,,,10,,METAR KMKE 041935Z AUTO 19012KT 10SM SCT041 SCT050 31/22 A3012,,,,,,,,,,S,34.57,,scattered,,,,22.04,99363.24,101843.7
KMKE,09/04/2018 19:40 UTC,101997.98,31,,58.89,5.66,200,,,,,,,,,,,,412,502,,,10,,METAR KMKE 041940Z AUTO 20011KT 10SM SCT041 SCT050 31/22 A3012,,,,,,,,,,SSW,34.57,,scattered,,,,22.04,99363.24,101843.7
KMKE,09/04/2018 19:45 UTC,101997.98,32,,55.65,5.66,200,,,,,,,,,,,,412,502,,,10,,METAR KMKE 041945Z AUTO 20011KT 10SM SCT041 SCT050 32/22 A3012,,,,,,,,,,SSW,35.82,,scattered,,,,22.05,99363.24,101835.49
KMKE,09/04/2018 19:50 UTC,101997.98,31,,62.58,5.14,180,,,,,,,,,,,,412,502,,,10,,METAR KMKE 041950Z AUTO 18010KT 10SM SCT041 SCT050 31/23 A3012,,,,,,,,,,S,35.51,,scattered,,,,23.04,99363.24,101843.68
KMKE,09/04/2018 19:52 UTC,101964.11,31.1,22.8,61.47,5.66,190,,,101920,,2502,,,,,,,386,472,,,10,,KMKE 041952Z 19011KT 10SM FEW038 SCT047 SCT250 31/23 A3011 RMK AO2  SLP192 T03110228,,,,,,,,,,S,35.44,,scattered,,,,22.84,99330.24,101809.03
KMKE,09/04/2018 19:55 UTC,101964.11,31,,58.89,6.17,180,,,,,,,,,,,,386,472,,,10,,METAR KMKE 041955Z AUTO 18012KT 10SM FEW038 SCT047 31/22 A3011,,,,,,,,,,S,34.57,,scattered,,,,22.04,99330.24,101809.87
KMKE,09/04/2018 20:00 UTC,101964.11,32,,55.65,4.12,210,,,,,,,,,,,,386,472,,,10,,METAR KMKE 042000Z AUTO 21008KT 10SM FEW038 SCT047 32/22 A3011,,,,,,,,,,SSW,35.82,,scattered,,,,22.05,99330.24,101801.67
KMKE,09/04/2018 20:05 UTC,101964.11,32,,55.65,6.17,200,,,,,,,,,,,,386,472,,,10,,METAR KMKE 042005Z AUTO 20012KT 10SM FEW038 SCT047 32/22 A3011,,,,,,,,,,SSW,35.82,,scattered,,,,22.05,99330.24,101801.67
KMKE,09/04/2018 20:10 UTC,101964.11,32,,55.65,5.66,200,,,,,,,,,,,,386,472,,,10,,METAR KMKE 042010Z AUTO 20011KT 10SM FEW038 SCT047 32/22 A3011,,,,,,,,,,SSW,35.82,,scattered,,,,22.05,99330.24,101801.67
KMKE,09/04/2018 20:15 UTC,101964.11,32,,55.65,5.14,220,7.72,,,,,,,,,,,386,472,,,10,,METAR KMKE 042015Z AUTO 22010G15KT 10SM FEW038 SCT047 32/22 A3011,,,,,,,,,,SW,35.82,,scattered,,,,22.05,99330.24,101801.67
KMKE,09/04/2018 20:20 UTC,101930.25,32,,55.65,4.63,190,,,,,,,,,,,,386,472,,,10,,METAR KMKE 042020Z AUTO 19009KT 10SM FEW038 SCT047 32/22 A3010,,,,,,,,,,S,35.82,,scattered,,,,22.05,99297.26,101767.87
KMKE,09/04/2018 20:25 UTC,101930.25,32,,55.65,5.66,210,,,,,,,,,,,,386,472,,,10,,METAR KMKE 042025Z AUTO 21011KT 10SM FEW038 SCT047 32/22 A3010,,,,,,,,,,SSW,35.82,,scattered,,,,22.05,99297.26,101767.87
KMKE,09/04/2018 20:30 UTC,101930.25,32,,55.65,5.14,210,,,,,,,,,,,,386,472,,,10,,METAR KMKE 042030Z AUTO 21010KT 10SM FEW038 SCT047 32/22 A3010,,,,,,,,,,SSW,35.82,,scattered,,,,22.05,99297.26,101767.87
KMKE,09/04/2018 20:35 UTC,101930.25,32,,55.65,4.12,180,,,,,,,,,,,,386,432,,,10,,METAR KMKE 042035Z AUTO 18008KT 10SM FEW038 SCT043 32/22 A3010,,,,,,,,,,S,35.82,,scattered,,,,22.05,99297.26,101767.87
KMKE,09/04/2018 20:40 UTC,101930.25,32,,55.65,5.66,200,,,,,,,,,,,,386,432,,,10,,METAR KMKE 042040Z AUTO 20011KT 10SM FEW038 SCT043 32/22 A3010,,,,,,,,,,SSW,35.82,,scattered,,,,22.05,99297.26,101767.87
KMKE,09/04/2018 20:45 UTC,101930.25,32,,55.65,4.63,190,,,,,,,,,,,,386,432,,,10,,METAR KMKE 042045Z AUTO 19009KT 10SM FEW038 SCT043 32/22 A3010,,,,,,,,,,S,35.82,,scattered,,,,22.05,99297.26,101767.87
KMKE,09/04/2018 20:50 UTC,101896.38,32,,55.65,4.12,200,,,,,,,,,,,,432,,,,10,,METAR KMKE 042050Z AUTO 20008KT 10SM SCT043 32/22 A3009,,,,,,,,,,SSW,35.82,,scattered,,,,22.05,99264.26,101734.05
KMKE,09/04/2018 20:52 UTC,101896.38,31.7,22.2,57.29,5.14,210,,,101850,,,,,,8020,,,432,2502,,,10,,KMKE 042052Z 21010KT 10SM SCT043TCU SCT250 32/22 A3009 RMK AO2 LTG  DSNT SW SLP185 CB DSNT SW MOV NE TCU N T03170222 58020,,,,,,,,,,SSW,35.63,,scattered,,,,22.25,99264.26,101736.5
KMKE,09/04/2018 20:55 UTC,101896.38,32,,55.65,3.6,230,,,,,,,,,,,,442,,,,10,,METAR KMKE 042055Z AUTO 23007KT 10SM SCT044 32/22 A3009,,,,,,,,,,SW,35.82,,scattered,,,,22.05,99264.26,101734.05
KMKE,09/04/2018 21:00 UTC,101896.38,32,,55.65,4.63,200,,,,,,,,,,,,442,,,,10,,METAR KMKE 042100Z AUTO 20009KT 10SM SCT044 32/22 A3009,,,,,,,,,,SSW,35.82,,scattered,,,,22.05,99264.26,101734.05
KMKE,09/04/2018 21:05 UTC,101896.38,31,,58.89,4.63,130,,,,,,,,,,,,442,,,,10,,METAR KMKE 042105Z AUTO 13009KT 10SM SCT044 31/22 A3009,,,,,,,,,,SE,34.57,,scattered,,,,22.04,99264.26,101742.25
KMKE,09/04/2018 21:10 UTC,101896.38,30,,66.25,4.63,130,,,,,,,,,,,,442,,,,10,,METAR KMKE 042110Z AUTO 13009KT 10SM SCT044 30/23 A3009,,,,,,,,,,SE,34.16,,scattered,,,,23.03,99264.26,101750.48
KMKE,09/04/2018 21:25 UTC,101896.38,29,,70.17,4.12,120,,,,,,,,,,,,483,603,,,10,,METAR KMKE 042125Z AUTO 12008KT 10SM BKN048 BKN060 29/23 A3009,,,,1463.04,,,,,,ESE,32.76,,broken,,,,23.02,99264.26,101758.79
KMKE,09/04/2018 21:30 UTC,101896.38,28,,69.98,4.12,110,,,,,,,,,,,,483,603,,,10,,METAR KMKE 042130Z AUTO 11008KT 10SM BKN048 BKN060 28/22 A3009,,,,1463.04,,,,,,ESE,30.66,,broken,,,,22.01,99264.26,101767.18
KMKE,09/04/2018 21:35 UTC,101896.38,28,,69.98,3.6,140,,,,,,,,,,,,483,603,,,10,,METAR KMKE 042135Z AUTO 14007KT 10SM BKN048 BKN060 28/22 A3009,,,,1463.04,,,,,,SE,30.66,,broken,,,,22.01,99264.26,101767.18
KMKE,09/04/2018 21:40 UTC,101896.38,28,22.2,69.98,4.12,120,,,,5,2503,,,,,,,482,603,,,10,,METAR KMKE 042140Z AUTO 12008KT 10SM SCT048 BKN060 28/22 A3009 RMK AO2 LTG DSNT W TSB40 OCNL LTGIC SW-W TS SW-W MOV NE TCU S  AND NW-N T02830222,,,,1828.8,,,,,,ESE,30.66,thunder,thunder,,,,22.01,99264.26,101767.18
KMKE,09/04/2018 21:45 UTC,101896.38,28,,69.98,4.63,120,,,,,,,,,,,,482,603,,,10,,METAR KMKE 042145Z AUTO 12009KT 10SM SCT048 BKN060 28/22 A3009,,,,1828.8,,,,,,ESE,30.66,,broken,,,,22.01,99264.26,101767.18
KMKE,09/04/2018 21:50 UTC,101930.25,28,,69.98,3.09,200,,,,,,,,,,,,482,603,,,10,,METAR KMKE 042150Z AUTO 20006KT 10SM SCT048 BKN060 28/22 A3010,,,,1828.8,,,,,,SSW,30.66,,broken,,,,22.01,99297.26,101801.01
KMKE,09/04/2018 21:52 UTC,101930.25,28.3,22.2,69.61,3.6,270,,,101880,5,2503,,,,,,,483,603,,,10,,KMKE 042152Z 27007KT 240V320 10SM TS BKN048CB BKN060 BKN250 28/22  A3010 RMK AO2 LTG DSNT W TSB40 SLP188 OCNL LTGICCC OHD TS OHD  MOV NE TCU DSNT E T02830222,,,,1463.04,,,,,,W,31.2,thunder,thunder,,,,22.21,99297.26,101798.49
KMKE,09/04/2018 21:55 UTC,101930.25,28,,69.98,5.66,270,,,,13,803,,,,,,,483,703,,,10,,METAR KMKE 042155Z AUTO 27011KT 10SM -RA BKN048 BKN070 BKN080 28/22 A3010,,,,1463.04,,,,,,W,30.66,light rain,light rain,,,,22.01,99297.26,101801.01
KMKE,09/04/2018 22:00 UTC,101930.25,26,,78.68,4.63,290,,,,13,803,,,,,,,483,703,,,10,,METAR KMKE 042200Z AUTO 29009KT 10SM -RA BKN048 BKN070 BKN080 26/22 A3010,,,,1463.04,,,,,,WNW,,light rain,light rain,,,,22,99297.26,101817.92
KMKE,09/04/2018 22:05 UTC,101930.25,26,,78.68,2.06,260,,,,13,803,,,,,,,483,703,,,10,,METAR KMKE 042205Z AUTO 26004KT 10SM -RA BKN048 BKN070 BKN080 26/22 A3010,,,,1463.04,,,,,,W,,light rain,light rain,,,,22,99297.26,101817.92
KMKE,09/04/2018 22:10 UTC,101896.38,27,,78.82,1.54,320,,,,,,,,,,,,156,483,,,10,,METAR KMKE 042210Z AUTO 32003KT 10SM FEW015 BKN048 27/23 A3009,,,,1463.04,,,,,,NW,29.63,,broken,,,,23,99264.26,101775.58
KMKE,09/04/2018 22:15 UTC,101896.38,27,,74.19,1.54,340,,,,,,,,,,,,156,483,,,10,,METAR KMKE 042215Z AUTO 34003KT 10SM FEW015 BKN048 27/22 A3009,,,,1463.04,,,,,,NNW,29.21,,broken,,,,22.01,99264.26,101775.6
KMKE,09/04/2018 22:20 UTC,101930.25,27,,74.19,2.57,20,,,,,,,,,,,,156,482,,,10,,METAR KMKE 042220Z AUTO 02005KT 10SM FEW015 SCT048 27/22 A3010,,,,,,,,,,NNE,29.21,,scattered,,,,22.01,99297.26,101809.44
KMKE,09/04/2018 22:25 UTC,101896.38,27,,74.19,3.09,60,,,,,,,,,,,,156,482,,,10,,METAR KMKE 042225Z AUTO 06006KT 10SM FEW015 SCT048 27/22 A3009,,,,,,,,,,ENE,29.21,,scattered,,,,22.01,99264.26,101775.6
KMKE,09/04/2018 22:30 UTC,101896.38,26,,78.68,2.57,60,,,,,,,,,,,,156,482,,,10,,METAR KMKE 042230Z AUTO 06005KT 10SM FEW015 SCT048 26/22 A3009,,,,,,,,,,ENE,,,scattered,,,,22,99264.26,101784.09
KMKE,09/04/2018 22:35 UTC,101896.38,26,,78.68,2.06,80,,,,,,,,,,,,156,482,,,10,,METAR KMKE 042235Z AUTO 08004KT 10SM FEW015 SCT048 26/22 A3009,,,,,,,,,,E,,,scattered,,,,22,99264.26,101784.09
KMKE,09/04/2018 22:40 UTC,101896.38,27,,74.19,2.06,70,,,,,,,,,,,,483,603,,,10,,METAR KMKE 042240Z AUTO 07004KT 10SM BKN048 BKN060 27/22 A3009,,,,1463.04,,,,,,ENE,29.21,,broken,,,,22.01,99264.26,101775.6
KMKE,09/04/2018 22:45 UTC,101930.25,27,21.7,74.19,0,0,,,,13,1503,,,,,0.025,,482,603,,,10,,METAR KMKE 042245Z AUTO 00000KT 10SM -RA SCT048 BKN060 27/22 A3010 RMK AO2 LTG DSNT NE RAB2155E08B42 TSE40 CB DSNT NE MOV  NE TCU OHD P0000 T02670217,,,,1828.8,,,,,,N,29.21,light rain,light rain,,,,22.01,99297.26,101809.44
KMKE,09/04/2018 22:50 UTC,101896.38,27,,74.19,0,0,,,,13,,,,,,,,482,603,,,10,,METAR KMKE 042250Z AUTO 00000KT 10SM -RA SCT048 BKN060 27/22 A3009,,,,1828.8,,,,,,N,29.21,light rain,light rain,,,,22.01,99264.26,101775.6
KMKE,09/04/2018 22:52 UTC,101896.38,27.2,21.7,72,0,0,,,101840,,1503,,,,,0.025,,482,603,,,10,,KMKE 042252Z 00000KT 10SM SCT048TCU BKN060 BKN150 BKN250 27/22  A3009 RMK AO2 LTG DSNT NE RAB2155E08B42E51 TSE40 SLP184 CB  DSNT NE MOV NE TCU N AND E P0000 T02720217,,,,1828.8,,,,,,N,29.39,,broken,,,,21.71,99264.26,101773.92
KMKE,09/04/2018 22:55 UTC,101896.38,27,,74.19,0,0,,,,,802,,,,,,,486,602,,,10,,METAR KMKE 042255Z AUTO 00000KT 10SM FEW048 SCT060 SCT080 27/22 A3009,,,,,,,,,,N,29.21,,scattered,,,,22.01,99264.26,101775.6
KMKE,09/04/2018 23:00 UTC,101896.38,27,,69.79,1.54,80,,,,,802,,,,,,,486,602,,,10,,METAR KMKE 042300Z AUTO 08003KT 10SM FEW048 SCT060 SCT080 27/21 A3009,,,,,,,,,,E,28.84,,scattered,,,,21.01,99264.26,101775.63
KMKE,09/04/2018 23:05 UTC,101896.38,27,,74.19,2.06,100,,,,,802,,,,,,,486,602,,,10,,METAR KMKE 042305Z AUTO 10004KT 10SM FEW048 SCT060 SCT080 27/22 A3009,,,,,,,,,,E,29.21,,scattered,,,,22.01,99264.26,101775.6
KMKE,09/04/2018 23:10 UTC,101896.38,27,,74.19,1.54,80,,,,,802,,,,,,,486,602,,,10,,METAR KMKE 042310Z AUTO 08003KT 10SM FEW048 SCT060 SCT080 27/22 A3009,,,,,,,,,,E,29.21,,scattered,,,,22.01,99264.26,101775.6
KMKE,09/04/2018 23:15 UTC,101862.52,27,,74.19,1.54,90,,,,,802,,,,,,,486,606,,,10,,METAR KMKE 042315Z AUTO 09003KT 10SM FEW048 FEW060 SCT080 27/22 A3008,,,,,,,,,,E,29.21,,scattered,,,,22.01,99231.27,101741.78
KMKE,09/04/2018 23:20 UTC,101862.52,27,,74.19,2.06,100,,,,,802,,,,,,,486,606,,,10,,METAR KMKE 042320Z AUTO 10004KT 10SM FEW048 FEW060 SCT080 27/22 A3008,,,,,,,,,,E,29.21,,scattered,,,,22.01,99231.27,101741.78
KMKE,09/04/2018 23:25 UTC,101862.52,27,,74.19,2.06,90,,,,,802,,,,,,,486,606,,,10,,METAR KMKE 042325Z AUTO 09004KT 10SM FEW048 FEW060 SCT080 27/22 A3008,,,,,,,,,,E,29.21,,scattered,,,,22.01,99231.27,101741.78
KMKE,09/04/2018 23:30 UTC,101862.52,27,,74.19,2.06,80,,,,,802,,,,,,,486,606,,,10,,METAR KMKE 042330Z AUTO 08004KT 10SM FEW048 FEW060 SCT080 27/22 A3008,,,,,,,,,,E,29.21,,scattered,,,,22.01,99231.27,101741.78
KMKE,09/04/2018 23:35 UTC,101828.66,27,,74.19,1.54,90,,,,,802,,,,,,,486,606,,,10,,METAR KMKE 042335Z AUTO 09003KT 10SM FEW048 FEW060 SCT080 27/22 A3007,,,,,,,,,,E,29.21,,scattered,,,,22.01,99198.29,101707.97
KMKE,09/04/2018 23:40 UTC,101828.66,27,,74.19,1.54,110,,,,,802,,,,,,,486,606,,,10,,METAR KMKE 042340Z AUTO 11003KT 10SM FEW048 FEW060 SCT080 27/22 A3007,,,,,,,,,,ESE,29.21,,scattered,,,,22.01,99198.29,101707.97
KMKE,09/04/2018 23:45 UTC,101828.66,27,,74.19,2.06,110,,,,,802,,,,,,,486,606,,,10,,METAR KMKE 042345Z AUTO 11004KT 10SM FEW048 FEW060 SCT080 27/22 A3007,,,,,,,,,,ESE,29.21,,scattered,,,,22.01,99198.29,101707.97
KMKE,09/04/2018 23:50 UTC,101828.66,27,,74.19,2.06,110,,,,,802,,,,,,,486,606,,,10,,METAR KMKE 042350Z AUTO 11004KT 10SM FEW048 FEW060 SCT080 27/22 A3007,,,,,,,,,,ESE,29.21,,scattered,,,,22.01,99198.29,101707.97
KMKE,09/04/2018 23:52 UTC,101828.66,27.2,22.2,74.22,2.06,110,,,101770,,2503,,,,8009,,,606,1106,0.025,,10,,KMKE 042352Z 11004KT 10SM FEW060 FEW110 BKN250 27/22 A3007 RMK AO2  SLP177 60000 T02720222 10322 20261 58009,32.2,26.1,,7620,,,,,,ESE,29.6,,broken,,,,22.21,99198.29,101706.27
KMKE,09/04/2018 23:55 UTC,101828.66,27,,74.19,2.57,110,,,,,,,,,,,,606,1106,,,10,,METAR KMKE 042355Z AUTO 11005KT 10SM FEW060 FEW110 27/22 A3007,,,,,,,,,,ESE,29.21,,thin scattered,,,,22.01,99198.29,101707.97
KMKE,09/05/2018 00:00 UTC,101828.66,27,,74.19,2.57,110,,,,,,,,,,,,606,1106,,,10,,METAR KMKE 050000Z AUTO 11005KT 10SM FEW060 FEW110 27/22 A3007,,,,,,,,,,ESE,29.21,,thin scattered,,,,22.01,99198.29,101707.97
KMKE,09/05/2018 00:05 UTC,101828.66,27,,74.19,3.09,110,,,,,,,,,,,,606,1106,,,10,,METAR KMKE 050005Z AUTO 11006KT 10SM FEW060 FEW110 27/22 A3007,,,,,,,,,,ESE,29.21,,thin scattered,,,,22.01,99198.29,101707.97
KMKE,09/05/2018 00:10 UTC,101828.66,27,,74.19,2.57,110,,,,,,,,,,,,606,1106,,,10,,METAR KMKE 050010Z AUTO 11005KT 10SM FEW060 FEW110 27/22 A3007,,,,,,,,,,ESE,29.21,,thin scattered,,,,22.01,99198.29,101707.97
KMKE,09/05/2018 00:15 UTC,101828.66,27,,74.19,2.57,110,,,,,,,,,,,,606,1106,,,10,,METAR KMKE 050015Z AUTO 11005KT 10SM FEW060 FEW110 27/22 A3007,,,,,,,,,,ESE,29.21,,thin scattered,,,,22.01,99198.29,101707.97
KMKE,09/05/2018 00:20 UTC,101794.79,26,,78.68,2.57,110,,,,,,,,,,,,606,1106,,,10,,METAR KMKE 050020Z AUTO 11005KT 10SM FEW060 FEW110 26/22 A3006,,,,,,,,,,ESE,,,thin scattered,,,,22,99165.29,101682.6
KMKE,09/05/2018 00:25 UTC,101794.79,26,,78.68,2.57,120,,,,,,,,,,,,606,1106,,,10,,METAR KMKE 050025Z AUTO 12005KT 10SM FEW060 FEW110 26/22 A3006,,,,,,,,,,ESE,,,thin scattered,,,,22,99165.29,101682.6
KMKE,09/05/2018 00:30 UTC,101828.66,26,,78.68,2.57,110,,,,,,,,,,,,606,1106,,,10,,METAR KMKE 050030Z AUTO 11005KT 10SM FEW060 FEW110 26/22 A3007,,,,,,,,,,ESE,,,thin scattered,,,,22,99198.29,101716.44
KMKE,09/05/2018 00:35 UTC,101828.66,26,,78.68,2.57,120,,,,,,,,,,,,606,1106,,,10,,METAR KMKE 050035Z AUTO 12005KT 10SM FEW060 FEW110 26/22 A3007,,,,,,,,,,ESE,,,thin scattered,,,,22,99198.29,101716.44
KMKE,09/05/2018 00:40 UTC,101828.66,26,,78.68,2.57,120,,,,,,,,,,,,606,1106,,,10,,METAR KMKE 050040Z AUTO 12005KT 10SM FEW060 FEW110 26/22 A3007,,,,,,,,,,ESE,,,thin scattered,,,,22,99198.29,101716.44
KMKE,09/05/2018 00:45 UTC,101828.66,26,,74.02,2.57,120,,,,,,,,,,,,606,1106,,,10,,METAR KMKE 050045Z AUTO 12005KT 10SM FEW060 FEW110 26/21 A3007,,,,,,,,,,ESE,,,thin scattered,,,,21,99198.29,101716.46
KMKE,09/05/2018 00:50 UTC,101828.66,26,,74.02,2.57,120,,,,,,,,,,,,606,1106,,,10,,METAR KMKE 050050Z AUTO 12005KT 10SM FEW060 FEW110 26/21 A3007,,,,,,,,,,ESE,,,thin scattered,,,,21,99198.29,101716.46
KMKE,09/05/2018 00:52 UTC,101828.66,26.1,21.1,74.03,2.57,120,,,101770,,2503,,,,,,,606,1106,,,10,,KMKE 050052Z 12005KT 10SM FEW060 FEW110 BKN250 26/21 A3007 RMK AO2  SLP177 T02610211,,,,7620,,,,,,ESE,,,broken,,,,21.1,99198.29,101715.61
KMKE,09/05/2018 00:55 UTC,101828.66,26,,74.02,2.57,120,,,,,,,,,,,,606,1106,,,10,,METAR KMKE 050055Z AUTO 12005KT 10SM FEW060 FEW110 26/21 A3007,,,,,,,,,,ESE,,,thin scattered,,,,21,99198.29,101716.46
KMKE,09/05/2018 01:00 UTC,101828.66,26,,74.02,2.57,120,,,,,,,,,,,,606,1106,,,10,,METAR KMKE 050100Z AUTO 12005KT 10SM FEW060 FEW110 26/21 A3007,,,,,,,,,,ESE,,,thin scattered,,,,21,99198.29,101716.46
KMKE,09/05/2018 01:05 UTC,101828.66,26,,74.02,2.57,120,,,,,,,,,,,,606,1106,,,10,,METAR KMKE 050105Z AUTO 12005KT 10SM FEW060 FEW110 26/21 A3007,,,,,,,,,,ESE,,,thin scattered,,,,21,99198.29,101716.46
KMKE,09/05/2018 01:10 UTC,101828.66,25,,78.54,2.57,120,,,,,,,,,,,,606,1106,,,10,,METAR KMKE 050110Z AUTO 12005KT 10SM FEW060 FEW110 25/21 A3007,,,,,,,,,,ESE,,,thin scattered,,,,21,99198.29,101724.99
KMKE,09/05/2018 01:15 UTC,101828.66,25,,78.54,2.57,130,,,,,,,,,,,,606,1106,,,10,,METAR KMKE 050115Z AUTO 13005KT 10SM FEW060 FEW110 25/21 A3007,,,,,,,,,,SE,,,thin scattered,,,,21,99198.29,101724.99
KMKE,09/05/2018 01:20 UTC,101828.66,25,,78.54,3.09,140,,,,,,,,,,,,606,1106,,,10,,METAR KMKE 050120Z AUTO 14006KT 10SM FEW060 FEW110 25/21 A3007,,,,,,,,,,SE,,,thin scattered,,,,21,99198.29,101724.99
KMKE,09/05/2018 01:25 UTC,101828.66,26,,74.02,3.6,140,,,,,,,,,,,,606,1106,,,10,,METAR KMKE 050125Z AUTO 14007KT 10SM FEW060 FEW110 26/21 A3007,,,,,,,,,,SE,,,thin scattered,,,,21,99198.29,101716.46
KMKE,09/05/2018 01:30 UTC,101828.66,25,,78.54,3.6,140,,,,,,,,,,,,606,1106,,,10,,METAR KMKE 050130Z AUTO 14007KT 10SM FEW060 FEW110 25/21 A3007,,,,,,,,,,SE,,,thin scattered,,,,21,99198.29,101724.99
KMKE,09/05/2018 01:35 UTC,101828.66,25,,78.54,3.6,140,,,,,,,,,,,,606,1106,,,10,,METAR KMKE 050135Z AUTO 14007KT 10SM FEW060 FEW110 25/21 A3007,,,,,,,,,,SE,,,thin scattered,,,,21,99198.29,101724.99
KMKE,09/05/2018 01:40 UTC,101828.66,25,,78.54,3.09,140,,,,,,,,,,,,606,1106,,,10,,METAR KMKE 050140Z AUTO 14006KT 10SM FEW060 FEW110 25/21 A3007,,,,,,,,,,SE,,,thin scattered,,,,21,99198.29,101724.99
KMKE,09/05/2018 01:45 UTC,101828.66,25,,78.54,3.09,150,,,,,,,,,,,,606,1106,,,10,,METAR KMKE 050145Z AUTO 15006KT 10SM FEW060 FEW110 25/21 A3007,,,,,,,,,,SSE,,,thin scattered,,,,21,99198.29,101724.99
KMKE,09/05/2018 01:50 UTC,101828.66,25,,78.54,3.09,140,,,,,,,,,,,,606,1106,,,10,,METAR KMKE 050150Z AUTO 14006KT 10SM FEW060 FEW110 25/21 A3007,,,,,,,,,,SE,,,thin scattered,,,,21,99198.29,101724.99
KMKE,09/05/2018 01:52 UTC,101828.66,25,21.1,79.02,2.57,150,,,101770,,,,,,,,,2502,,,,10,,KMKE 050152Z 15005KT 10SM SCT250 25/21 A3007 RMK AO2 SLP177  T02500211,,,,,,,,,,SSE,,,scattered,,,,21.1,99198.29,101724.99
KMKE,09/05/2018 01:55 UTC,101828.66,25,,78.54,2.57,150,,,,,,,,,,,,,,,,10,,METAR KMKE 050155Z AUTO 15005KT 10SM 25/21 A3007,,,,,,,,,,SSE,,,,,,,21,99198.29,101724.99
KMKE,09/05/2018 02:00 UTC,101828.66,25,,78.54,2.57,150,,,,,,,,,,,,,,,,10,,METAR KMKE 050200Z AUTO 15005KT 10SM 25/21 A3007,,,,,,,,,,SSE,,,,,,,21,99198.29,101724.99
KMKE,09/05/2018 02:05 UTC,101828.66,25,,78.54,2.57,150,,,,,,,,,,,,,,,,10,,METAR KMKE 050205Z AUTO 15005KT 10SM 25/21 A3007,,,,,,,,,,SSE,,,,,,,21,99198.29,101724.99
KMKE,09/05/2018 02:10 UTC,101828.66,24,,83.37,2.57,150,,,,,,,,,,,,,,,,10,,METAR KMKE 050210Z AUTO 15005KT 10SM 24/21 A3007,,,,,,,,,,SSE,,,,,,,21,99198.29,101733.58
KMKE,09/05/2018 02:15 UTC,101828.66,24,,83.37,3.09,160,,,,,,,,,,,,,,,,10,,METAR KMKE 050215Z AUTO 16006KT 10SM 24/21 A3007,,,,,,,,,,SSE,,,,,,,21,99198.29,101733.58
KMKE,09/05/2018 02:20 UTC,101794.79,25,,78.54,3.09,160,,,,,,,,,,,,,,,,10,,METAR KMKE 050220Z AUTO 16006KT 10SM 25/21 A3006,,,,,,,,,,SSE,,,,,,,21,99165.29,101691.15
KMKE,09/05/2018 02:25 UTC,101794.79,24,,83.37,3.09,160,,,,,,,,,,,,,,,,10,,METAR KMKE 050225Z AUTO 16006KT 10SM 24/21 A3006,,,,,,,,,,SSE,,,,,,,21,99165.29,101699.74
KMKE,09/05/2018 02:30 UTC,101794.79,24,,83.37,2.57,150,,,,,,,,,,,,,,,,10,,METAR KMKE 050230Z AUTO 15005KT 10SM 24/21 A3006,,,,,,,,,,SSE,,,,,,,21,99165.29,101699.74
KMKE,09/05/2018 02:35 UTC,101794.79,25,,78.54,2.57,160,,,,,,,,,,,,1,,,,10,,METAR KMKE 050235Z AUTO 16005KT 10SM CLR 25/21 A3006,,,,,,,,,,SSE,,,clear,,,,21,99165.29,101691.15
KMKE,09/05/2018 02:40 UTC,101794.79,25,,83.48,2.57,160,,,,,,,,,,,,1,,,,10,,METAR KMKE 050240Z AUTO 16005KT 10SM CLR 25/22 A3006,,,,,,,,,,SSE,,,clear,,,,22,99165.29,101691.13
KMKE,09/05/2018 02:45 UTC,101794.79,25,,83.48,2.57,160,,,,,,,,,,,,1,,,,10,,METAR KMKE 050245Z AUTO 16005KT 10SM CLR 25/22 A3006,,,,,,,,,,SSE,,,clear,,,,22,99165.29,101691.13
KMKE,09/05/2018 02:50 UTC,101794.79,25,,83.48,3.6,170,,,,,,,,,,,,1,,,,10,,METAR KMKE 050250Z AUTO 17007KT 10SM CLR 25/22 A3006,,,,,,,,,,S,,,clear,,,,22,99165.29,101691.13
KMKE,09/05/2018 02:52 UTC,101794.79,25,21.7,81.97,3.09,170,,,101740,,,,,,8002,,,2502,,,,10,,KMKE 050252Z 17006KT 10SM SCT250 25/22 A3006 RMK AO2 SLP174  T02500217 58002,,,,,,,,,,S,,,scattered,,,,21.7,99165.29,101691.14
KMKE,09/05/2018 02:55 UTC,101794.79,25,,83.48,3.09,160,,,,,,,,,,,,1,,,,10,,METAR KMKE 050255Z AUTO 16006KT 10SM CLR 25/22 A3006,,,,,,,,,,SSE,,,clear,,,,22,99165.29,101691.13
KMKE,09/05/2018 03:00 UTC,101794.79,25,,83.48,3.09,170,,,,,,,,,,,,1,,,,10,,METAR KMKE 050300Z AUTO 17006KT 10SM CLR 25/22 A3006,,,,,,,,,,S,,,clear,,,,22,99165.29,101691.13
KMKE,09/05/2018 03:05 UTC,101794.79,25,,83.48,3.6,170,,,,,,,,,,,,1,,,,10,,METAR KMKE 050305Z AUTO 17007KT 10SM CLR 25/22 A3006,,,,,,,,,,S,,,clear,,,,22,99165.29,101691.13
KMKE,09/05/2018 03:10 UTC,101794.79,26,,78.68,3.09,170,,,,,,,,,,,,1,,,,10,,METAR KMKE 050310Z AUTO 17006KT 10SM CLR 26/22 A3006,,,,,,,,,,S,,,clear,,,,22,99165.29,101682.6
KMKE,09/05/2018 03:15 UTC,101794.79,26,,78.68,2.57,170,,,,,,,,,,,,1,,,,10,,METAR KMKE 050315Z AUTO 17005KT 10SM CLR 26/22 A3006,,,,,,,,,,S,,,clear,,,,22,99165.29,101682.6
KMKE,09/05/2018 03:20 UTC,101794.79,26,,78.68,2.57,170,,,,,,,,,,,,1,,,,10,,METAR KMKE 050320Z AUTO 17005KT 10SM CLR 26/22 A3006,,,,,,,,,,S,,,clear,,,,22,99165.29,101682.6
KMKE,09/05/2018 03:25 UTC,101794.79,25,,83.48,3.6,170,,,,,,,,,,,,1,,,,10,,METAR KMKE 050325Z AUTO 17007KT 10SM CLR 25/22 A3006,,,,,,,,,,S,,,clear,,,,22,99165.29,101691.13
KMKE,09/05/2018 03:30 UTC,101794.79,26,,78.68,3.6,170,,,,,,,,,,,,1,,,,10,,METAR KMKE 050330Z AUTO 17007KT 10SM CLR 26/22 A3006,,,,,,,,,,S,,,clear,,,,22,99165.29,101682.6
KMKE,09/05/2018 03:35 UTC,101794.79,26,,78.68,4.12,170,,,,,,,,,,,,1,,,,10,,METAR KMKE 050335Z AUTO 17008KT 10SM CLR 26/22 A3006,,,,,,,,,,S,,,clear,,,,22,99165.29,101682.6
KMKE,09/05/2018 03:40 UTC,101794.79,26,,78.68,3.09,170,,,,,,,,,,,,1,,,,10,,METAR KMKE 050340Z AUTO 17006KT 10SM CLR 26/22 A3006,,,,,,,,,,S,,,clear,,,,22,99165.29,101682.6
KMKE,09/05/2018 03:45 UTC,101794.79,26,,74.02,2.57,180,,,,,,,,,,,,1,,,,10,,METAR KMKE 050345Z AUTO 18005KT 10SM CLR 26/21 A3006,,,,,,,,,,S,,,clear,,,,21,99165.29,101682.62
KMKE,09/05/2018 03:50 UTC,101794.79,26,,74.02,2.57,190,,,,,,,,,,,,1,,,,10,,METAR KMKE 050350Z AUTO 19005KT 10SM CLR 26/21 A3006,,,,,,,,,,S,,,clear,,,,21,99165.29,101682.62
KMKE,09/05/2018 03:52 UTC,101794.79,25.6,21.1,76.26,3.09,200,,,101740,,,,,,,,,2502,,,,10,,KMKE 050352Z 20006KT 10SM SCT250 26/21 A3006 RMK AO2 SLP174  T02560211,,,,,,,,,,SSW,,,scattered,,,,21.1,99165.29,101686.03
KMKE,09/05/2018 03:55 UTC,101794.79,26,,74.02,3.09,200,,,,,,,,,,,,1,,,,10,,METAR KMKE 050355Z AUTO 20006KT 10SM CLR 26/21 A3006,,,,,,,,,,SSW,,,clear,,,,21,99165.29,101682.62
KMKE,09/05/2018 04:00 UTC,101794.79,26,,74.02,3.09,190,,,,,,,,,,,,1,,,,10,,METAR KMKE 050400Z AUTO 19006KT 10SM CLR 26/21 A3006,,,,,,,,,,S,,,clear,,,,21,99165.29,101682.62
KMKE,09/05/2018 04:05 UTC,101794.79,25,,78.54,3.09,190,,,,,,,,,,,,1,,,,10,,METAR KMKE 050405Z AUTO 19006KT 10SM CLR 25/21 A3006,,,,,,,,,,S,,,clear,,,,21,99165.29,101691.15
KMKE,09/05/2018 04:10 UTC,101794.79,26,,74.02,3.09,180,,,,,,,,,,,,1,,,,10,,METAR KMKE 050410Z AUTO 18006KT 10SM CLR 26/21 A3006,,,,,,,,,,S,,,clear,,,,21,99165.29,101682.62
KMKE,09/05/2018 04:15 UTC,101794.79,26,,74.02,4.12,180,,,,,,,,,,,,1,,,,10,,METAR KMKE 050415Z AUTO 18008KT 10SM CLR 26/21 A3006,,,,,,,,,,S,,,clear,,,,21,99165.29,101682.62
KMKE,09/05/2018 04:20 UTC,101794.79,26,,74.02,4.12,180,,,,,,,,,,,,1,,,,10,,METAR KMKE 050420Z AUTO 18008KT 10SM CLR 26/21 A3006,,,,,,,,,,S,,,clear,,,,21,99165.29,101682.62
KMKE,09/05/2018 04:25 UTC,101794.79,26,,74.02,4.12,180,,,,,,,,,,,,1,,,,10,,METAR KMKE 050425Z AUTO 18008KT 10SM CLR 26/21 A3006,,,,,,,,,,S,,,clear,,,,21,99165.29,101682.62
KMKE,09/05/2018 04:30 UTC,101760.93,26,,74.02,3.6,180,,,,,,,,,,,,1,,,,10,,METAR KMKE 050430Z AUTO 18007KT 10SM CLR 26/21 A3005,,,,,,,,,,S,,,clear,,,,21,99132.31,101648.81
KMKE,09/05/2018 04:35 UTC,101760.93,26,,74.02,3.6,180,,,,,,,,,,,,1,,,,10,,METAR KMKE 050435Z AUTO 18007KT 10SM CLR 26/21 A3005,,,,,,,,,,S,,,clear,,,,21,99132.31,101648.81
KMKE,09/05/2018 04:40 UTC,101760.93,26,,74.02,3.6,190,,,,,,,,,,,,1,,,,10,,METAR KMKE 050440Z AUTO 19007KT 10SM CLR 26/21 A3005,,,,,,,,,,S,,,clear,,,,21,99132.31,101648.81
KMKE,09/05/2018 04:45 UTC,101760.93,26,,74.02,4.12,190,,,,,,,,,,,,1,,,,10,,METAR KMKE 050445Z AUTO 19008KT 10SM CLR 26/21 A3005,,,,,,,,,,S,,,clear,,,,21,99132.31,101648.81
KMKE,09/05/2018 04:50 UTC,101760.93,26,,74.02,3.6,190,,,,,,,,,,,,,,,,10,,METAR KMKE 050450Z AUTO 19007KT 10SM 26/21 A3005,,,,,,,,,,S,,,,,,,21,99132.31,101648.81
KMKE,09/05/2018 04:52 UTC,101760.93,26.1,20.6,71.8,4.12,190,,,101700,,,,,,,,,2502,,,,10,,KMKE 050452Z 19008KT 10SM SCT250 26/21 A3005 RMK AO2 SLP170  T02610206,,,,,,,,,,S,,,scattered,,,,20.6,99132.31,101647.96
KMKE,09/05/2018 04:55 UTC,101760.93,26,,74.02,3.6,190,,,,,,,,,,,,1,,,,10,,METAR KMKE 050455Z AUTO 19007KT 10SM CLR 26/21 A3005,,,,,,,,,,S,,,clear,,,,21,99132.31,101648.81
KMKE,09/05/2018 05:00 UTC,101760.93,26,,74.02,4.12,190,,,,,,,,,,,,1,,,,10,,METAR KMKE 050500Z AUTO 19008KT 10SM CLR 26/21 A3005,,,,,,,,,,S,,,clear,,,,21,99132.31,101648.81
KMKE,09/05/2018 05:05 UTC,101760.93,26,,74.02,4.12,190,,,,,,,,,,,,1,,,,10,,METAR KMKE 050505Z AUTO 19008KT 10SM CLR 26/21 A3005,,,,,,,,,,S,,,clear,,,,21,99132.31,101648.81
KMKE,09/05/2018 05:10 UTC,101760.93,26,,74.02,3.6,190,,,,,,,,,,,,1,,,,10,,METAR KMKE 050510Z AUTO 19007KT 10SM CLR 26/21 A3005,,,,,,,,,,S,,,clear,,,,21,99132.31,101648.81
KMKE,09/05/2018 05:15 UTC,101760.93,26,,74.02,3.6,190,,,,,,,,,,,,1,,,,10,,METAR KMKE 050515Z AUTO 19007KT 10SM CLR 26/21 A3005,,,,,,,,,,S,,,clear,,,,21,99132.31,101648.81
KMKE,09/05/2018 05:20 UTC,101760.93,26,,74.02,3.6,190,,,,,,,,,,,,1,,,,10,,METAR KMKE 050520Z AUTO 19007KT 10SM CLR 26/21 A3005,,,,,,,,,,S,,,clear,,,,21,99132.31,101648.81
KMKE,09/05/2018 05:25 UTC,101760.93,26,,74.02,3.6,190,,,,,,,,,,,,1,,,,10,,METAR KMKE 050525Z AUTO 19007KT 10SM CLR 26/21 A3005,,,,,,,,,,S,,,clear,,,,21,99132.31,101648.81
KMKE,09/05/2018 05:30 UTC,101760.93,26,,74.02,3.6,200,,,,,,,,,,,,1,,,,10,,METAR KMKE 050530Z AUTO 20007KT 10SM CLR 26/21 A3005,,,,,,,,,,SSW,,,clear,,,,21,99132.31,101648.81
KMKE,09/05/2018 05:35 UTC,101760.93,26,,74.02,4.12,200,,,,,,,,,,,,1,,,,10,,METAR KMKE 050535Z AUTO 20008KT 10SM CLR 26/21 A3005,,,,,,,,,,SSW,,,clear,,,,21,99132.31,101648.81
KMKE,09/05/2018 05:40 UTC,101760.93,26,,74.02,4.12,190,,,,,,,,,,,,1,,,,10,,METAR KMKE 050540Z AUTO 19008KT 10SM CLR 26/21 A3005,,,,,,,,,,S,,,clear,,,,21,99132.31,101648.81
KMKE,09/05/2018 05:45 UTC,101760.93,26,,74.02,4.12,200,,,,,,,,,,,,1,,,,10,,METAR KMKE 050545Z AUTO 20008KT 10SM CLR 26/21 A3005,,,,,,,,,,SSW,,,clear,,,,21,99132.31,101648.81
KMKE,09/05/2018 05:50 UTC,101760.93,26,,69.6,4.12,190,,,,,,,,,,,,,,,,10,,METAR KMKE 050550Z AUTO 19008KT 10SM 26/20 A3005,,,,,,,,,,S,,,,,,,20,99132.31,101648.83
KMKE,09/05/2018 05:52 UTC,101760.93,25.6,20,71.26,4.12,200,,,101690,,,,,,8005,,,2503,,,,10,,KMKE 050552Z 20008KT 10SM BKN250 26/20 A3005 RMK AO2 SLP169  T02560200 10272 20244 403220217 58005,27.2,24.4,,7620,,32.2,21.7,,,SSW,,,broken,,,,20,99132.31,101652.23
KMKE,09/05/2018 05:55 UTC,101760.93,26,,69.6,4.12,200,,,,,,,,,,,,,,,,10,,METAR KMKE 050555Z AUTO 20008KT 10SM 26/20 A3005,,,,,,,,,,SSW,,,,,,,20,99132.31,101648.83
KMKE,09/05/2018 06:00 UTC,101760.93,26,,69.6,3.6,200,,,,,,,,,,,,,,,,10,,METAR KMKE 050600Z AUTO 20007KT 10SM 26/20 A3005,,,,,,,,,,SSW,,,,,,,20,99132.31,101648.83
KMKE,09/05/2018 06:05 UTC,101727.07,26,,69.6,4.12,190,,,,,,,,,,,,,,,,10,,METAR KMKE 050605Z AUTO 19008KT 10SM 26/20 A3004,,,,,,,,,,S,,,,,,,20,99099.32,101615
KMKE,09/05/2018 06:10 UTC,101727.07,26,,69.6,4.63,200,,,,,,,,,,,,,,,,10,,METAR KMKE 050610Z AUTO 20009KT 10SM 26/20 A3004,,,,,,,,,,SSW,,,,,,,20,99099.32,101615
KMKE,09/05/2018 06:15 UTC,101727.07,26,,69.6,5.14,190,,,,,,,,,,,,,,,,10,,METAR KMKE 050615Z AUTO 19010KT 10SM 26/20 A3004,,,,,,,,,,S,,,,,,,20,99099.32,101615
KMKE,09/05/2018 06:20 UTC,101727.07,26,,69.6,5.14,200,,,,,,,,,,,,,,,,10,,METAR KMKE 050620Z AUTO 20010KT 10SM 26/20 A3004,,,,,,,,,,SSW,,,,,,,20,99099.32,101615
KMKE,09/05/2018 06:25 UTC,101727.07,26,,69.6,5.14,200,,,,,,,,,,,,,,,,10,,METAR KMKE 050625Z AUTO 20010KT 10SM 26/20 A3004,,,,,,,,,,SSW,,,,,,,20,99099.32,101615
KMKE,09/05/2018 06:30 UTC,101727.07,26,,69.6,4.12,200,,,,,,,,,,,,,,,,10,,METAR KMKE 050630Z AUTO 20008KT 10SM 26/20 A3004,,,,,,,,,,SSW,,,,,,,20,99099.32,101615
KMKE,09/05/2018 06:35 UTC,101727.07,26,,69.6,5.66,200,,,,,,,,,,,,,,,,10,,METAR KMKE 050635Z AUTO 20011KT 10SM 26/20 A3004,,,,,,,,,,SSW,,,,,,,20,99099.32,101615
KMKE,09/05/2018 06:40 UTC,101727.07,26,,69.6,5.14,200,,,,,,,,,,,,,,,,10,,METAR KMKE 050640Z AUTO 20010KT 10SM 26/20 A3004,,,,,,,,,,SSW,,,,,,,20,99099.32,101615
KMKE,09/05/2018 06:45 UTC,101727.07,26,,69.6,5.14,200,,,,,,,,,,,,,,,,10,,METAR KMKE 050645Z AUTO 20010KT 10SM 26/20 A3004,,,,,,,,,,SSW,,,,,,,20,99099.32,101615
KMKE,09/05/2018 06:50 UTC,101727.07,26,,69.6,5.14,200,,,,,,,,,,,,,,,,10,,METAR KMKE 050650Z AUTO 20010KT 10SM 26/20 A3004,,,,,,,,,,SSW,,,,,,,20,99099.32,101615
KMKE,09/05/2018 06:52 UTC,101727.07,25.6,20,71.26,4.63,200,,,101670,,,,,,,,,2503,,,,10,,KMKE 050652Z 20009KT 10SM BKN250 26/20 A3004 RMK AO2 SLP167  T02560200,,,,7620,,,,,,SSW,,,broken,,,,20,99099.32,101618.4
KMKE,09/05/2018 06:55 UTC,101727.07,26,,69.6,4.63,200,,,,,,,,,,,,,,,,10,,METAR KMKE 050655Z AUTO 20009KT 10SM 26/20 A3004,,,,,,,,,,SSW,,,,,,,20,99099.32,101615
KMKE,09/05/2018 07:00 UTC,101727.07,26,,69.6,4.63,210,,,,,,,,,,,,,,,,10,,METAR KMKE 050700Z AUTO 21009KT 10SM 26/20 A3004,,,,,,,,,,SSW,,,,,,,20,99099.32,101615
KMKE,09/05/2018 07:05 UTC,101727.07,26,,69.6,4.63,210,,,,,,,,,,,,,,,,10,,METAR KMKE 050705Z AUTO 21009KT 10SM 26/20 A3004,,,,,,,,,,SSW,,,,,,,20,99099.32,101615
KMKE,09/05/2018 07:10 UTC,101727.07,26,,69.6,4.63,200,,,,,,,,,,,,,,,,10,,METAR KMKE 050710Z AUTO 20009KT 10SM 26/20 A3004,,,,,,,,,,SSW,,,,,,,20,99099.32,101615
KMKE,09/05/2018 07:15 UTC,101727.07,25,,73.85,4.63,200,,,,,,,,,,,,,,,,10,,METAR KMKE 050715Z AUTO 20009KT 10SM 25/20 A3004,,,,,,,,,,SSW,,,,,,,20,99099.32,101623.52
KMKE,09/05/2018 07:20 UTC,101727.07,25,,73.85,5.14,200,,,,,,,,,,,,,,,,10,,METAR KMKE 050720Z AUTO 20010KT 10SM 25/20 A3004,,,,,,,,,,SSW,,,,,,,20,99099.32,101623.52
KMKE,09/05/2018 07:25 UTC,101727.07,25,,73.85,5.14,200,,,,,,,,,,,,,,,,10,,METAR KMKE 050725Z AUTO 20010KT 10SM 25/20 A3004,,,,,,,,,,SSW,,,,,,,20,99099.32,101623.52
KMKE,09/05/2018 07:30 UTC,101727.07,25,,73.85,5.14,200,,,,,,,,,,,,,,,,10,,METAR KMKE 050730Z AUTO 20010KT 10SM 25/20 A3004,,,,,,,,,,SSW,,,,,,,20,99099.32,101623.52
KMKE,09/05/2018 07:35 UTC,101693.2,25,,73.85,5.14,200,,,,,,,,,,,,,,,,10,,METAR KMKE 050735Z AUTO 20010KT 10SM 25/20 A3003,,,,,,,,,,SSW,,,,,,,20,99066.33,101589.69
KMKE,09/05/2018 07:40 UTC,101727.07,25,,73.85,4.63,200,,,,,,,,,,,,,,,,10,,METAR KMKE 050740Z AUTO 20009KT 10SM 25/20 A3004,,,,,,,,,,SSW,,,,,,,20,99099.32,101623.52
KMKE,09/05/2018 07:45 UTC,101693.2,25,,73.85,4.63,200,,,,,,,,,,,,,,,,10,,METAR KMKE 050745Z AUTO 20009KT 10SM 25/20 A3003,,,,,,,,,,SSW,,,,,,,20,99066.33,101589.69
KMKE,09/05/2018 07:50 UTC,101727.07,25,,73.85,4.63,200,,,,,,,,,,,,,,,,10,,METAR KMKE 050750Z AUTO 20009KT 10SM 25/20 A3004,,,,,,,,,,SSW,,,,,,,20,99099.32,101623.52
KMKE,09/05/2018 07:52 UTC,101727.07,25,20,73.85,4.63,200,,,101650,,,,,,,,,2503,,,,10,,KMKE 050752Z 20009KT 10SM BKN250 25/20 A3004 RMK AO2 SLP165  T02500200,,,,7620,,,,,,SSW,,,broken,,,,20,99099.32,101623.52
KMKE,09/05/2018 07:55 UTC,101727.07,25,,73.85,3.6,210,,,,,,,,,,,,1,,,,10,,METAR KMKE 050755Z AUTO 21007KT 10SM CLR 25/20 A3004,,,,,,,,,,SSW,,,clear,,,,20,99099.32,101623.52
KMKE,09/05/2018 08:00 UTC,101693.2,24,,78.39,4.12,200,,,,,,,,,,,,1,,,,10,,METAR KMKE 050800Z AUTO 20008KT 10SM CLR 24/20 A3003,,,,,,,,,,SSW,,,clear,,,,20,99066.33,101598.27
KMKE,09/05/2018 08:05 UTC,101693.2,24,,78.39,4.63,200,,,,,,,,,,,,1,,,,10,,METAR KMKE 050805Z AUTO 20009KT 10SM CLR 24/20 A3003,,,,,,,,,,SSW,,,clear,,,,20,99066.33,101598.27
KMKE,09/05/2018 08:10 UTC,101693.2,24,,83.37,3.6,200,,,,,,,,,,,,1,,,,10,,METAR KMKE 050810Z AUTO 20007KT 10SM CLR 24/21 A3003,,,,,,,,,,SSW,,,clear,,,,21,99066.33,101598.25
KMKE,09/05/2018 08:15 UTC,101693.2,24,,83.37,3.6,210,,,,,,,,,,,,1,,,,10,,METAR KMKE 050815Z AUTO 21007KT 10SM CLR 24/21 A3003,,,,,,,,,,SSW,,,clear,,,,21,99066.33,101598.25
KMKE,09/05/2018 08:20 UTC,101693.2,24,,83.37,4.12,200,,,,,,,,,,,,1,,,,10,,METAR KMKE 050820Z AUTO 20008KT 10SM CLR 24/21 A3003,,,,,,,,,,SSW,,,clear,,,,21,99066.33,101598.25
KMKE,09/05/2018 08:25 UTC,101693.2,24,,83.37,4.12,210,,,,,,,,,,,,1,,,,10,,METAR KMKE 050825Z AUTO 21008KT 10SM CLR 24/21 A3003,,,,,,,,,,SSW,,,clear,,,,21,99066.33,101598.25
KMKE,09/05/2018 08:30 UTC,101693.2,24,,83.37,4.12,210,,,,,,,,,,,,1,,,,10,,METAR KMKE 050830Z AUTO 21008KT 10SM CLR 24/21 A3003,,,,,,,,,,SSW,,,clear,,,,21,99066.33,101598.25
KMKE,09/05/2018 08:35 UTC,101693.2,24,,83.37,4.12,200,,,,,,,,,,,,1,,,,10,,METAR KMKE 050835Z AUTO 20008KT 10SM CLR 24/21 A3003,,,,,,,,,,SSW,,,clear,,,,21,99066.33,101598.25
KMKE,09/05/2018 08:40 UTC,101693.2,24,,83.37,3.6,200,,,,,,,,,,,,1,,,,10,,METAR KMKE 050840Z AUTO 20007KT 10SM CLR 24/21 A3003,,,,,,,,,,SSW,,,clear,,,,21,99066.33,101598.25
KMKE,09/05/2018 08:45 UTC,101693.2,24,,83.37,5.14,200,,,,,,,,,,,,1,,,,10,,METAR KMKE 050845Z AUTO 20010KT 10SM CLR 24/21 A3003,,,,,,,,,,SSW,,,clear,,,,21,99066.33,101598.25
KMKE,09/05/2018 08:50 UTC,101693.2,24,,83.37,4.12,200,,,,,,,,,,,,,,,,10,,METAR KMKE 050850Z AUTO 20008KT 10SM 24/21 A3003,,,,,,,,,,SSW,,,,,,,21,99066.33,101598.25
KMKE,09/05/2018 08:52 UTC,101693.2,24.4,20.6,79.42,4.63,200,,,101620,,,,,,8007,,,2502,,,,10,,KMKE 050852Z 20009KT 10SM SCT250 24/21 A3003 RMK AO2 SLP162  T02440206 58007,,,,,,,,,,SSW,,,scattered,,,,20.6,99066.33,101594.82
KMKE,09/05/2018 08:55 UTC,101693.2,24,,83.37,4.63,200,,,,,,,,,,,,1,,,,10,,METAR KMKE 050855Z AUTO 20009KT 10SM CLR 24/21 A3003,,,,,,,,,,SSW,,,clear,,,,21,99066.33,101598.25
KMKE,09/05/2018 09:00 UTC,101693.2,24,,83.37,3.6,210,,,,,,,,,,,,1,,,,10,,METAR KMKE 050900Z AUTO 21007KT 10SM CLR 24/21 A3003,,,,,,,,,,SSW,,,clear,,,,21,99066.33,101598.25
KMKE,09/05/2018 09:05 UTC,101659.34,24,,83.37,4.63,200,,,,,,,,,,,,1,,,,10,,METAR KMKE 050905Z AUTO 20009KT 10SM CLR 24/21 A3002,,,,,,,,,,SSW,,,clear,,,,21,99033.34,101564.42
KMKE,09/05/2018 09:10 UTC,101659.34,24,,83.37,4.63,200,,,,,,,,,,,,1,,,,10,,METAR KMKE 050910Z AUTO 20009KT 10SM CLR 24/21 A3002,,,,,,,,,,SSW,,,clear,,,,21,99033.34,101564.42
KMKE,09/05/2018 09:15 UTC,101659.34,24,,83.37,4.12,210,,,,,,,,,,,,1,,,,10,,METAR KMKE 050915Z AUTO 21008KT 10SM CLR 24/21 A3002,,,,,,,,,,SSW,,,clear,,,,21,99033.34,101564.42
KMKE,09/05/2018 09:20 UTC,101659.34,24,,83.37,4.63,210,,,,,,,,,,,,1,,,,10,,METAR KMKE 050920Z AUTO 21009KT 10SM CLR 24/21 A3002,,,,,,,,,,SSW,,,clear,,,,21,99033.34,101564.42
KMKE,09/05/2018 09:25 UTC,101693.2,24,,83.37,4.63,210,,,,,,,,,,,,1,,,,10,,METAR KMKE 050925Z AUTO 21009KT 10SM CLR 24/21 A3003,,,,,,,,,,SSW,,,clear,,,,21,99066.33,101598.25
KMKE,09/05/2018 09:30 UTC,101693.2,24,,83.37,4.12,210,,,,,,,,,,,,1,,,,10,,METAR KMKE 050930Z AUTO 21008KT 10SM CLR 24/21 A3003,,,,,,,,,,SSW,,,clear,,,,21,99066.33,101598.25
KMKE,09/05/2018 09:35 UTC,101693.2,24,,83.37,4.12,210,,,,,,,,,,,,1,,,,10,,METAR KMKE 050935Z AUTO 21008KT 10SM CLR 24/21 A3003,,,,,,,,,,SSW,,,clear,,,,21,99066.33,101598.25
KMKE,09/05/2018 09:40 UTC,101693.2,24,,83.37,4.12,210,,,,,,,,,,,,1,,,,10,,METAR KMKE 050940Z AUTO 21008KT 10SM CLR 24/21 A3003,,,,,,,,,,SSW,,,clear,,,,21,99066.33,101598.25
KMKE,09/05/2018 09:45 UTC,101693.2,24,,83.37,4.12,210,,,,,,,,,,,,1,,,,10,,METAR KMKE 050945Z AUTO 21008KT 10SM CLR 24/21 A3003,,,,,,,,,,SSW,,,clear,,,,21,99066.33,101598.25
KMKE,09/05/2018 09:50 UTC,101693.2,24,,83.37,3.6,210,,,,,,,,,,,,1,,,,10,,METAR KMKE 050950Z AUTO 21007KT 10SM CLR 24/21 A3003,,,,,,,,,,SSW,,,clear,,,,21,99066.33,101598.25
KMKE,09/05/2018 09:52 UTC,101693.2,23.9,20.6,81.83,4.63,210,,,101630,,,,,,,,,2502,,,,10,,KMKE 050952Z 21009KT 10SM SCT250 24/21 A3003 RMK AO2 SLP163  T02390206,,,,,,,,,,SSW,,,scattered,,,,20.6,99066.33,101599.12
KMKE,09/05/2018 09:55 UTC,101693.2,24,,83.37,3.6,200,,,,,,,,,,,,1,,,,10,,METAR KMKE 050955Z AUTO 20007KT 10SM CLR 24/21 A3003,,,,,,,,,,SSW,,,clear,,,,21,99066.33,101598.25
KMKE,09/05/2018 10:00 UTC,101693.2,24,,83.37,4.12,210,,,,,,,,,,,,1,,,,10,,METAR KMKE 051000Z AUTO 21008KT 10SM CLR 24/21 A3003,,,,,,,,,,SSW,,,clear,,,,21,99066.33,101598.25
KMKE,09/05/2018 10:05 UTC,101693.2,24,,83.37,4.12,210,,,,,,,,,,,,1,,,,10,,METAR KMKE 051005Z AUTO 21008KT 10SM CLR 24/21 A3003,,,,,,,,,,SSW,,,clear,,,,21,99066.33,101598.25
KMKE,09/05/2018 10:10 UTC,101693.2,24,,83.37,3.6,200,,,,,,,,,,,,1,,,,10,,METAR KMKE 051010Z AUTO 20007KT 10SM CLR 24/21 A3003,,,,,,,,,,SSW,,,clear,,,,21,99066.33,101598.25
KMKE,09/05/2018 10:15 UTC,101693.2,24,,83.37,3.6,210,,,,,,,,,,,,1,,,,10,,METAR KMKE 051015Z AUTO 21007KT 10SM CLR 24/21 A3003,,,,,,,,,,SSW,,,clear,,,,21,99066.33,101598.25
KMKE,09/05/2018 10:20 UTC,101693.2,24,,83.37,4.12,210,,,,,,,,,,,,1,,,,10,,METAR KMKE 051020Z AUTO 21008KT 10SM CLR 24/21 A3003,,,,,,,,,,SSW,,,clear,,,,21,99066.33,101598.25
KMKE,09/05/2018 10:25 UTC,101693.2,24,,83.37,4.63,210,,,,,,,,,,,,1,,,,10,,METAR KMKE 051025Z AUTO 21009KT 10SM CLR 24/21 A3003,,,,,,,,,,SSW,,,clear,,,,21,99066.33,101598.25
KMKE,09/05/2018 10:30 UTC,101693.2,24,,83.37,4.63,210,,,,,,,,,,,,1,,,,10,,METAR KMKE 051030Z AUTO 21009KT 10SM CLR 24/21 A3003,,,,,,,,,,SSW,,,clear,,,,21,99066.33,101598.25
KMKE,09/05/2018 10:35 UTC,101693.2,24,,83.37,5.66,210,,,,,,,,,,,,1,,,,10,,METAR KMKE 051035Z AUTO 21011KT 10SM CLR 24/21 A3003,,,,,,,,,,SSW,,,clear,,,,21,99066.33,101598.25
KMKE,09/05/2018 10:40 UTC,101693.2,24,,83.37,5.66,210,,,,,,,,,,,,1,,,,10,,METAR KMKE 051040Z AUTO 21011KT 10SM CLR 24/21 A3003,,,,,,,,,,SSW,,,clear,,,,21,99066.33,101598.25
KMKE,09/05/2018 10:45 UTC,101693.2,24,,83.37,5.66,210,,,,,,,,,,,,1,,,,10,,METAR KMKE 051045Z AUTO 21011KT 10SM CLR 24/21 A3003,,,,,,,,,,SSW,,,clear,,,,21,99066.33,101598.25
KMKE,09/05/2018 10:50 UTC,101693.2,24,,83.37,5.66,210,,,,,,,,,,,,,,,,10,,METAR KMKE 051050Z AUTO 21011KT 10SM 24/21 A3003,,,,,,,,,,SSW,,,,,,,21,99066.33,101598.25
KMKE,09/05/2018 10:52 UTC,101693.2,24.4,20.6,79.42,5.66,220,,,101630,,,,,,,,,2503,,,,10,,KMKE 051052Z 22011KT 10SM BKN250 24/21 A3003 RMK AO2 SLP163  T02440206,,,,7620,,,,,,SW,,,broken,,,,20.6,99066.33,101594.82
KMKE,09/05/2018 10:55 UTC,101693.2,24,,83.37,5.66,220,,,,,,,,,,,,1,,,,10,,METAR KMKE 051055Z AUTO 22011KT 10SM CLR 24/21 A3003,,,,,,,,,,SW,,,clear,,,,21,99066.33,101598.25
KMKE,09/05/2018 11:00 UTC,101693.2,24,,83.37,6.17,220,,,,,,,,,,,,1,,,,10,,METAR KMKE 051100Z AUTO 22012KT 10SM CLR 24/21 A3003,,,,,,,,,,SW,,,clear,,,,21,99066.33,101598.25
KMKE,09/05/2018 11:05 UTC,101693.2,25,,78.54,5.14,220,,,,,,,,,,,,1,,,,10,,METAR KMKE 051105Z AUTO 22010KT 10SM CLR 25/21 A3003,,,,,,,,,,SW,,,clear,,,,21,99066.33,101589.67
KMKE,09/05/2018 11:10 UTC,101659.34,24,,83.37,5.14,210,,,,,,,,,,,,1,,,,10,,METAR KMKE 051110Z AUTO 21010KT 10SM CLR 24/21 A3002,,,,,,,,,,SSW,,,clear,,,,21,99033.34,101564.42
KMKE,09/05/2018 11:15 UTC,101659.34,24,,83.37,6.17,210,,,,,,,,,,,,1,,,,10,,METAR KMKE 051115Z AUTO 21012KT 10SM CLR 24/21 A3002,,,,,,,,,,SSW,,,clear,,,,21,99033.34,101564.42
KMKE,09/05/2018 11:20 UTC,101659.34,24,,83.37,5.14,210,7.72,,,,,,,,,,,1,,,,10,,METAR KMKE 051120Z AUTO 21010G15KT 10SM CLR 24/21 A3002,,,,,,,,,,SSW,,,clear,,,,21,99033.34,101564.42
KMKE,09/05/2018 11:25 UTC,101693.2,25,,78.54,5.66,220,,,,,,,,,,,,1,,,,10,,METAR KMKE 051125Z AUTO 22011KT 10SM CLR 25/21 A3003,,,,,,,,,,SW,,,clear,,,,21,99066.33,101589.67
KMKE,09/05/2018 11:30 UTC,101693.2,25,,78.54,5.14,220,,,,,,,,,,,,1,,,,10,,METAR KMKE 051130Z AUTO 22010KT 10SM CLR 25/21 A3003,,,,,,,,,,SW,,,clear,,,,21,99066.33,101589.67
KMKE,09/05/2018 11:35 UTC,101693.2,24,,83.37,5.66,220,,,,,,,,,,,,1,,,,10,,METAR KMKE 051135Z AUTO 22011KT 10SM CLR 24/21 A3003,,,,,,,,,,SW,,,clear,,,,21,99066.33,101598.25
KMKE,09/05/2018 11:40 UTC,101693.2,24,,83.37,5.66,220,,,,,,,,,,,,1,,,,10,,METAR KMKE 051140Z AUTO 22011KT 10SM CLR 24/21 A3003,,,,,,,,,,SW,,,clear,,,,21,99066.33,101598.25
KMKE,09/05/2018 11:45 UTC,101693.2,24,,83.37,5.66,210,,,,,,,,,,,,1,,,,10,,METAR KMKE 051145Z AUTO 21011KT 10SM CLR 24/21 A3003,,,,,,,,,,SSW,,,clear,,,,21,99066.33,101598.25
KMKE,09/05/2018 11:50 UTC,101693.2,25,,78.54,5.66,220,,,,,,,,,,,,1006,,,,10,,METAR KMKE 051150Z AUTO 22011KT 10SM FEW100 25/21 A3003,,,,,,,,,,SW,,,thin scattered,,,,21,99066.33,101589.67
KMKE,09/05/2018 11:52 UTC,101693.2,25,21.1,79.02,5.66,210,,,101640,,,,,,3002,,,806,2503,,,10,,KMKE 051152Z 21011KT 10SM FEW080 BKN250 25/21 A3003 RMK AO2 SLP164  T02500211 10256 20239 53002,25.6,23.9,,7620,,,,,,SSW,,,broken,,,,21.1,99066.33,101589.67
KMKE,09/05/2018 11:55 UTC,101693.2,25,,78.54,5.66,220,,,,,,,,,,,,1,,,,10,,METAR KMKE 051155Z AUTO 22011KT 10SM CLR 25/21 A3003,,,,,,,,,,SW,,,clear,,,,21,99066.33,101589.67
KMKE,09/05/2018 12:00 UTC,101693.2,25,,78.54,6.69,210,,,,,,,,,,,,506,806,,,10,,METAR KMKE 051200Z AUTO 21013KT 10SM FEW050 FEW080 25/21 A3003,,,,,,,,,,SSW,,,thin scattered,,,,21,99066.33,101589.67
KMKE,09/05/2018 12:05 UTC,101693.2,25,,78.54,6.17,210,,,,,,,,,,,,506,806,,,10,,METAR KMKE 051205Z AUTO 21012KT 10SM FEW050 FEW080 25/21 A3003,,,,,,,,,,SSW,,,thin scattered,,,,21,99066.33,101589.67
KMKE,09/05/2018 12:10 UTC,101693.2,25,,78.54,6.69,210,,,,,,,,,,,,506,806,,,10,,METAR KMKE 051210Z AUTO 21013KT 10SM FEW050 FEW080 25/21 A3003,,,,,,,,,,SSW,,,thin scattered,,,,21,99066.33,101589.67
KMKE,09/05/2018 12:15 UTC,101693.2,25,,78.54,5.66,210,,,,,,,,,,,,506,806,,,10,,METAR KMKE 051215Z AUTO 21011KT 10SM FEW050 FEW080 25/21 A3003,,,,,,,,,,SSW,,,thin scattered,,,,21,99066.33,101589.67
KMKE,09/05/2018 12:20 UTC,101727.07,25,,78.54,5.66,210,,,,,,,,,,,,506,806,,,10,,METAR KMKE 051220Z AUTO 21011KT 10SM FEW050 FEW080 25/21 A3004,,,,,,,,,,SSW,,,thin scattered,,,,21,99099.32,101623.5
KMKE,09/05/2018 12:25 UTC,101727.07,25,,78.54,5.66,220,,,,,,,,,,,,506,806,,,10,,METAR KMKE 051225Z AUTO 22011KT 10SM FEW050 FEW080 25/21 A3004,,,,,,,,,,SW,,,thin scattered,,,,21,99099.32,101623.5
KMKE,09/05/2018 12:30 UTC,101727.07,25,,78.54,6.17,210,9.77,,,,,,,,,,,506,806,,,10,,METAR KMKE 051230Z AUTO 21012G19KT 10SM FEW050 FEW080 25/21 A3004,,,,,,,,,,SSW,,,thin scattered,,,,21,99099.32,101623.5
KMKE,09/05/2018 12:35 UTC,101727.07,25,,78.54,6.69,220,9.26,,,,,,,,,,,506,806,,,10,,METAR KMKE 051235Z AUTO 22013G18KT 10SM FEW050 FEW080 25/21 A3004,,,,,,,,,,SW,,,thin scattered,,,,21,99099.32,101623.5
KMKE,09/05/2018 12:40 UTC,101727.07,25,,78.54,5.66,220,,,,,,,,,,,,506,806,,,10,,METAR KMKE 051240Z AUTO 22011KT 10SM FEW050 FEW080 25/21 A3004,,,,,,,,,,SW,,,thin scattered,,,,21,99099.32,101623.5
KMKE,09/05/2018 12:45 UTC,101727.07,25,,78.54,5.66,220,,,,,,,,,,,,506,806,,,10,,METAR KMKE 051245Z AUTO 22011KT 10SM FEW050 FEW080 25/21 A3004,,,,,,,,,,SW,,,thin scattered,,,,21,99099.32,101623.5
KMKE,09/05/2018 12:50 UTC,101727.07,26,,74.02,6.69,220,9.77,,,,,,,,,,,506,806,,,10,,METAR KMKE 051250Z AUTO 22013G19KT 10SM FEW050 FEW080 26/21 A3004,,,,,,,,,,SW,,,thin scattered,,,,21,99099.32,101614.98
KMKE,09/05/2018 12:52 UTC,101727.07,25.6,21.1,76.26,7.72,220,10.8,,101670,,2502,,,,,,,506,806,,,10,,KMKE 051252Z 22015G21KT 10SM FEW050 FEW080 SCT250 26/21 A3004 RMK AO2 SLP167 T02560211,,,,,,,,,,SW,,,scattered,,,,21.1,99099.32,101618.38
KMKE,09/05/2018 12:55 UTC,101727.07,26,,74.02,6.69,220,,,,,,,,,,,,1,,,,10,,METAR KMKE 051255Z AUTO 22013KT 10SM CLR 26/21 A3004,,,,,,,,,,SW,,,clear,,,,21,99099.32,101614.98
KMKE,09/05/2018 13:00 UTC,101727.07,26,,74.02,6.17,220,8.75,,,,,,,,,,,506,806,,,10,,METAR KMKE 051300Z AUTO 22012G17KT 10SM FEW050 FEW080 26/21 A3004,,,,,,,,,,SW,,,thin scattered,,,,21,99099.32,101614.98
KMKE,09/05/2018 13:05 UTC,101727.07,26,,74.02,6.17,220,,,,,,,,,,,,506,806,,,10,,METAR KMKE 051305Z AUTO 22012KT 10SM FEW050 FEW080 26/21 A3004,,,,,,,,,,SW,,,thin scattered,,,,21,99099.32,101614.98
KMKE,09/05/2018 13:10 UTC,101727.07,26,,74.02,6.17,230,8.75,,,,,,,,,,,506,806,,,10,,METAR KMKE 051310Z AUTO 23012G17KT 10SM FEW050 FEW080 26/21 A3004,,,,,,,,,,SW,,,thin scattered,,,,21,99099.32,101614.98
KMKE,09/05/2018 13:15 UTC,101727.07,26,,74.02,6.17,220,,,,,,,,,,,,506,806,,,10,,METAR KMKE 051315Z AUTO 22012KT 10SM FEW050 FEW080 26/21 A3004,,,,,,,,,,SW,,,thin scattered,,,,21,99099.32,101614.98
KMKE,09/05/2018 13:20 UTC,101727.07,26,,78.68,6.69,220,9.26,,,,,,,,,,,506,806,,,10,,METAR KMKE 051320Z AUTO 22013G18KT 10SM FEW050 FEW080 26/22 A3004,,,,,,,,,,SW,,,thin scattered,,,,22,99099.32,101614.96
KMKE,09/05/2018 13:25 UTC,101727.07,26,,78.68,6.69,230,,,,,,,,,,,,506,806,,,10,,METAR KMKE 051325Z AUTO 23013KT 10SM FEW050 FEW080 26/22 A3004,,,,,,,,,,SW,,,thin scattered,,,,22,99099.32,101614.96
KMKE,09/05/2018 13:30 UTC,101727.07,26,,78.68,7.2,220,,,,,,,,,,,,506,806,,,10,,METAR KMKE 051330Z AUTO 22014KT 10SM FEW050 FEW080 26/22 A3004,,,,,,,,,,SW,,,thin scattered,,,,22,99099.32,101614.96
KMKE,09/05/2018 13:35 UTC,101727.07,26,,78.68,7.2,220,,,,,,,,,,,,506,806,,,10,,METAR KMKE 051335Z AUTO 22014KT 10SM FEW050 FEW080 26/22 A3004,,,,,,,,,,SW,,,thin scattered,,,,22,99099.32,101614.96
KMKE,09/05/2018 13:40 UTC,101727.07,26,,78.68,7.2,230,9.77,,,,,,,,,,,506,806,,,10,,METAR KMKE 051340Z AUTO 23014G19KT 10SM FEW050 FEW080 26/22 A3004,,,,,,,,,,SW,,,thin scattered,,,,22,99099.32,101614.96
KMKE,09/05/2018 13:45 UTC,101727.07,27,,74.19,6.69,230,,,,,,,,,,,,506,806,,,10,,METAR KMKE 051345Z AUTO 23013KT 10SM FEW050 FEW080 27/22 A3004,,,,,,,,,,SW,29.21,,thin scattered,,,,22.01,99099.32,101606.49
KMKE,09/05/2018 13:50 UTC,101693.2,27,,74.19,6.69,230,,,,,,,,,,,,506,806,,,10,,METAR KMKE 051350Z AUTO 23013KT 10SM FEW050 FEW080 27/22 A3003,,,,,,,,,,SW,29.21,,thin scattered,,,,22.01,99066.33,101572.67
KMKE,09/05/2018 13:52 UTC,101693.2,26.7,21.7,74.14,6.17,220,,,101650,,2502,,,,,,,406,806,,,10,,KMKE 051352Z 22012KT 10SM FEW040 FEW080 SCT250 27/22 A3003 RMK AO2  SLP165 T02670217,,,,,,,,,,SW,28.65,,scattered,,,,21.71,99066.33,101575.21
KMKE,09/05/2018 13:55 UTC,101693.2,27,,74.19,6.17,230,,,,,,,,,,,,406,806,,,10,,METAR KMKE 051355Z AUTO 23012KT 10SM FEW040 FEW080 27/22 A3003,,,,,,,,,,SW,29.21,,thin scattered,,,,22.01,99066.33,101572.67
KMKE,09/05/2018 14:00 UTC,101727.07,27,,74.19,6.17,230,,,,,,,,,,,,406,806,,,10,,METAR KMKE 051400Z AUTO 23012KT 10SM FEW040 FEW080 27/22 A3004,,,,,,,,,,SW,29.21,,thin scattered,,,,22.01,99099.32,101606.49
KMKE,09/05/2018 14:05 UTC,101693.2,27,,74.19,4.63,230,,,,,,,,,,,,406,806,,,10,,METAR KMKE 051405Z AUTO 23009KT 10SM FEW040 FEW080 27/22 A3003,,,,,,,,,,SW,29.21,,thin scattered,,,,22.01,99066.33,101572.67
KMKE,09/05/2018 14:10 UTC,101727.07,27,,74.19,7.2,230,,,,,,,,,,,,406,806,,,10,,METAR KMKE 051410Z AUTO 23014KT 10SM FEW040 FEW080 27/22 A3004,,,,,,,,,,SW,29.21,,thin scattered,,,,22.01,99099.32,101606.49
KMKE,09/05/2018 14:15 UTC,101727.07,28,,69.98,5.66,230,,,,,,,,,,,,406,806,,,10,,METAR KMKE 051415Z AUTO 23011KT 10SM FEW040 FEW080 28/22 A3004,,,,,,,,,,SW,30.66,,thin scattered,,,,22.01,99099.32,101598.08
KMKE,09/05/2018 14:20 UTC,101727.07,28,,69.98,6.69,230,,,,,,,,,,,,406,806,,,10,,METAR KMKE 051420Z AUTO 23013KT 10SM FEW040 FEW080 28/22 A3004,,,,,,,,,,SW,30.66,,thin scattered,,,,22.01,99099.32,101598.08
KMKE,09/05/2018 14:25 UTC,101727.07,28,,69.98,7.72,230,,,,,,,,,,,,406,806,,,10,,METAR KMKE 051425Z AUTO 23015KT 10SM FEW040 FEW080 28/22 A3004,,,,,,,,,,SW,30.66,,thin scattered,,,,22.01,99099.32,101598.08
KMKE,09/05/2018 14:30 UTC,101727.07,28,,69.98,7.2,230,10.8,,,,,,,,,,,406,806,,,10,,METAR KMKE 051430Z AUTO 23014G21KT 10SM FEW040 FEW080 28/22 A3004,,,,,,,,,,SW,30.66,,thin scattered,,,,22.01,99099.32,101598.08
KMKE,09/05/2018 14:35 UTC,101727.07,28,,69.98,7.72,220,10.8,,,,,,,,,,,406,806,,,10,,METAR KMKE 051435Z AUTO 22015G21KT 10SM FEW040 FEW080 28/22 A3004,,,,,,,,,,SW,30.66,,thin scattered,,,,22.01,99099.32,101598.08
KMKE,09/05/2018 14:40 UTC,101727.07,28,,69.98,7.2,220,10.29,,,,,,,,,,,406,806,,,10,,METAR KMKE 051440Z AUTO 22014G20KT 10SM FEW040 FEW080 28/22 A3004,,,,,,,,,,SW,30.66,,thin scattered,,,,22.01,99099.32,101598.08
KMKE,09/05/2018 14:45 UTC,101727.07,28,,69.98,7.72,220,,,,,,,,,,,,406,806,,,10,,METAR KMKE 051445Z AUTO 22015KT 10SM FEW040 FEW080 28/22 A3004,,,,,,,,,,SW,30.66,,thin scattered,,,,22.01,99099.32,101598.08
KMKE,09/05/2018 14:50 UTC,101727.07,28,,69.98,7.72,220,11.32,,,,,,,,,,,276,606,,,10,,METAR KMKE 051450Z AUTO 22015G22KT 10SM FEW027 FEW060 28/22 A3004,,,,,,,,,,SW,30.66,,thin scattered,,,,22.01,99099.32,101598.08
KMKE,09/05/2018 14:52 UTC,101727.07,28.3,22.2,69.61,7.2,230,11.83,,101660,,1502,,,,1003,,,276,606,,,10,,KMKE 051452Z 23014G23KT 10SM FEW027 FEW060 SCT150 SCT250 28/22  A3004 RMK AO2 SLP166 T02830222 51003,,,,,,,,,,SW,31.2,,scattered,,,,22.21,99099.32,101595.57
KMKE,09/05/2018 14:55 UTC,101727.07,28,,69.98,7.2,230,9.77,,,,,,,,,,,276,606,,,10,,METAR KMKE 051455Z AUTO 23014G19KT 10SM FEW027 FEW060 28/22 A3004,,,,,,,,,,SW,30.66,,thin scattered,,,,22.01,99099.32,101598.08
KMKE,09/05/2018 15:00 UTC,101727.07,28,,69.98,7.72,240,,,,,,,,,,,,276,606,,,10,,METAR KMKE 051500Z AUTO 24015KT 10SM FEW027 FEW060 28/22 A3004,,,,,,,,,,WSW,30.66,,thin scattered,,,,22.01,99099.32,101598.08
KMKE,09/05/2018 15:05 UTC,101727.07,28,,69.98,6.69,240,9.26,,,,,,,,,,,276,606,,,10,,METAR KMKE 051505Z AUTO 24013G18KT 10SM FEW027 FEW060 28/22 A3004,,,,,,,,,,WSW,30.66,,thin scattered,,,,22.01,99099.32,101598.08
KMKE,09/05/2018 15:10 UTC,101760.93,28,,69.98,8.23,230,11.83,,,,,,,,,,,276,606,,,10,,METAR KMKE 051510Z AUTO 23016G23KT 10SM FEW027 FEW060 28/22 A3005,,,,,,,,,,SW,30.66,,thin scattered,,,,22.01,99132.31,101631.9
KMKE,09/05/2018 15:15 UTC,101727.07,28,,69.98,8.23,240,,,,,,,,,,,,276,606,,,10,,METAR KMKE 051515Z AUTO 24016KT 10SM FEW027 FEW060 28/22 A3004,,,,,,,,,,WSW,30.66,,thin scattered,,,,22.01,99099.32,101598.08
KMKE,09/05/2018 15:20 UTC,101727.07,28,,69.98,7.72,230,,,,,,,,,,,,276,606,,,10,,METAR KMKE 051520Z AUTO 23015KT 10SM FEW027 FEW060 28/22 A3004,,,,,,,,,,SW,30.66,,thin scattered,,,,22.01,99099.32,101598.08
KMKE,09/05/2018 15:25 UTC,101727.07,29,,66.04,7.72,240,10.8,,,,,,,,,,,276,606,,,10,,METAR KMKE 051525Z AUTO 24015G21KT 10SM FEW027 FEW060 29/22 A3004,,,,,,,,,,WSW,32.02,,thin scattered,,,,22.02,99099.32,101589.73
KMKE,09/05/2018 15:30 UTC,101760.93,28,,69.98,7.72,230,11.32,,,,,,,,,,,276,606,,,10,,METAR KMKE 051530Z AUTO 23015G22KT 10SM FEW027 FEW060 28/22 A3005,,,,,,,,,,SW,30.66,,thin scattered,,,,22.01,99132.31,101631.9
KMKE,09/05/2018 15:35 UTC,101760.93,29,,66.04,6.17,240,,,,,,,,,,,,276,606,,,10,,METAR KMKE 051535Z AUTO 24012KT 10SM FEW027 FEW060 29/22 A3005,,,,,,,,,,WSW,32.02,,thin scattered,,,,22.02,99132.31,101623.55
KMKE,09/05/2018 15:40 UTC,101760.93,29,,66.04,7.72,240,,,,,,,,,,,,276,606,,,10,,METAR KMKE 051540Z AUTO 24015KT 10SM FEW027 FEW060 29/22 A3005,,,,,,,,,,WSW,32.02,,thin scattered,,,,22.02,99132.31,101623.55
KMKE,09/05/2018 15:45 UTC,101760.93,29,,66.04,6.69,250,9.26,,,,,,,,,,,296,606,,,10,,METAR KMKE 051545Z AUTO 25013G18KT 10SM FEW029 FEW060 29/22 A3005,,,,,,,,,,WSW,32.02,,thin scattered,,,,22.02,99132.31,101623.55
KMKE,09/05/2018 15:50 UTC,101760.93,29,,66.04,6.69,230,,,,,,,,,,,,296,602,,,10,,METAR KMKE 051550Z AUTO 23013KT 10SM FEW029 SCT060 29/22 A3005,,,,,,,,,,SW,32.02,,scattered,,,,22.02,99132.31,101623.55
KMKE,09/05/2018 15:52 UTC,101760.93,29.4,22.2,65.33,6.69,240,11.83,,101690,,2502,,,,,,,296,602,,,10,,KMKE 051552Z 24013G23KT 10SM FEW029 SCT060 SCT250 29/22 A3005 RMK AO2 SLP169 T02940222,,,,,,,,,,WSW,32.69,,scattered,,,,22.22,99132.31,101620.22
KMKE,09/05/2018 15:55 UTC,101760.93,29,,66.04,7.2,230,,,,,,,,,,,,296,,,,10,,METAR KMKE 051555Z AUTO 23014KT 10SM FEW029 29/22 A3005,,,,,,,,,,SW,32.02,,thin scattered,,,,22.02,99132.31,101623.55
KMKE,09/05/2018 16:00 UTC,101760.93,29,,66.04,7.72,230,,,,,,,,,,,,296,,,,10,,METAR KMKE 051600Z AUTO 23015KT 10SM FEW029 29/22 A3005,,,,,,,,,,SW,32.02,,thin scattered,,,,22.02,99132.31,101623.55