Station_ID,time,altimeter_set_1,air_temp,dew_point_temp,relative_humidity_set_1,wind_speed,wind_direction,wind_gust_set_1,snow_depth_set_1,sea_level_pressure_set_1,weather_cond_code_set_1,cloud_layer_3_code_set_1,cloud_low_symbol_set_1,cloud_mid_symbol_set_1,cloud_high_symbol_set_1,pressure_tendency_set_1,precip_accum_one_hour_set_1,precip_accum_three_hour_set_1,cloud_layer_1_code_set_1,cloud_layer_2_code_set_1,precip_accum_six_hour_set_1,precip_accum_24_hour_set_1,visibility_set_1,metar_remark_set_1,metar_set_1,air_temp_high_6_hour_set_1,air_temp_low_6_hour_set_1,peak_wind_speed_set_1,ceiling_set_1,pressure_change_code_set_1,air_temp_high_24_hour_set_1,air_temp_low_24_hour_set_1,peak_wind_direction_set_1,wind_chill_set_1d,wind_cardinal_direction_set_1d,heat_index_set_1d,weather_condition_set_1d,weather_summary_set_1d,cloud_layer_1_set_1d,cloud_layer_2_set_1d,cloud_layer_3_set_1d,dew_point_temperature_set_1d,pressure,sea_level_pressure_set_1d
KMKE,07/19/2019 20:00 UTC,100880.47,33,,63.02,6.17,220,,,,,,,,,,,,263,503,,,10,,METAR KMKE 192000Z AUTO 22012KT 10SM BKN026 BKN050 33/25 A2979,,,,792.48,,,,,,SW,40.64,,broken,,,,25.05,98274.59,100711.61
KMKE,07/19/2019 20:05 UTC,100880.47,33,,63.02,4.12,210,,,,,,,,,,,,263,503,,,10,,METAR KMKE 192005Z AUTO 21008KT 10SM BKN026 BKN050 33/25 A2979,,,,792.48,,,,,,SSW,40.64,,broken,,,,25.05,98274.59,100711.61
KMKE,07/19/2019 20:10 UTC,100880.47,33,,66.86,5.14,220,,,,,,,,,,,,263,503,,,10,,METAR KMKE 192010Z AUTO 22010KT 10SM BKN026 BKN050 33/26 A2979,,,,792.48,,,,,,SW,42.15,,broken,,,,26.05,98274.59,100711.59
KMKE,07/19/2019 20:15 UTC,100880.47,33,,66.86,5.66,200,,,,,,,,,,,,263,503,,,10,,METAR KMKE 192015Z AUTO 20011KT 10SM BKN026 BKN050 33/26 A2979,,,,792.48,,,,,,SSW,42.15,,broken,,,,26.05,98274.59,100711.59
KMKE,07/19/2019 20:20 UTC,100880.47,33,,66.86,6.17,230,,,,,,,,,,,,263,503,,,10,,METAR KMKE 192020Z AUTO 23012KT 10SM BKN026 BKN050 33/26 A2979,,,,792.48,,,,,,SW,42.15,,broken,,,,26.05,98274.59,100711.59
KMKE,07/19/2019 20:25 UTC,100880.47,33,,63.02,5.14,220,,,,,,,,,,,,273,363,,,10,,METAR KMKE 192025Z AUTO 22010KT 10SM BKN027 BKN036 33/25 A2979,,,,822.96,,,,,,SW,40.64,,broken,,,,25.05,98274.59,100711.61
KMKE,07/19/2019 20:30 UTC,100880.47,33,,66.86,6.17,210,,,,,,,,,,,,273,363,,,10,,METAR KMKE 192030Z AUTO 21012KT 10SM BKN027 BKN036 33/26 A2979,,,,822.96,,,,,,SSW,42.15,,broken,,,,26.05,98274.59,100711.59
KMKE,07/19/2019 20:35 UTC,100880.47,33,,66.86,5.14,200,7.72,,,,,,,,,,,273,363,,,10,,METAR KMKE 192035Z AUTO 20010G15KT 10SM BKN027 BKN036 33/26 A2979,,,,822.96,,,,,,SSW,42.15,,broken,,,,26.05,98274.59,100711.59
KMKE,07/19/2019 20:40 UTC,100880.47,33,,63.02,5.66,210,,,,,,,,,,,,273,363,,,10,,METAR KMKE 192040Z AUTO 21011KT 10SM BKN027 BKN036 33/25 A2979,,,,822.96,,,,,,SSW,40.64,,broken,,,,25.05,98274.59,100711.61
KMKE,07/19/2019 20:45 UTC,100880.47,33,,66.86,4.12,230,,,,,,,,,,,,273,363,,,10,,METAR KMKE 192045Z AUTO 23008KT 10SM BKN027 BKN036 33/26 A2979,,,,822.96,,,,,,SW,42.15,,broken,,,,26.05,98274.59,100711.59
KMKE,07/19/2019 20:50 UTC,100880.47,33,,63.02,5.14,220,8.23,,,,,,,,,,,282,403,,,10,,METAR KMKE 192050Z AUTO 22010G16KT 10SM SCT028 BKN040 33/25 A2979,,,,1219.2,,,,,,SW,40.64,,broken,,,,25.05,98274.59,100711.61
KMKE,07/19/2019 20:52 UTC,100880.47,33.3,25,61.97,7.2,210,9.26,,100790,,2503,,,,8007,,,282,403,,,10,,KMKE 192052Z 21014G18KT 10SM SCT028 BKN040 BKN250 33/25 A2979 RMK AO2 SLP079 T03330250 58007,,,,1219.2,,,,,,SSW,41.05,,broken,,,,25.06,98274.59,100709.2
KMKE,07/19/2019 20:55 UTC,100846.6,33,,63.02,5.14,220,,,,,,,,,,,,282,403,,,10,,METAR KMKE 192055Z AUTO 22010KT 10SM SCT028 BKN040 33/25 A2978,,,,1219.2,,,,,,SW,40.64,,broken,,,,25.05,98241.6,100677.81
KMKE,07/19/2019 21:00 UTC,100880.47,33,,63.02,6.17,240,,,,,,,,,,,,282,403,,,10,,METAR KMKE 192100Z AUTO 24012KT 10SM SCT028 BKN040 33/25 A2979,,,,1219.2,,,,,,WSW,40.64,,broken,,,,25.05,98274.59,100711.61
KMKE,07/19/2019 21:05 UTC,100846.6,33,,63.02,5.66,240,,,,,,,,,,,,282,403,,,10,,METAR KMKE 192105Z AUTO 24011KT 10SM SCT028 BKN040 33/25 A2978,,,,1219.2,,,,,,WSW,40.64,,broken,,,,25.05,98241.6,100677.81
KMKE,07/19/2019 21:10 UTC,100846.6,33,,63.02,6.69,210,,,,,,,,,,,,282,403,,,10,,METAR KMKE 192110Z AUTO 21013KT 10SM SCT028 BKN040 33/25 A2978,,,,1219.2,,,,,,SSW,40.64,,broken,,,,25.05,98241.6,100677.81
KMKE,07/19/2019 21:15 UTC,100846.6,33,,63.02,6.69,210,,,,,,,,,,,,282,403,,,10,,METAR KMKE 192115Z AUTO 21013KT 10SM SCT028 BKN040 33/25 A2978,,,,1219.2,,,,,,SSW,40.64,,broken,,,,25.05,98241.6,100677.81
KMKE,07/19/2019 21:20 UTC,100846.6,33,,63.02,7.2,220,,,,,,,,,,,,306,403,,,10,,METAR KMKE 192120Z AUTO 22014KT 10SM FEW030 BKN040 33/25 A2978,,,,1219.2,,,,,,SW,40.64,,broken,,,,25.05,98241.6,100677.81
KMKE,07/19/2019 21:25 UTC,100812.74,33,,63.02,6.69,210,9.26,,,,,,,,,,,306,403,,,10,,METAR KMKE 192125Z AUTO 21013G18KT 10SM FEW030 BKN040 33/25 A2977,,,,1219.2,,,,,,SSW,40.64,,broken,,,,25.05,98208.61,100644
KMKE,07/19/2019 21:30 UTC,100846.6,34,,59.59,6.17,220,,,,,,,,,,,,306,403,,,10,,METAR KMKE 192130Z AUTO 22012KT 10SM FEW030 BKN040 34/25 A2978,,,,1219.2,,,,,,SW,42.01,,broken,,,,25.06,98241.6,100669.8
KMKE,07/19/2019 21:35 UTC,100846.6,33,,63.02,5.66,210,,,,,,,,,,,,306,403,,,10,,METAR KMKE 192135Z AUTO 21011KT 10SM FEW030 BKN040 33/25 A2978,,,,1219.2,,,,,,SSW,40.64,,broken,,,,25.05,98241.6,100677.81
KMKE,07/19/2019 21:40 UTC,100846.6,33,,63.02,5.66,230,,,,,,,,,,,,306,403,,,10,,METAR KMKE 192140Z AUTO 23011KT 10SM FEW030 BKN040 33/25 A2978,,,,1219.2,,,,,,SW,40.64,,broken,,,,25.05,98241.6,100677.81
KMKE,07/19/2019 21:45 UTC,100846.6,33,,63.02,6.17,220,,,,,,,,,,,,306,403,,,10,,METAR KMKE 192145Z AUTO 22012KT 10SM FEW030 BKN040 33/25 A2978,,,,1219.2,,,,,,SW,40.64,,broken,,,,25.05,98241.6,100677.81
KMKE,07/19/2019 21:50 UTC,100846.6,33,,63.02,6.17,220,10.8,,,,,,,,,,,306,402,,,10,,METAR KMKE 192150Z AUTO 22012G21KT 10SM FEW030 SCT040 33/25 A2978,,,,,,,,,,SW,40.64,,scattered,,,,25.05,98241.6,100677.81
KMKE,07/19/2019 21:52 UTC,100846.6,33.9,25,59.93,7.2,220,11.32,,100760,,,,,,,,,306,402,,,10,,KMKE 192152Z 22014G22KT 10SM FEW030 SCT040 34/25 A2978 RMK AO2  SLP076 T03390250,,,,,,,,,,SW,41.87,,scattered,,,,25.07,98241.6,100670.59
KMKE,07/19/2019 21:55 UTC,100846.6,34,,59.59,6.69,220,,,,,,,,,,,,306,402,,,10,,METAR KMKE 192155Z AUTO 22013KT 10SM FEW030 SCT040 34/25 A2978,,,,,,,,,,SW,42.01,,scattered,,,,25.06,98241.6,100669.8
KMKE,07/19/2019 22:00 UTC,100812.74,33,,63.02,6.17,220,,,,,,,,,,,,306,402,,,10,,METAR KMKE 192200Z AUTO 22012KT 10SM FEW030 SCT040 33/25 A2977,,,,,,,,,,SW,40.64,,scattered,,,,25.05,98208.61,100644
KMKE,07/19/2019 22:05 UTC,100846.6,33,,63.02,6.17,220,,,,,,,,,,,,306,402,,,10,,METAR KMKE 192205Z AUTO 22012KT 10SM FEW030 SCT040 33/25 A2978,,,,,,,,,,SW,40.64,,scattered,,,,25.05,98241.6,100677.81
KMKE,07/19/2019 22:10 UTC,100846.6,33,,63.02,6.17,220,9.26,,,,,,,,,,,306,402,,,10,,METAR KMKE 192210Z AUTO 22012G18KT 10SM FEW030 SCT040 33/25 A2978,,,,,,,,,,SW,40.64,,scattered,,,,25.05,98241.6,100677.81
KMKE,07/19/2019 22:15 UTC,100812.74,33,,63.02,6.17,230,,,,,,,,,,,,326,442,,,10,,METAR KMKE 192215Z AUTO 23012KT 10SM FEW032 SCT044 33/25 A2977,,,,,,,,,,SW,40.64,,scattered,,,,25.05,98208.61,100644
KMKE,07/19/2019 22:20 UTC,100812.74,33,,63.02,7.72,220,,,,,,,,,,,,326,442,,,10,,METAR KMKE 192220Z AUTO 22015KT 10SM FEW032 SCT044 33/25 A2977,,,,,,,,,,SW,40.64,,scattered,,,,25.05,98208.61,100644
KMKE,07/19/2019 22:25 UTC,100812.74,34,,59.59,6.69,220,9.26,,,,,,,,,,,326,442,,,10,,METAR KMKE 192225Z AUTO 22013G18KT 10SM FEW032 SCT044 34/25 A2977,,,,,,,,,,SW,42.01,,scattered,,,,25.06,98208.61,100635.99
KMKE,07/19/2019 22:30 UTC,100812.74,34,,59.59,6.17,230,,,,,,,,,,,,326,442,,,10,,METAR KMKE 192230Z AUTO 23012KT 10SM FEW032 SCT044 34/25 A2977,,,,,,,,,,SW,42.01,,scattered,,,,25.06,98208.61,100635.99
KMKE,07/19/2019 22:35 UTC,100812.74,33,,63.02,7.2,210,,,,,,,,,,,,326,442,,,10,,METAR KMKE 192235Z AUTO 21014KT 10SM FEW032 SCT044 33/25 A2977,,,,,,,,,,SSW,40.64,,scattered,,,,25.05,98208.61,100644
KMKE,07/19/2019 22:40 UTC,100812.74,33,,63.02,6.17,220,,,,,,,,,,,,326,442,,,10,,METAR KMKE 192240Z AUTO 22012KT 10SM FEW032 SCT044 33/25 A2977,,,,,,,,,,SW,40.64,,scattered,,,,25.05,98208.61,100644
KMKE,07/19/2019 22:45 UTC,100778.88,34,,59.59,6.69,230,9.26,,,,,,,,,,,326,442,,,10,,METAR KMKE 192245Z AUTO 23013G18KT 10SM FEW032 SCT044 34/25 A2976,,,,,,,,,,SW,42.01,,scattered,,,,25.06,98175.63,100602.2
KMKE,07/19/2019 22:50 UTC,100778.88,33,,63.02,6.17,210,8.75,,,,,,,,,,,326,412,,,10,,METAR KMKE 192250Z AUTO 21012G17KT 10SM FEW032 SCT041 33/25 A2976,,,,,,,,,,SSW,40.64,,scattered,,,,25.05,98175.63,100610.2
KMKE,07/19/2019 22:52 UTC,100778.88,33.3,25,61.97,7.72,210,9.26,,100690,,,,,,,,,326,412,,,10,,KMKE 192252Z 21015G18KT 10SM FEW032 SCT041 33/25 A2976 RMK AO2  SLP069 T03330250,,,,,,,,,,SSW,41.05,,scattered,,,,25.06,98175.63,100607.79
KMKE,07/19/2019 22:55 UTC,100778.88,33,,63.02,6.69,210,,,,,,,,,,,,326,412,,,10,,METAR KMKE 192255Z AUTO 21013KT 10SM FEW032 SCT041 33/25 A2976,,,,,,,,,,SSW,40.64,,scattered,,,,25.05,98175.63,100610.2
KMKE,07/19/2019 23:00 UTC,100778.88,33,,63.02,4.63,230,,,,,,,,,,,,326,412,,,10,,METAR KMKE 192300Z AUTO 23009KT 10SM FEW032 SCT041 33/25 A2976,,,,,,,,,,SW,40.64,,scattered,,,,25.05,98175.63,100610.2
KMKE,07/19/2019 23:05 UTC,100778.88,33,,63.02,4.63,220,,,,,,,,,,,,326,412,,,10,,METAR KMKE 192305Z AUTO 22009KT 10SM FEW032 SCT041 33/25 A2976,,,,,,,,,,SW,40.64,,scattered,,,,25.05,98175.63,100610.2
KMKE,07/19/2019 23:10 UTC,100745.01,33,,63.02,4.63,220,,,,,,,,,,,,326,412,,,10,,METAR KMKE 192310Z AUTO 22009KT 10SM FEW032 SCT041 33/25 A2975,,,,,,,,,,SW,40.64,,scattered,,,,25.05,98142.63,100576.38
KMKE,07/19/2019 23:15 UTC,100778.88,33,,63.02,5.14,220,,,,,,,,,,,,326,412,,,10,,METAR KMKE 192315Z AUTO 22010KT 10SM FEW032 SCT041 33/25 A2976,,,,,,,,,,SW,40.64,,scattered,,,,25.05,98175.63,100610.2
KMKE,07/19/2019 23:20 UTC,100778.88,33,,63.02,5.14,220,,,,,,,,,,,,326,412,,,10,,METAR KMKE 192320Z AUTO 22010KT 10SM FEW032 SCT041 33/25 A2976,,,,,,,,,,SW,40.64,,scattered,,,,25.05,98175.63,100610.2
KMKE,07/19/2019 23:25 UTC,100745.01,33,,63.02,4.63,220,,,,,,,,,,,,326,412,,,10,,METAR KMKE 192325Z AUTO 22009KT 10SM FEW032 SCT041 33/25 A2975,,,,,,,,,,SW,40.64,,scattered,,,,25.05,98142.63,100576.38
KMKE,07/19/2019 23:30 UTC,100745.01,33,,63.02,5.66,220,,,,,,,,,,,,326,412,,,10,,METAR KMKE 192330Z AUTO 22011KT 10SM FEW032 SCT041 33/25 A2975,,,,,,,,,,SW,40.64,,scattered,,,,25.05,98142.63,100576.38
KMKE,07/19/2019 23:35 UTC,100745.01,33,,63.02,5.66,220,,,,,,,,,,,,352,,,,10,,METAR KMKE 192335Z AUTO 22011KT 10SM SCT035 33/25 A2975,,,,,,,,,,SW,40.64,,scattered,,,,25.05,98142.63,100576.38
KMKE,07/19/2019 23:40 UTC,100711.15,33,,63.02,5.66,220,,,,,,,,,,,,352,,,,10,,METAR KMKE 192340Z AUTO 22011KT 10SM SCT035 33/25 A2974,,,,,,,,,,SW,40.64,,scattered,,,,25.05,98109.65,100542.58
KMKE,07/19/2019 23:45 UTC,100745.01,33,,63.02,4.12,230,,,,,,,,,,,,352,,,,10,,METAR KMKE 192345Z AUTO 23008KT 10SM SCT035 33/25 A2975,,,,,,,,,,SW,40.64,,scattered,,,,25.05,98142.63,100576.38
KMKE,07/19/2019 23:50 UTC,100711.15,33,,63.02,5.14,230,,,,,,,,,,,,316,392,,,10,,METAR KMKE 192350Z AUTO 23010KT 10SM FEW031 SCT039 33/25 A2974,,,,,,,,,,SW,40.64,,scattered,,,,25.05,98109.65,100542.58
KMKE,07/19/2019 23:52 UTC,100711.15,33.3,25,61.97,6.17,220,,,100630,,,,,,8016,,,316,392,,,10,,KMKE 192352Z 22012KT 10SM FEW031 SCT039 33/25 A2974 RMK AO2 SLP063  T03330250 10339 20311 58016,33.9,31.1,,,,,,,,SW,41.05,,scattered,,,,25.06,98109.65,100540.18
KMKE,07/19/2019 23:55 UTC,100711.15,33,,63.02,5.66,220,,,,,,,,,,,,316,392,,,10,,METAR KMKE 192355Z AUTO 22011KT 10SM FEW031 SCT039 33/25 A2974,,,,,,,,,,SW,40.64,,scattered,,,,25.05,98109.65,100542.58
KMKE,07/20/2019 00:00 UTC,100711.15,33,,63.02,5.66,210,,,,,,,,,,,,316,392,,,10,,METAR KMKE 200000Z AUTO 21011KT 10SM FEW031 SCT039 33/25 A2974,,,,,,,,,,SSW,40.64,,scattered,,,,25.05,98109.65,100542.58
KMKE,07/20/2019 00:05 UTC,100711.15,33,,63.02,5.14,220,,,,,,,,,,,,316,392,,,10,,METAR KMKE 200005Z AUTO 22010KT 10SM FEW031 SCT039 33/25 A2974,,,,,,,,,,SW,40.64,,scattered,,,,25.05,98109.65,100542.58
KMKE,07/20/2019 00:10 UTC,100711.15,33,,63.02,4.12,220,,,,,,,,,,,,316,392,,,10,,METAR KMKE 200010Z AUTO 22008KT 10SM FEW031 SCT039 33/25 A2974,,,,,,,,,,SW,40.64,,scattered,,,,25.05,98109.65,100542.58
KMKE,07/20/2019 00:15 UTC,100711.15,33,,63.02,5.66,230,,,,,,,,,,,,316,392,,,10,,METAR KMKE 200015Z AUTO 23011KT 10SM FEW031 SCT039 33/25 A2974,,,,,,,,,,SW,40.64,,scattered,,,,25.05,98109.65,100542.58
KMKE,07/20/2019 00:20 UTC,100745.01,33,,63.02,5.14,220,,,,,,,,,,,,316,392,,,10,,METAR KMKE 200020Z AUTO 22010KT 10SM FEW031 SCT039 33/25 A2975,,,,,,,,,,SW,40.64,,scattered,,,,25.05,98142.63,100576.38
KMKE,07/20/2019 00:25 UTC,100745.01,33,,63.02,4.63,230,,,,,,,,,,,,356,,,,10,,METAR KMKE 200025Z AUTO 23009KT 10SM FEW035 33/25 A2975,,,,,,,,,,SW,40.64,,thin scattered,,,,25.05,98142.63,100576.38
KMKE,07/20/2019 00:30 UTC,100745.01,33,,66.86,3.6,220,,,,,,,,,,,,356,,,,10,,METAR KMKE 200030Z AUTO 22007KT 10SM FEW035 33/26 A2975,,,,,,,,,,SW,42.15,,thin scattered,,,,26.05,98142.63,100576.36
KMKE,07/20/2019 00:35 UTC,100745.01,32,,70.73,4.12,220,,,,,,,,,,,,356,,,,10,,METAR KMKE 200035Z AUTO 22008KT 10SM FEW035 32/26 A2975,,,,,,,,,,SW,40.68,,thin scattered,,,,26.04,98142.63,100584.41
KMKE,07/20/2019 00:40 UTC,100745.01,32,,70.73,4.12,220,,,,,,,,,,,,356,,,,10,,METAR KMKE 200040Z AUTO 22008KT 10SM FEW035 32/26 A2975,,,,,,,,,,SW,40.68,,thin scattered,,,,26.04,98142.63,100584.41
KMKE,07/20/2019 00:45 UTC,100778.88,32,,70.73,4.12,220,,,,,,,,,,,,356,,,,10,,METAR KMKE 200045Z AUTO 22008KT 10SM FEW035 32/26 A2976,,,,,,,,,,SW,40.68,,thin scattered,,,,26.04,98175.63,100618.23
KMKE,07/20/2019 00:50 UTC,100778.88,32,,70.73,4.63,210,,,,,,,,,,,,356,,,,10,,METAR KMKE 200050Z AUTO 21009KT 10SM FEW035 32/26 A2976,,,,,,,,,,SSW,40.68,,thin scattered,,,,26.04,98175.63,100618.23
KMKE,07/20/2019 00:52 UTC,100778.88,32.2,25.6,68.3,4.12,220,,,100700,,,,,,,,,356,2506,,,10,,KMKE 200052Z 22008KT 10SM FEW035 FEW250 32/26 A2976 RMK AO2 SLP070  T03220256,,,,,,,,,,SW,40.37,,thin scattered,,,,25.64,98175.63,100616.63
KMKE,07/20/2019 00:55 UTC,100778.88,32,,70.73,4.63,210,,,,,,,,,,,,356,,,,10,,METAR KMKE 200055Z AUTO 21009KT 10SM FEW035 32/26 A2976,,,,,,,,,,SSW,40.68,,thin scattered,,,,26.04,98175.63,100618.23
KMKE,07/20/2019 01:00 UTC,100778.88,32,,70.73,3.09,210,,,,,,,,,,,,356,,,,10,,METAR KMKE 200100Z AUTO 21006KT 10SM FEW035 32/26 A2976,,,,,,,,,,SSW,40.68,,thin scattered,,,,26.04,98175.63,100618.23
KMKE,07/20/2019 01:05 UTC,100778.88,32,,70.73,4.63,210,,,,,,,,,,,,356,,,,10,,METAR KMKE 200105Z AUTO 21009KT 10SM FEW035 32/26 A2976,,,,,,,,,,SSW,40.68,,thin scattered,,,,26.04,98175.63,100618.23
KMKE,07/20/2019 01:10 UTC,100812.74,32,,70.73,3.09,210,,,,,,,,,,,,356,,,,10,,METAR KMKE 200110Z AUTO 21006KT 10SM FEW035 32/26 A2977,,,,,,,,,,SSW,40.68,,thin scattered,,,,26.04,98208.61,100652.03
KMKE,07/20/2019 01:15 UTC,100812.74,32,,70.73,3.6,190,,,,,,,,,,,,356,,,,10,,METAR KMKE 200115Z AUTO 19007KT 10SM FEW035 32/26 A2977,,,,,,,,,,S,40.68,,thin scattered,,,,26.04,98208.61,100652.03
KMKE,07/20/2019 01:20 UTC,100778.88,32,,70.73,3.6,190,,,,,,,,,,,,356,,,,10,,METAR KMKE 200120Z AUTO 19007KT 10SM FEW035 32/26 A2976,,,,,,,,,,S,40.68,,thin scattered,,,,26.04,98175.63,100618.23
KMKE,07/20/2019 01:25 UTC,100778.88,32,,70.73,3.6,190,,,,,,,,,,,,356,,,,10,,METAR KMKE 200125Z AUTO 19007KT 10SM FEW035 32/26 A2976,,,,,,,,,,S,40.68,,thin scattered,,,,26.04,98175.63,100618.23
KMKE,07/20/2019 01:30 UTC,100778.88,32,,70.73,3.09,190,,,,,,,,,,,,356,,,,10,,METAR KMKE 200130Z AUTO 19006KT 10SM FEW035 32/26 A2976,,,,,,,,,,S,40.68,,thin scattered,,,,26.04,98175.63,100618.23
KMKE,07/20/2019 01:35 UTC,100778.88,32,,70.73,3.09,190,,,,,,,,,,,,1,,,,10,,METAR KMKE 200135Z AUTO 19006KT 10SM CLR 32/26 A2976,,,,,,,,,,S,40.68,,clear,,,,26.04,98175.63,100618.23
KMKE,07/20/2019 01:40 UTC,100778.88,32,,70.73,3.6,190,,,,,,,,,,,,1,,,,10,,METAR KMKE 200140Z AUTO 19007KT 10SM CLR 32/26 A2976,,,,,,,,,,S,40.68,,clear,,,,26.04,98175.63,100618.23
KMKE,07/20/2019 01:45 UTC,100778.88,31,,74.85,3.6,180,,,,,,,,,,,,1,,,,10,,METAR KMKE 200145Z AUTO 18007KT 10SM CLR 31/26 A2976,,,,,,,,,,S,39.12,,clear,,,,26.02,98175.63,100626.34
KMKE,07/20/2019 01:50 UTC,100778.88,32,,70.73,4.63,180,,,,,,,,,,,,,,,,10,,METAR KMKE 200150Z AUTO 18009KT 10SM 32/26 A2976,,,,,,,,,,S,40.68,,,,,,26.04,98175.63,100618.23
KMKE,07/20/2019 01:52 UTC,100745.01,31.7,25.6,70.26,5.14,190,,,100680,,,,,,,,,2502,,,,10,,KMKE 200152Z 19010KT 10SM SCT250 32/26 A2975 RMK AO2 SLP068  T03170256,,,,,,,,,,S,39.63,,scattered,,,,25.63,98142.63,100586.85
KMKE,07/20/2019 01:55 UTC,100745.01,32,,70.73,5.14,180,,,,,,,,,,,,1,,,,10,,METAR KMKE 200155Z AUTO 18010KT 10SM CLR 32/26 A2975,,,,,,,,,,S,40.68,,clear,,,,26.04,98142.63,100584.41
KMKE,07/20/2019 02:00 UTC,100778.88,31,,74.85,4.63,190,,,,,,,,,,,,1,,,,10,,METAR KMKE 200200Z AUTO 19009KT 10SM CLR 31/26 A2976,,,,,,,,,,S,39.12,,clear,,,,26.02,98175.63,100626.34
KMKE,07/20/2019 02:05 UTC,100778.88,31,,74.85,4.12,190,,,,,,,,,,,,1,,,,10,,METAR KMKE 200205Z AUTO 19008KT 10SM CLR 31/26 A2976,,,,,,,,,,S,39.12,,clear,,,,26.02,98175.63,100626.34
KMKE,07/20/2019 02:10 UTC,100778.88,31,,74.85,4.63,190,,,,,,,,,,,,1,,,,10,,METAR KMKE 200210Z AUTO 19009KT 10SM CLR 31/26 A2976,,,,,,,,,,S,39.12,,clear,,,,26.02,98175.63,100626.34
KMKE,07/20/2019 02:15 UTC,100812.74,31,,74.85,4.63,190,,,,,,,,,,,,1,,,,10,,METAR KMKE 200215Z AUTO 19009KT 10SM CLR 31/26 A2977,,,,,,,,,,S,39.12,,clear,,,,26.02,98208.61,100660.15
KMKE,07/20/2019 02:20 UTC,100812.74,31,,74.85,3.6,190,,,,,,,,,,,,1,,,,10,,METAR KMKE 200220Z AUTO 19007KT 10SM CLR 31/26 A2977,,,,,,,,,,S,39.12,,clear,,,,26.02,98208.61,100660.15
KMKE,07/20/2019 02:25 UTC,100880.47,31,,74.85,3.6,190,,,,,,,,,,,,1,,,,10,,METAR KMKE 200225Z AUTO 19007KT 10SM CLR 31/26 A2979,,,,,,,,,,S,39.12,,clear,,,,26.02,98274.59,100727.77
KMKE,07/20/2019 02:30 UTC,100880.47,31,,74.85,3.6,190,,,,,,,,,,,,1,,,,10,,METAR KMKE 200230Z AUTO 19007KT 10SM CLR 31/26 A2979,,,,,,,,,,S,39.12,,clear,,,,26.02,98274.59,100727.77
KMKE,07/20/2019 02:35 UTC,100880.47,31,,74.85,3.6,190,,,,,,,,,,,,1,,,,10,,METAR KMKE 200235Z AUTO 19007KT 10SM CLR 31/26 A2979,,,,,,,,,,S,39.12,,clear,,,,26.02,98274.59,100727.77
KMKE,07/20/2019 02:40 UTC,100880.47,31,,74.85,3.6,190,,,,,,,,,,,,1,,,,10,,METAR KMKE 200240Z AUTO 19007KT 10SM CLR 31/26 A2979,,,,,,,,,,S,39.12,,clear,,,,26.02,98274.59,100727.77
KMKE,07/20/2019 02:45 UTC,100914.33,31,,74.85,3.6,190,,,,,,,,,,,,1,,,,10,,METAR KMKE 200245Z AUTO 19007KT 10SM CLR 31/26 A2980,,,,,,,,,,S,39.12,,clear,,,,26.02,98307.58,100761.59
KMKE,07/20/2019 02:50 UTC,100880.47,31,,74.85,4.12,190,,,,,,,,,,,,,,,,10,,METAR KMKE 200250Z AUTO 19008KT 10SM 31/26 A2979,,,,,,,,,,S,39.12,,,,,,26.02,98274.59,100727.77
KMKE,07/20/2019 02:52 UTC,100880.47,31.1,25.6,72.69,3.6,180,,,100820,,,,,,3019,,,2503,,,,10,,KMKE 200252Z 18007KT 10SM BKN250 31/26 A2979 RMK AO2 SLP082  T03110256 53019,,,,7620,,,,,,S,38.72,,broken,,,,25.63,98274.59,100726.97
KMKE,07/20/2019 02:55 UTC,100880.47,31,,74.85,4.12,180,,,,,,,,,,,,1,,,,10,,METAR KMKE 200255Z AUTO 18008KT 10SM CLR 31/26 A2979,,,,,,,,,,S,39.12,,clear,,,,26.02,98274.59,100727.77
KMKE,07/20/2019 03:00 UTC,100914.33,31,,74.85,4.12,180,,,,,,,,,,,,1,,,,10,,METAR KMKE 200300Z AUTO 18008KT 10SM CLR 31/26 A2980,,,,,,,,,,S,39.12,,clear,,,,26.02,98307.58,100761.59
KMKE,07/20/2019 03:05 UTC,100880.47,31,,74.85,4.12,190,,,,,,,,,,,,1,,,,10,,METAR KMKE 200305Z AUTO 19008KT 10SM CLR 31/26 A2979,,,,,,,,,,S,39.12,,clear,,,,26.02,98274.59,100727.77
KMKE,07/20/2019 03:10 UTC,100914.33,31,,74.85,4.12,200,,,,,,,,,,,,1,,,,10,,METAR KMKE 200310Z AUTO 20008KT 10SM CLR 31/26 A2980,,,,,,,,,,SSW,39.12,,clear,,,,26.02,98307.58,100761.59
KMKE,07/20/2019 03:15 UTC,100914.33,31,,74.85,5.66,200,,,,,,,,,,,,1,,,,10,,METAR KMKE 200315Z AUTO 20011KT 10SM CLR 31/26 A2980,,,,,,,,,,SSW,39.12,,clear,,,,26.02,98307.58,100761.59
KMKE,07/20/2019 03:20 UTC,100914.33,31,,74.85,5.66,200,,,,,,,,,,,,1,,,,10,,METAR KMKE 200320Z AUTO 20011KT 10SM CLR 31/26 A2980,,,,,,,,,,SSW,39.12,,clear,,,,26.02,98307.58,100761.59
KMKE,07/20/2019 03:25 UTC,100914.33,31,,74.85,4.63,200,,,,,,,,,,,,1,,,,10,,METAR KMKE 200325Z AUTO 20009KT 10SM CLR 31/26 A2980,,,,,,,,,,SSW,39.12,,clear,,,,26.02,98307.58,100761.59
KMKE,07/20/2019 03:30 UTC,100914.33,31,,74.85,5.66,200,,,,,,,,,,,,1,,,,10,,METAR KMKE 200330Z AUTO 20011KT 10SM CLR 31/26 A2980,,,,,,,,,,SSW,39.12,,clear,,,,26.02,98307.58,100761.59
KMKE,07/20/2019 03:35 UTC,100914.33,31,,74.85,4.12,200,,,,,,,,,,,,1,,,,10,,METAR KMKE 200335Z AUTO 20008KT 10SM CLR 31/26 A2980,,,,,,,,,,SSW,39.12,,clear,,,,26.02,98307.58,100761.59
KMKE,07/20/2019 03:40 UTC,100880.47,31,,74.85,4.63,200,,,,,,,,,,,,1,,,,10,,METAR KMKE 200340Z AUTO 20009KT 10SM CLR 31/26 A2979,,,,,,,,,,SSW,39.12,,clear,,,,26.02,98274.59,100727.77
KMKE,07/20/2019 03:45 UTC,100880.47,31,,74.85,5.66,200,8.23,,,,,,,,,,,1,,,,10,,METAR KMKE 200345Z AUTO 20011G16KT 10SM CLR 31/26 A2979,,,,,,,,,,SSW,39.12,,clear,,,,26.02,98274.59,100727.77
KMKE,07/20/2019 03:50 UTC,100880.47,31,,74.85,5.66,200,8.23,,,,,,,,,,,,,,,10,,METAR KMKE 200350Z AUTO 20011G16KT 10SM 31/26 A2979,,,,,,,,,,SSW,39.12,,,,,,26.02,98274.59,100727.77
KMKE,07/20/2019 03:52 UTC,100880.47,30.6,25.6,74.79,5.66,200,,,100810,,,,,,,,,2503,,,,10,,KMKE 200352Z 20011KT 10SM BKN250 31/26 A2979 RMK AO2 SLP081  T03060256,,,,7620,,,,,,SSW,37.93,,broken,,,,25.62,98274.59,100731.05
KMKE,07/20/2019 03:55 UTC,100880.47,31,,74.85,5.14,200,,,,,,,,,,,,1,,,,10,,METAR KMKE 200355Z AUTO 20010KT 10SM CLR 31/26 A2979,,,,,,,,,,SSW,39.12,,clear,,,,26.02,98274.59,100727.77
KMKE,07/20/2019 04:00 UTC,100914.33,31,,74.85,5.66,210,,,,,,,,,,,,1,,,,10,,METAR KMKE 200400Z AUTO 21011KT 10SM CLR 31/26 A2980,,,,,,,,,,SSW,39.12,,clear,,,,26.02,98307.58,100761.59
KMKE,07/20/2019 04:05 UTC,100914.33,31,,74.85,4.12,210,,,,,,,,,,,,1,,,,10,,METAR KMKE 200405Z AUTO 21008KT 10SM CLR 31/26 A2980,,,,,,,,,,SSW,39.12,,clear,,,,26.02,98307.58,100761.59
KMKE,07/20/2019 04:10 UTC,100948.2,31,,74.85,4.63,220,,,,,,,,,,,,1,,,,10,,METAR KMKE 200410Z AUTO 22009KT 10SM CLR 31/26 A2981,,,,,,,,,,SW,39.12,,clear,,,,26.02,98340.57,100795.4
KMKE,07/20/2019 04:15 UTC,100948.2,31,,74.85,4.12,220,,,,,,,,,,,,1,,,,10,,METAR KMKE 200415Z AUTO 22008KT 10SM CLR 31/26 A2981,,,,,,,,,,SW,39.12,,clear,,,,26.02,98340.57,100795.4
KMKE,07/20/2019 04:20 UTC,100982.06,31,,74.85,4.12,220,,,,,,,,,,,,1,,,,10,,METAR KMKE 200420Z AUTO 22008KT 10SM CLR 31/26 A2982,,,,,,,,,,SW,39.12,,clear,,,,26.02,98373.56,100829.22
KMKE,07/20/2019 04:25 UTC,100982.06,31,,74.85,3.6,230,,,,,,,,,,,,1,,,,10,,METAR KMKE 200425Z AUTO 23007KT 10SM CLR 31/26 A2982,,,,,,,,,,SW,39.12,,clear,,,,26.02,98373.56,100829.22
KMKE,07/20/2019 04:30 UTC,101015.92,31,,74.85,3.09,230,,,,,,,,,,,,1,,,,10,,METAR KMKE 200430Z AUTO 23006KT 10SM CLR 31/26 A2983,,,,,,,,,,SW,39.12,,clear,,,,26.02,98406.54,100863.02
KMKE,07/20/2019 04:35 UTC,101015.92,31,,74.85,3.09,230,,,,,,,,,,,,1,,,,10,,METAR KMKE 200435Z AUTO 23006KT 10SM CLR 31/26 A2983,,,,,,,,,,SW,39.12,,clear,,,,26.02,98406.54,100863.02
KMKE,07/20/2019 04:40 UTC,101015.92,31,,74.85,2.57,220,,,,,,,,,,,,1,,,,10,,METAR KMKE 200440Z AUTO 22005KT 10SM CLR 31/26 A2983,,,,,,,,,,SW,39.12,,clear,,,,26.02,98406.54,100863.02
KMKE,07/20/2019 04:45 UTC,101015.92,30,,79.25,3.09,220,,,,,,,,,,,,,,,,10,,METAR KMKE 200445Z AUTO 22006KT 10SM 30/26 A2983,,,,,,,,,,SW,37.46,,,,,,26.02,98406.54,100871.2
KMKE,07/20/2019 04:50 UTC,101015.92,30,,79.25,3.09,200,,,,,,,,,,,,,,,,10,,METAR KMKE 200450Z AUTO 20006KT 10SM 30/26 A2983,,,,,,,,,,SSW,37.46,,,,,,26.02,98406.54,100871.2
KMKE,07/20/2019 04:52 UTC,101015.92,30,25.6,77.4,3.6,210,,,100950,,,,,,,,,1803,2504,,,10,,KMKE 200452Z 21007KT 10SM BKN180 OVC250 30/26 A2983 RMK AO2 SLP095  T03000256,,,,5486.4,,,,,,SSW,36.94,,overcast,,,,25.62,98406.54,100871.21
KMKE,07/20/2019 04:55 UTC,101015.92,30,,79.25,3.09,200,,,,,,,,,,,,1,,,,10,,METAR KMKE 200455Z AUTO 20006KT 10SM CLR 30/26 A2983,,,,,,,,,,SSW,37.46,,clear,,,,26.02,98406.54,100871.2
KMKE,07/20/2019 05:00 UTC,101049.79,30,,79.25,3.6,200,,,,,,,,,,,,1,,,,10,,METAR KMKE 200500Z AUTO 20007KT 10SM CLR 30/26 A2984,,,,,,,,,,SSW,37.46,,clear,,,,26.02,98439.54,100905.03
KMKE,07/20/2019 05:05 UTC,101049.79,30,,79.25,3.6,200,,,,,,,,,,,,1,,,,10,,METAR KMKE 200505Z AUTO 20007KT 10SM CLR 30/26 A2984,,,,,,,,,,SSW,37.46,,clear,,,,26.02,98439.54,100905.03
KMKE,07/20/2019 05:10 UTC,101049.79,30,,79.25,3.09,190,,,,,,,,,,,,1,,,,10,,METAR KMKE 200510Z AUTO 19006KT 10SM CLR 30/26 A2984,,,,,,,,,,S,37.46,,clear,,,,26.02,98439.54,100905.03
KMKE,07/20/2019 05:15 UTC,101049.79,30,,79.25,3.6,190,,,,,,,,,,,,1,,,,10,,METAR KMKE 200515Z AUTO 19007KT 10SM CLR 30/26 A2984,,,,,,,,,,S,37.46,,clear,,,,26.02,98439.54,100905.03
KMKE,07/20/2019 05:20 UTC,101083.65,30,,79.25,2.57,190,,,,,,,,,,,,1,,,,10,,METAR KMKE 200520Z AUTO 19005KT 10SM CLR 30/26 A2985,,,,,,,,,,S,37.46,,clear,,,,26.02,98472.52,100938.84
KMKE,07/20/2019 05:25 UTC,101083.65,30,,79.25,1.54,260,,,,,,,,,,,,1,,,,10,,METAR KMKE 200525Z AUTO 26003KT 10SM CLR 30/26 A2985,,,,,,,,,,W,37.46,,clear,,,,26.02,98472.52,100938.84
KMKE,07/20/2019 05:30 UTC,101185.24,29,,74.52,,,,,,,,,,,,,,906,,,,10,,METAR KMKE 200530Z AUTO 10SM FEW090 29/24 A2988,,,,,,,,,,,33.6,,thin scattered,,,,24.02,98571.49,101048.59
KMKE,07/20/2019 05:35 UTC,101185.24,23,,78.24,11.32,60,14.4,,,,902,,,,,,,156,212,,,10,,METAR KMKE 200535Z AUTO 06022G28KT 10SM FEW015 SCT021 SCT090 23/19 A2988,,,,,,,,,,ENE,,,scattered,,,,18.99,98571.49,101099.4
KMKE,07/20/2019 05:40 UTC,101185.24,23,,73.5,12.35,60,,,,,,,,,,,,172,903,,,10,,METAR KMKE 200540Z AUTO 06024KT 10SM SCT017 BKN090 23/18 A2988,,,,2743.2,,,,,,ENE,,,broken,,,,17.99,98571.49,101099.41
KMKE,07/20/2019 05:45 UTC,101219.11,23,,73.5,9.26,50,,,,,,,,,,,,172,903,,,10,,METAR KMKE 200545Z AUTO 05018KT 10SM SCT017 BKN090 23/18 A2989,,,,2743.2,,,,,,NE,,,broken,,,,17.99,98604.49,101133.26
KMKE,07/20/2019 05:50 UTC,101252.97,23,,73.5,9.26,50,12.35,,,,,,,,,,,173,903,,,10,,METAR KMKE 200550Z AUTO 05018G24KT 10SM BKN017 BKN090 23/18 A2990,,,,518.16,,,,,,NE,,,broken,,,,17.99,98637.47,101167.09
KMKE,07/20/2019 05:52 UTC,101219.11,22.8,18.3,75.81,9.26,60,13.38,,101170,,,,,,3034,,,193,904,,,10,,KMKE 200552Z 06018G26KT 10SM BKN019 OVC090 23/18 A2989 RMK AO2 PK  WND 05030/0539 LTG DSNT NW-NE SLP117 T02280183 10333 20228  403390228 53034,33.3,22.8,,579.12,,33.9,22.8,,,ENE,,,overcast,,,,18.29,98604.49,101134.98
KMKE,07/20/2019 05:55 UTC,101185.24,23,,73.5,10.29,70,13.38,,,,,,,,,,,193,904,,,10,,METAR KMKE 200555Z AUTO 07020G26KT 10SM BKN019 OVC090 23/18 A2988,,,,579.12,,,,,,ENE,,,overcast,,,,17.99,98571.49,101099.41
KMKE,07/20/2019 06:00 UTC,101252.97,23,,73.5,8.23,40,,,,,,,,,,,,194,,,,10,,METAR KMKE 200600Z AUTO 04016KT 10SM OVC019 23/18 A2990,,,,579.12,,,,,,NE,,,overcast,,,,17.99,98637.47,101167.09
KMKE,07/20/2019 06:05 UTC,101252.97,23,,73.5,5.66,50,8.75,,,,,,,,,,,194,,,,10,,METAR KMKE 200605Z AUTO 05011G17KT 10SM OVC019 23/18 A2990,,,,579.12,,,,,,NE,,,overcast,,,,17.99,98637.47,101167.09
KMKE,07/20/2019 06:10 UTC,101286.84,22,,78.09,6.17,50,9.26,,,,,,,,,,,194,,,,10,,METAR KMKE 200610Z AUTO 05012G18KT 10SM OVC019 22/18 A2991,,,,579.12,,,,,,NE,,,overcast,,,,17.99,98670.47,101209.59
KMKE,07/20/2019 06:15 UTC,101219.11,22,,78.09,7.2,50,,,,,,,,,,,,194,,,,10,,METAR KMKE 200615Z AUTO 05014KT 10SM OVC019 22/18 A2989,,,,579.12,,,,,,NE,,,overcast,,,,17.99,98604.49,101141.92
KMKE,07/20/2019 06:19 UTC,101286.84,22.2,18.3,78.61,5.14,40,11.83,,,5,,,,,,,,194,,,,10,,KMKE 200619Z 04010G23KT 10SM TS OVC019 22/18 A2991 RMK AO2 LTG  DSNT NW-NE TSB19 OCNL LTGCCIC N-NE MOV E TS N-NE MOV E  T02220183,,,,579.12,,,,,,NE,,thunder,thunder,,,,18.29,98670.47,101207.85
KMKE,07/20/2019 06:20 UTC,101286.84,22,,78.09,5.14,30,,,,,,,,,,,,214,,,,10,,METAR KMKE 200620Z AUTO 03010KT 10SM OVC021 22/18 A2991,,,,640.08,,,,,,NNE,,,overcast,,,,17.99,98670.47,101209.59
KMKE,07/20/2019 06:25 UTC,101286.84,22,,83.13,6.17,50,,,,,,,,,,,,213,274,,,10,,METAR KMKE 200625Z AUTO 05012KT 10SM BKN021 OVC027 22/19 A2991,,,,640.08,,,,,,NE,,,overcast,,,,18.99,98670.47,101209.58
KMKE,07/20/2019 06:30 UTC,101286.84,22,,83.13,8.23,30,,,,,,,,,,,,213,294,,,10,,METAR KMKE 200630Z AUTO 03016KT 10SM BKN021 OVC029 22/19 A2991,,,,640.08,,,,,,NNE,,,overcast,,,,18.99,98670.47,101209.58
KMKE,07/20/2019 06:35 UTC,101286.84,22,,83.13,7.2,30,9.77,,,,354,,,,,,,212,293,,,10,,METAR KMKE 200635Z AUTO 03014G19KT 10SM SCT021 BKN029 OVC035 22/19 A2991,,,,883.92,,,,,,NNE,,,overcast,,,,18.99,98670.47,101209.58
KMKE,07/20/2019 06:40 UTC,101320.7,22,,83.13,5.14,360,,,,13,354,,,,,,,216,293,,,10,,METAR KMKE 200640Z AUTO 36010KT 10SM -RA FEW021 BKN029 OVC035 22/19 A2992,,,,883.92,,,,,,N,,light rain,light rain,,,,18.99,98703.45,101243.4
KMKE,07/20/2019 06:45 UTC,101219.11,21,,88.37,8.23,40,,,,13,454,,,,,,,216,293,,,7,,METAR KMKE 200645Z AUTO 04016KT 7SM -RA FEW021 BKN029 OVC045 21/19 A2989,,,,883.92,,,,,,NE,,light rain,light rain,,,,18.99,98604.49,101150.61
KMKE,07/20/2019 06:50 UTC,101252.97,21,,88.37,6.69,30,,,,2481,454,,,,,0.508,,192,293,,,5,,METAR KMKE 200650Z AUTO 03013KT 5SM RA BR SCT019 BKN029 OVC045 21/19 A2990 RMK P0002,,,,883.92,,,,,,NNE,,"rain,mist","rain,mist",,,,18.99,98637.47,101184.45
KMKE,07/20/2019 06:52 UTC,101286.84,21.1,18.9,87.29,5.66,20,10.29,,101220,2546,454,,,,,0.508,,192,293,,,4,,KMKE 200652Z 02011G20KT 4SM TSRA BR SCT019 BKN029 OVC045 21/19  A2991 RMK AO2 LTG DSNT ALQDS RAB40 TSB19 SLP122 OCNL LTGCGIC  NW-NE MOV SE TS NW-NE MOV SE P0002 T02110189,,,,883.92,,,,,,NNE,,"thunderstorm,mist","thunderstorm,mist",,,,18.89,98670.47,101217.42
KMKE,07/20/2019 06:55 UTC,101286.84,21,,88.37,4.12,40,,,,2493,454,,,,,,,192,293,,,4,,METAR KMKE 200655Z AUTO 04008KT 4SM -RA BR SCT019 BKN029 OVC045 21/19 A2991,,,,883.92,,,,,,NE,,"light rain,mist","light rain,mist",,,,18.99,98670.47,101218.3
KMKE,07/20/2019 07:00 UTC,101286.84,21,,88.37,3.6,70,,,,2494,454,,,,,,,192,293,,,3.5,,METAR KMKE 200700Z AUTO 07007KT 3 1/2SM +RA BR SCT019 BKN029 OVC045 21/19 A2991,,,,883.92,,,,,,ENE,,"heavy rain,mist","heavy rain,mist",,,,18.99,98670.47,101218.3
KMKE,07/20/2019 07:05 UTC,101286.84,21,,88.37,3.6,70,,,,2494,454,,,,,3.048,,42,293,,,2.5,,METAR KMKE 200705Z AUTO 07007KT 2 1/2SM +RA BR SCT004 BKN029 OVC045 21/19 A2991 RMK P0012,,,,883.92,,,,,,ENE,,"heavy rain,mist","heavy rain,mist",,,,18.99,98670.47,101218.3
KMKE,07/20/2019 07:10 UTC,101320.7,21,,94.03,3.6,90,,,,31,454,,,,,6.096,,42,293,,,2,,METAR KMKE 200710Z AUTO 09007KT 2SM BR SCT004 BKN029 OVC045 21/20 A2992 RMK P0024,,,,883.92,,,,,,E,,mist,mist,,,,20,98703.45,101252.11
KMKE,07/20/2019 07:11 UTC,101320.7,21.1,20,93.45,4.12,100,,,,2485,454,,,,,6.604,,42,133,,,2,,KMKE 200711Z 10008KT 2SM TS BR SCT004 BKN013 OVC045 21/20 A2992 RMK AO2 LTG DSNT ALQDS RAEMM FRQ LTGCGIC OHD MOV SE TS OHD  MOV SE P0026 T02110200,,,,396.24,,,,,,E,,"thunder,mist","thunder,mist",,,,20,98703.45,101251.23
KMKE,07/20/2019 07:15 UTC,101252.97,22,,88.46,4.63,120,,,,2494,474,,,,,11.684,,42,73,,,1,,METAR KMKE 200715Z AUTO 12009KT 1SM +RA BR SCT004 BKN007 OVC047 22/20 A2990 RMK P0046,,,,213.36,,,,,,ESE,,"heavy rain,mist","heavy rain,mist",,,,20,98637.47,101175.71
KMKE,07/20/2019 07:20 UTC,101252.97,22,20,88.46,4.63,100,,,,2494,474,,,,,19.304,,46,73,,,1,,METAR KMKE 200720Z AUTO 10009KT 1SM +RA BR FEW004 BKN007 OVC047 22/20 A2990 RMK P0076,,,,213.36,,,,,,E,,"heavy rain,mist","heavy rain,mist",,,,20,98637.47,101175.71
KMKE,07/20/2019 07:25 UTC,101252.97,21,,88.37,5.66,100,,,,2494,474,,,,,22.86,,46,73,,,1,,METAR KMKE 200725Z AUTO 10011KT 1SM +RA BR FEW004 BKN007 OVC047 21/19 A2990 RMK P0090,,,,213.36,,,,,,E,,"heavy rain,mist","heavy rain,mist",,,,18.99,98637.47,101184.45
KMKE,07/20/2019 07:30 UTC,101252.97,21,,88.37,5.14,140,,,,2481,474,,,,,25.4,,46,73,,,1,,METAR KMKE 200730Z AUTO 14010KT 1SM RA BR FEW004 BKN007 OVC047 21/19 A2990 RMK P0100,,,,213.36,,,,,,SE,,"rain,mist","rain,mist",,,,18.99,98637.47,101184.45
KMKE,07/20/2019 07:35 UTC,101185.24,21,,94.03,5.66,110,,,,2493,474,,,,,25.4,,46,73,,,1,,METAR KMKE 200735Z AUTO 11011KT 1SM -RA BR FEW004 BKN007 OVC047 21/20 A2988 RMK P0100,,,,213.36,,,,,,ESE,,"light rain,mist","light rain,mist",,,,20,98571.49,101116.74
KMKE,07/20/2019 07:40 UTC,101219.11,22,,88.46,6.69,150,,,,2494,474,,,,,26.162,,46,73,,,1,,METAR KMKE 200740Z AUTO 15013KT 1SM +RA BR FEW004 BKN007 OVC047 22/20 A2989 RMK P0103,,,,213.36,,,,,,SSE,,"heavy rain,mist","heavy rain,mist",,,,20,98604.49,101141.88
KMKE,07/20/2019 07:45 UTC,101185.24,22,,94.07,6.17,150,,,,2481,234,,,,,26.67,,46,73,,,1,,METAR KMKE 200745Z AUTO 15012KT 1SM RA BR FEW004 BKN007 OVC023 22/21 A2988 RMK P0105,,,,213.36,,,,,,SSE,,"rain,mist","rain,mist",,,,21,98571.49,101108.01
KMKE,07/20/2019 07:50 UTC,101185.24,22,,88.46,6.69,150,10.29,,,2481,804,,,,,26.67,,46,253,,,3,,METAR KMKE 200750Z AUTO 15013G20KT 3SM RA BR FEW004 BKN025 OVC080 22/20 A2988 RMK P0105,,,,762,,,,,,SSE,,"rain,mist","rain,mist",,,,20,98571.49,101108.03
KMKE,07/20/2019 07:52 UTC,101185.24,21.1,20,93.45,7.2,150,,,101120,2546,804,,,,,26.924,,46,283,,,3,,KMKE 200752Z 15014KT 3SM TSRA BR FEW004 BKN028 OVC080 21/20 A2988 RMK AO2 LTG DSNT E AND SE AND W SLP112 FRQ LTGCGIC OHD MOV SE  TS OHD MOV SE P0106 T02110200,,,,853.44,,,,,,SSE,,"thunderstorm,mist","thunderstorm,mist",,,,20,98571.49,101115.87
KMKE,07/20/2019 07:55 UTC,101151.38,21,,94.03,7.2,150,,,,2481,804,,,,,0.254,,46,283,,,3,,METAR KMKE 200755Z AUTO 15014KT 3SM RA BR FEW004 BKN028 OVC080 21/20 A2987 RMK P0001,,,,853.44,,,,,,SSE,,"rain,mist","rain,mist",,,,20,98538.5,101082.9
KMKE,07/20/2019 08:00 UTC,101083.65,22,,88.46,7.72,150,,,,2494,804,,,,,,,46,283,,,3,,METAR KMKE 200800Z AUTO 15015KT 3SM +RA BR FEW004 BKN028 OVC080 22/20 A2985,,,,853.44,,,,,,SSE,,"heavy rain,mist","heavy rain,mist",,,,20,98472.52,101006.51
KMKE,07/20/2019 08:05 UTC,101117.52,22,,94.07,7.2,160,,,,2494,804,,,,,4.318,,46,283,,,3,,METAR KMKE 200805Z AUTO 16014KT 3SM +RA BR FEW004 BKN028 OVC080 22/21 A2986 RMK P0017,,,,853.44,,,,,,SSE,,"heavy rain,mist","heavy rain,mist",,,,21,98505.52,101040.34
KMKE,07/20/2019 08:10 UTC,101151.38,22,,94.07,5.14,150,7.72,,,2494,804,,,,,4.572,,46,283,,,3,,METAR KMKE 200810Z AUTO 15010G15KT 3SM +RA BR FEW004 BKN028 OVC080 22/21 A2987 RMK P0018,,,,853.44,,,,,,SSE,,"heavy rain,mist","heavy rain,mist",,,,21,98538.5,101074.17
KMKE,07/20/2019 08:15 UTC,101185.24,22,,88.46,5.66,150,,,,2493,804,,,,,4.572,,46,283,,,3,,METAR KMKE 200815Z AUTO 15011KT 3SM -RA BR FEW004 BKN028 OVC080 22/20 A2988 RMK P0018,,,,853.44,,,,,,SSE,,"light rain,mist","light rain,mist",,,,20,98571.49,101108.03
KMKE,07/20/2019 08:20 UTC,101151.38,22,,88.46,4.63,150,,,,2493,804,,,,,4.572,,46,283,,,3,,METAR KMKE 200820Z AUTO 15009KT 3SM -RA BR FEW004 BKN028 OVC080 22/20 A2987 RMK P0018,,,,853.44,,,,,,SSE,,"light rain,mist","light rain,mist",,,,20,98538.5,101074.19
KMKE,07/20/2019 08:25 UTC,101151.38,22,,88.46,5.66,140,,,,2493,804,,,,,4.572,,46,283,,,3,,METAR KMKE 200825Z AUTO 14011KT 3SM -RA BR FEW004 BKN028 OVC080 22/20 A2987 RMK P0018,,,,853.44,,,,,,SE,,"light rain,mist","light rain,mist",,,,20,98538.5,101074.19
KMKE,07/20/2019 08:30 UTC,101151.38,22,,88.46,5.14,150,,,,2493,804,,,,,4.572,,46,283,,,3,,METAR KMKE 200830Z AUTO 15010KT 3SM -RA BR FEW004 BKN028 OVC080 22/20 A2987 RMK P0018,,,,853.44,,,,,,SSE,,"light rain,mist","light rain,mist",,,,20,98538.5,101074.19
KMKE,07/20/2019 08:35 UTC,101185.24,22,,88.46,5.14,150,,,,2493,804,,,,,4.572,,46,283,,,3,,METAR KMKE 200835Z AUTO 15010KT 3SM -RA BR FEW004 BKN028 OVC080 22/20 A2988 RMK P0018,,,,853.44,,,,,,SSE,,"light rain,mist","light rain,mist",,,,20,98571.49,101108.03
KMKE,07/20/2019 08:40 UTC,101185.24,22,,88.46,6.17,140,,,,2493,804,,,,,4.572,,46,283,,,3,,METAR KMKE 200840Z AUTO 14012KT 3SM -RA BR FEW004 BKN028 OVC080 22/20 A2988 RMK P0018,,,,853.44,,,,,,SE,,"light rain,mist","light rain,mist",,,,20,98571.49,101108.03
KMKE,07/20/2019 08:45 UTC,101185.24,22,,88.46,6.17,150,,,,2493,804,,,,,4.572,,46,283,,,3,,METAR KMKE 200845Z AUTO 15012KT 3SM -RA BR FEW004 BKN028 OVC080 22/20 A2988 RMK P0018,,,,853.44,,,,,,SSE,,"light rain,mist","light rain,mist",,,,20,98571.49,101108.03
KMKE,07/20/2019 08:50 UTC,101185.24,22,,88.46,7.2,150,,,,31,,,,,,4.572,,43,284,,,6,,METAR KMKE 200850Z AUTO 15014KT 6SM BR BKN004 OVC028 22/20 A2988 RMK P0018,,,,121.92,,,,,,SSE,,mist,mist,,,,20,98571.49,101108.03
KMKE,07/20/2019 08:52 UTC,101185.24,21.7,20,90.09,7.2,150,,,101110,31,,,,,8006,4.572,32.004,43,284,,,6,,KMKE 200852Z 15014KT 6SM BR BKN004 OVC028 22/20 A2988 RMK AO2  RAE49 TSE49 SLP111 P0018 60126 T02170200 58006,,,,121.92,,,,,,SSE,,mist,mist,,,,20,98571.49,101110.64
KMKE,07/20/2019 08:55 UTC,101185.24,22,,88.46,8.23,160,,,,31,,,,,,,,43,284,,,6,,METAR KMKE 200855Z AUTO 16016KT 6SM BR BKN004 OVC028 22/20 A2988,,,,121.92,,,,,,SSE,,mist,mist,,,,20,98571.49,101108.03
KMKE,07/20/2019 09:00 UTC,101151.38,22,,88.46,6.69,150,,,,31,,,,,,,,43,284,,,6,,METAR KMKE 200900Z AUTO 15013KT 6SM BR BKN004 OVC028 22/20 A2987,,,,121.92,,,,,,SSE,,mist,mist,,,,20,98538.5,101074.19
KMKE,07/20/2019 09:05 UTC,101151.38,22,,88.46,5.66,150,,,,31,,,,,,,,43,284,,,6,,METAR KMKE 200905Z AUTO 15011KT 6SM BR BKN004 OVC028 22/20 A2987,,,,121.92,,,,,,SSE,,mist,mist,,,,20,98538.5,101074.19
KMKE,07/20/2019 09:10 UTC,101151.38,22,,94.07,6.69,150,,,,31,,,,,,,,43,284,,,6,,METAR KMKE 200910Z AUTO 15013KT 6SM BR BKN004 OVC028 22/21 A2987,,,,121.92,,,,,,SSE,,mist,mist,,,,21,98538.5,101074.17
KMKE,07/20/2019 09:15 UTC,101151.38,22,,94.07,6.69,160,9.26,,,31,,,,,,,,43,284,,,6,,METAR KMKE 200915Z AUTO 16013G18KT 6SM BR BKN004 OVC028 22/21 A2987,,,,121.92,,,,,,SSE,,mist,mist,,,,21,98538.5,101074.17
KMKE,07/20/2019 09:20 UTC,101151.38,22,,94.07,6.17,170,,,,31,604,,,,,,,43,403,,,6,,METAR KMKE 200920Z AUTO 17012KT 6SM BR BKN004 BKN040 OVC060 22/21 A2987,,,,121.92,,,,,,S,,mist,mist,,,,21,98538.5,101074.17
KMKE,07/20/2019 09:25 UTC,101117.52,22,,94.07,5.14,170,,,,31,604,,,,,,,43,403,,,6,,METAR KMKE 200925Z AUTO 17010KT 6SM BR BKN004 BKN040 OVC060 22/21 A2986,,,,121.92,,,,,,S,,mist,mist,,,,21,98505.52,101040.34
KMKE,07/20/2019 09:30 UTC,101117.52,22,,94.07,6.69,170,,,,31,604,,,,,,,43,403,,,6,,METAR KMKE 200930Z AUTO 17013KT 6SM BR BKN004 BKN040 OVC060 22/21 A2986,,,,121.92,,,,,,S,,mist,mist,,,,21,98505.52,101040.34
KMKE,07/20/2019 09:35 UTC,101117.52,22,,94.07,6.69,170,10.29,,,31,604,,,,,,,43,403,,,6,,METAR KMKE 200935Z AUTO 17013G20KT 6SM BR BKN004 BKN040 OVC060 22/21 A2986,,,,121.92,,,,,,S,,mist,mist,,,,21,98505.52,101040.34
KMKE,07/20/2019 09:40 UTC,101083.65,22,,94.07,6.69,170,,,,31,604,,,,,,,43,403,,,6,,METAR KMKE 200940Z AUTO 17013KT 6SM BR BKN004 BKN040 OVC060 22/21 A2985,,,,121.92,,,,,,S,,mist,mist,,,,21,98472.52,101006.49
KMKE,07/20/2019 09:45 UTC,101083.65,22,,88.46,6.69,180,,,,,654,,,,,,,42,383,,,9,,METAR KMKE 200945Z AUTO 18013KT 9SM SCT004 BKN038 OVC065 22/20 A2985,,,,1158.24,,,,,,S,,,overcast,,,,20,98472.52,101006.51
KMKE,07/20/2019 09:47 UTC,101117.52,22,20,88.46,7.2,170,,,,,654,,,,,,,42,383,,,9,,KMKE 200947Z 17014KT 9SM SCT004 BKN038 OVC065 22/20 A2986 RMK AO2,,,,1158.24,,,,,,S,,,overcast,,,,20,98505.52,101040.36
KMKE,07/20/2019 09:50 UTC,101083.65,22,,88.46,7.2,180,,,,,654,,,,,,,42,383,,,9,,METAR KMKE 200950Z AUTO 18014KT 9SM SCT004 BKN038 OVC065 22/20 A2985,,,,1158.24,,,,,,S,,,overcast,,,,20,98472.52,101006.51
KMKE,07/20/2019 09:52 UTC,101083.65,22.2,20,87.39,6.69,170,10.8,,101030,,703,,,,,,,46,382,,,9,,KMKE 200952Z 17013G21KT 9SM FEW004 SCT038 BKN070 22/20 A2985 RMK AO2 SLP103 T02220200,,,,2133.6,,,,,,S,,,broken,,,,19.99,98472.52,101004.78
KMKE,07/20/2019 09:55 UTC,101083.65,22,,94.07,6.69,180,,,,,652,,,,,,,46,386,,,10,,METAR KMKE 200955Z AUTO 18013KT 10SM FEW004 FEW038 SCT065 22/21 A2985,,,,,,,,,,S,,,scattered,,,,21,98472.52,101006.49
KMKE,07/20/2019 10:00 UTC,101083.65,22,,88.46,5.14,180,,,,,652,,,,,,,46,366,,,10,,METAR KMKE 201000Z AUTO 18010KT 10SM FEW004 FEW036 SCT065 22/20 A2985,,,,,,,,,,S,,,scattered,,,,20,98472.52,101006.51
KMKE,07/20/2019 10:05 UTC,101083.65,22,,94.07,6.17,170,8.75,,,,652,,,,,,,46,366,,,10,,METAR KMKE 201005Z AUTO 17012G17KT 10SM FEW004 FEW036 SCT065 22/21 A2985,,,,,,,,,,S,,,scattered,,,,21,98472.52,101006.49
KMKE,07/20/2019 10:10 UTC,101083.65,22,,88.46,7.72,170,10.29,,,,652,,,,,,,46,366,,,10,,METAR KMKE 201010Z AUTO 17015G20KT 10SM FEW004 FEW036 SCT065 22/20 A2985,,,,,,,,,,S,,,scattered,,,,20,98472.52,101006.51
KMKE,07/20/2019 10:15 UTC,101083.65,22,,94.07,6.17,170,,,,,652,,,,,,,46,366,,,10,,METAR KMKE 201015Z AUTO 17012KT 10SM FEW004 FEW036 SCT065 22/21 A2985,,,,,,,,,,S,,,scattered,,,,21,98472.52,101006.49
KMKE,07/20/2019 10:20 UTC,101049.79,22,,94.07,7.2,180,9.77,,,,,,,,,,,46,383,,,10,,METAR KMKE 201020Z AUTO 18014G19KT 10SM FEW004 BKN038 22/21 A2984,,,,1158.24,,,,,,S,,,broken,,,,21,98439.54,100972.66
KMKE,07/20/2019 10:25 UTC,101049.79,22,,94.07,7.2,180,,,,,,,,,,,,46,383,,,10,,METAR KMKE 201025Z AUTO 18014KT 10SM FEW004 BKN038 22/21 A2984,,,,1158.24,,,,,,S,,,broken,,,,21,98439.54,100972.66
KMKE,07/20/2019 10:30 UTC,101049.79,22,,94.07,7.2,180,,,,,,,,,,,,46,383,,,10,,METAR KMKE 201030Z AUTO 18014KT 10SM FEW004 BKN038 22/21 A2984,,,,1158.24,,,,,,S,,,broken,,,,21,98439.54,100972.66
KMKE,07/20/2019 10:35 UTC,101049.79,22,,94.07,7.2,180,10.8,,,,,,,,,,,382,,,,10,,METAR KMKE 201035Z AUTO 18014G21KT 10SM SCT038 22/21 A2984,,,,,,,,,,S,,,scattered,,,,21,98439.54,100972.66
KMKE,07/20/2019 10:40 UTC,101049.79,22,,94.07,5.66,180,11.83,,,,,,,,,,,382,,,,10,,METAR KMKE 201040Z AUTO 18011G23KT 10SM SCT038 22/21 A2984,,,,,,,,,,S,,,scattered,,,,21,98439.54,100972.66
KMKE,07/20/2019 10:45 UTC,101049.79,22,,94.07,5.66,190,,,,,,,,,,,,386,,,,10,,METAR KMKE 201045Z AUTO 19011KT 10SM FEW038 22/21 A2984,,,,,,,,,,S,,,thin scattered,,,,21,98439.54,100972.66
KMKE,07/20/2019 10:50 UTC,101049.79,23,,88.54,5.66,200,,,,,,,,,,,,382,703,,,10,,METAR KMKE 201050Z AUTO 20011KT 10SM SCT038 BKN070 23/21 A2984,,,,2133.6,,,,,,SSW,,,broken,,,,21,98439.54,100964.02
KMKE,07/20/2019 10:52 UTC,101049.79,22.8,20.6,87.44,5.66,200,9.77,,100990,,703,,,,,,,86,382,,,10,,KMKE 201052Z 20011G19KT 10SM FEW008 SCT038 BKN070 OVC200 23/21  A2984 RMK AO2 SLP099 T02280206,,,,2133.6,,,,,,SSW,,,broken,,,,20.6,98439.54,100965.75
KMKE,07/20/2019 10:55 UTC,101049.79,23,,88.54,7.2,200,,,,,,,,,,,,386,,,,10,,METAR KMKE 201055Z AUTO 20014KT 10SM FEW038 23/21 A2984,,,,,,,,,,SSW,,,thin scattered,,,,21,98439.54,100964.02
KMKE,07/20/2019 11:00 UTC,101049.79,23,,83.25,6.69,200,9.26,,,,,,,,,,,1,,,,10,,METAR KMKE 201100Z AUTO 20013G18KT 10SM CLR 23/20 A2984,,,,,,,,,,SSW,,,clear,,,,19.99,98439.54,100964.04
KMKE,07/20/2019 11:05 UTC,101049.79,23,,88.54,5.66,200,,,,,,,,,,,,1,,,,10,,METAR KMKE 201105Z AUTO 20011KT 10SM CLR 23/21 A2984,,,,,,,,,,SSW,,,clear,,,,21,98439.54,100964.02
KMKE,07/20/2019 11:10 UTC,101049.79,23,,88.54,7.2,200,,,,,,,,,,,,1,,,,10,,METAR KMKE 201110Z AUTO 20014KT 10SM CLR 23/21 A2984,,,,,,,,,,SSW,,,clear,,,,21,98439.54,100964.02
KMKE,07/20/2019 11:15 UTC,101049.79,23,,88.54,6.17,190,,,,,,,,,,,,326,,,,10,,METAR KMKE 201115Z AUTO 19012KT 10SM FEW032 23/21 A2984,,,,,,,,,,S,,,thin scattered,,,,21,98439.54,100964.02
KMKE,07/20/2019 11:20 UTC,101015.92,23,,88.54,6.69,200,9.77,,,,,,,,,,,322,,,,10,,METAR KMKE 201120Z AUTO 20013G19KT 10SM SCT032 23/21 A2983,,,,,,,,,,SSW,,,scattered,,,,21,98406.54,100930.18
KMKE,07/20/2019 11:25 UTC,101049.79,23,,88.54,7.2,200,10.8,,,,,,,,,,,322,,,,10,,METAR KMKE 201125Z AUTO 20014G21KT 10SM SCT032 23/21 A2984,,,,,,,,,,SSW,,,scattered,,,,21,98439.54,100964.02
KMKE,07/20/2019 11:30 UTC,101049.79,23,,88.54,7.2,200,9.77,,,,,,,,,,,323,,,,10,,METAR KMKE 201130Z AUTO 20014G19KT 10SM BKN032 23/21 A2984,,,,975.36,,,,,,SSW,,,broken,,,,21,98439.54,100964.02
KMKE,07/20/2019 11:35 UTC,101015.92,23,,88.54,5.66,200,,,,,,,,,,,,323,,,,10,,METAR KMKE 201135Z AUTO 20011KT 10SM BKN032 23/21 A2983,,,,975.36,,,,,,SSW,,,broken,,,,21,98406.54,100930.18
KMKE,07/20/2019 11:40 UTC,101049.79,24,,83.37,6.17,200,,,,,,,,,,,,323,,,,10,,METAR KMKE 201140Z AUTO 20012KT 10SM BKN032 24/21 A2984,,,,975.36,,,,,,SSW,,,broken,,,,21,98439.54,100955.44
KMKE,07/20/2019 11:45 UTC,101049.79,24,,83.37,6.17,200,,,,,,,,,,,,324,,,,10,,METAR KMKE 201145Z AUTO 20012KT 10SM OVC032 24/21 A2984,,,,975.36,,,,,,SSW,,,overcast,,,,21,98439.54,100955.44
KMKE,07/20/2019 11:50 UTC,101015.92,24,,83.37,5.14,200,,,,,,,,,,,,314,,,,10,,METAR KMKE 201150Z AUTO 20010KT 10SM OVC031 24/21 A2983,,,,944.88,,,,,,SSW,,,overcast,,,,21,98406.54,100921.6
KMKE,07/20/2019 11:52 UTC,101049.79,23.9,20.6,81.83,7.2,190,,,100970,,,,,,8007,,,313,2503,32.004,32.004,10,,KMKE 201152Z 19014KT 10SM BKN031 BKN250 24/21 A2984 RMK AO2 SLP097  60126 70126 T02390206 10239 20206 58007,23.9,20.6,,944.88,,,,,,S,,,broken,,,,20.6,98439.54,100956.3
KMKE,07/20/2019 11:55 UTC,101015.92,24,,83.37,6.17,190,,,,,,,,,,,,314,,,,10,,METAR KMKE 201155Z AUTO 19012KT 10SM OVC031 24/21 A2983,,,,944.88,,,,,,S,,,overcast,,,,21,98406.54,100921.6
KMKE,07/20/2019 12:00 UTC,101015.92,24,,83.37,7.72,190,11.32,,,,,,,,,,,314,,,,10,,METAR KMKE 201200Z AUTO 19015G22KT 10SM OVC031 24/21 A2983,,,,944.88,,,,,,S,,,overcast,,,,21,98406.54,100921.6
KMKE,07/20/2019 12:05 UTC,101015.92,24,,83.37,7.72,190,10.8,,,,,,,,,,,314,,,,10,,METAR KMKE 201205Z AUTO 19015G21KT 10SM OVC031 24/21 A2983,,,,944.88,,,,,,S,,,overcast,,,,21,98406.54,100921.6
KMKE,07/20/2019 12:10 UTC,101015.92,24,,83.37,7.72,190,10.29,,,,,,,,,,,314,,,,10,,METAR KMKE 201210Z AUTO 19015G20KT 10SM OVC031 24/21 A2983,,,,944.88,,,,,,S,,,overcast,,,,21,98406.54,100921.6
KMKE,07/20/2019 12:15 UTC,101015.92,24,,83.37,6.69,190,,,,,,,,,,,,314,,,,10,,METAR KMKE 201215Z AUTO 19013KT 10SM OVC031 24/21 A2983,,,,944.88,,,,,,S,,,overcast,,,,21,98406.54,100921.6
KMKE,07/20/2019 12:20 UTC,101015.92,24,,83.37,7.2,190,10.29,,,,,,,,,,,314,,,,10,,METAR KMKE 201220Z AUTO 19014G20KT 10SM OVC031 24/21 A2983,,,,944.88,,,,,,S,,,overcast,,,,21,98406.54,100921.6
KMKE,07/20/2019 12:25 UTC,101015.92,24,,78.39,6.69,190,9.26,,,,,,,,,,,304,,,,10,,METAR KMKE 201225Z AUTO 19013G18KT 10SM OVC030 24/20 A2983,,,,914.4,,,,,,S,,,overcast,,,,20,98406.54,100921.62
KMKE,07/20/2019 12:30 UTC,101015.92,24,,78.39,7.2,190,9.77,,,,,,,,,,,304,,,,10,,METAR KMKE 201230Z AUTO 19014G19KT 10SM OVC030 24/20 A2983,,,,914.4,,,,,,S,,,overcast,,,,20,98406.54,100921.62
KMKE,07/20/2019 12:35 UTC,101015.92,24,,83.37,7.72,190,10.29,,,,,,,,,,,304,,,,10,,METAR KMKE 201235Z AUTO 19015G20KT 10SM OVC030 24/21 A2983,,,,914.4,,,,,,S,,,overcast,,,,21,98406.54,100921.6
KMKE,07/20/2019 12:40 UTC,100982.06,25,,73.85,6.69,180,,,,,,,,,,,,304,,,,10,,METAR KMKE 201240Z AUTO 18013KT 10SM OVC030 25/20 A2982,,,,914.4,,,,,,S,,,overcast,,,,20,98373.56,100879.27
KMKE,07/20/2019 12:45 UTC,100982.06,25,,73.85,4.63,190,8.23,,,,,,,,,,,304,,,,10,,METAR KMKE 201245Z AUTO 19009G16KT 10SM OVC030 25/20 A2982,,,,914.4,,,,,,S,,,overcast,,,,20,98373.56,100879.27
KMKE,07/20/2019 12:50 UTC,100982.06,25,,73.85,6.17,190,,,,,,,,,,,,304,,,,10,,METAR KMKE 201250Z AUTO 19012KT 10SM OVC030 25/20 A2982,,,,914.4,,,,,,S,,,overcast,,,,20,98373.56,100879.27
KMKE,07/20/2019 12:52 UTC,100982.06,25,20,73.85,5.14,190,9.26,,100920,,,,,,,,,304,,,,10,,KMKE 201252Z 19010G18KT 10SM OVC030 25/20 A2982 RMK AO2 SLP092  T02500200,,,,914.4,,,,,,S,,,overcast,,,,20,98373.56,100879.27
KMKE,07/20/2019 12:55 UTC,100982.06,26,,74.02,5.66,190,,,,,,,,,,,,303,,,,10,,METAR KMKE 201255Z AUTO 19011KT 10SM BKN030 26/21 A2982,,,,914.4,,,,,,S,,,broken,,,,21,98373.56,100870.79
KMKE,07/20/2019 13:00 UTC,100982.06,26,,69.6,6.17,190,,,,,,,,,,,,303,,,,10,,METAR KMKE 201300Z AUTO 19012KT 10SM BKN030 26/20 A2982,,,,914.4,,,,,,S,,,broken,,,,20,98373.56,100870.81
KMKE,07/20/2019 13:05 UTC,100982.06,26,,69.6,5.14,190,,,,,,,,,,,,303,,,,10,,METAR KMKE 201305Z AUTO 19010KT 10SM BKN030 26/20 A2982,,,,914.4,,,,,,S,,,broken,,,,20,98373.56,100870.81
KMKE,07/20/2019 13:10 UTC,100948.2,26,,74.02,6.17,190,,,,,,,,,,,,303,,,,10,,METAR KMKE 201310Z AUTO 19012KT 10SM BKN030 26/21 A2981,,,,914.4,,,,,,S,,,broken,,,,21,98340.57,100836.97
KMKE,07/20/2019 13:15 UTC,100948.2,26,,74.02,4.63,190,,,,,,,,,,,,294,,,,10,,METAR KMKE 201315Z AUTO 19009KT 10SM OVC029 26/21 A2981,,,,883.92,,,,,,S,,,overcast,,,,21,98340.57,100836.97
KMKE,07/20/2019 13:20 UTC,100948.2,26,,74.02,6.17,190,,,,,,,,,,,,293,,,,10,,METAR KMKE 201320Z AUTO 19012KT 10SM BKN029 26/21 A2981,,,,883.92,,,,,,S,,,broken,,,,21,98340.57,100836.97
KMKE,07/20/2019 13:21 UTC,100948.2,26.1,20.6,71.8,6.17,190,10.29,,,,,,,,,,,293,,,,10,,KMKE 201321Z 19012G20KT 10SM BKN029 26/21 A2981 RMK AO2 T02610206,,,,883.92,,,,,,S,,,broken,,,,20.6,98340.57,100836.13
KMKE,07/20/2019 13:25 UTC,100948.2,26,,74.02,6.17,190,,,,,,,,,,,,293,,,,10,,METAR KMKE 201325Z AUTO 19012KT 10SM BKN029 26/21 A2981,,,,883.92,,,,,,S,,,broken,,,,21,98340.57,100836.97
KMKE,07/20/2019 13:30 UTC,100948.2,26,,74.02,6.69,190,,,,,,,,,,,,293,,,,10,,METAR KMKE 201330Z AUTO 19013KT 10SM BKN029 26/21 A2981,,,,883.92,,,,,,S,,,broken,,,,21,98340.57,100836.97
KMKE,07/20/2019 13:35 UTC,100948.2,26,,74.02,6.17,200,,,,,,,,,,,,292,,,,10,,METAR KMKE 201335Z AUTO 20012KT 10SM SCT029 26/21 A2981,,,,,,,,,,SSW,,,scattered,,,,21,98340.57,100836.97
KMKE,07/20/2019 13:39 UTC,100948.2,26.7,21.1,71.47,6.17,200,10.29,,,,,,,,,,,292,2503,,,10,,KMKE 201339Z 20012G20KT 10SM SCT029 BKN250 27/21 A2981 RMK AO2  T02670211,,,,7620,,,,,,SSW,28.46,,broken,,,,21.11,98340.57,100831.08
KMKE,07/20/2019 13:40 UTC,100948.2,27,,69.79,6.69,200,9.77,,,,,,,,,,,292,,,,10,,METAR KMKE 201340Z AUTO 20013G19KT 10SM SCT029 27/21 A2981,,,,,,,,,,SSW,28.84,,scattered,,,,21.01,98340.57,100828.56
KMKE,07/20/2019 13:45 UTC,100948.2,27,,69.79,5.66,200,8.23,,,,,,,,,,,296,,,,10,,METAR KMKE 201345Z AUTO 20011G16KT 10SM FEW029 27/21 A2981,,,,,,,,,,SSW,28.84,,thin scattered,,,,21.01,98340.57,100828.56
KMKE,07/20/2019 13:50 UTC,100948.2,27,,69.79,6.69,200,,,,,,,,,,,,296,,,,10,,METAR KMKE 201350Z AUTO 20013KT 10SM FEW029 27/21 A2981,,,,,,,,,,SSW,28.84,,thin scattered,,,,21.01,98340.57,100828.56
KMKE,07/20/2019 13:52 UTC,100948.2,26.7,21.1,71.47,6.17,200,9.26,,100870,,,,,,,,,296,2503,,,10,,KMKE 201352Z 20012G18KT 10SM FEW029 BKN250 27/21 A2981 RMK AO2  SLP087 T02670211,,,,7620,,,,,,SSW,28.46,,broken,,,,21.11,98340.57,100831.08
KMKE,07/20/2019 13:55 UTC,100948.2,27,,69.79,6.17,200,,,,,,,,,,,,1,,,,10,,METAR KMKE 201355Z AUTO 20012KT 10SM CLR 27/21 A2981,,,,,,,,,,SSW,28.84,,clear,,,,21.01,98340.57,100828.56
KMKE,07/20/2019 14:00 UTC,100948.2,27,,74.19,6.69,210,,,,,,,,,,,,1,,,,10,,METAR KMKE 201400Z AUTO 21013KT 10SM CLR 27/22 A2981,,,,,,,,,,SSW,29.21,,clear,,,,22.01,98340.57,100828.54
KMKE,07/20/2019 14:05 UTC,100948.2,27,,74.19,6.17,210,,,,,,,,,,,,1,,,,10,,METAR KMKE 201405Z AUTO 21012KT 10SM CLR 27/22 A2981,,,,,,,,,,SSW,29.21,,clear,,,,22.01,98340.57,100828.54
KMKE,07/20/2019 14:10 UTC,100948.2,28,,69.98,7.2,200,,,,,,,,,,,,1,,,,10,,METAR KMKE 201410Z AUTO 20014KT 10SM CLR 28/22 A2981,,,,,,,,,,SSW,30.66,,clear,,,,22.01,98340.57,100820.2
KMKE,07/20/2019 14:15 UTC,100948.2,28,,69.98,7.2,200,,,,,,,,,,,,1,,,,10,,METAR KMKE 201415Z AUTO 20014KT 10SM CLR 28/22 A2981,,,,,,,,,,SSW,30.66,,clear,,,,22.01,98340.57,100820.2
KMKE,07/20/2019 14:20 UTC,100948.2,28,,69.98,6.17,210,,,,,,,,,,,,1,,,,10,,METAR KMKE 201420Z AUTO 21012KT 10SM CLR 28/22 A2981,,,,,,,,,,SSW,30.66,,clear,,,,22.01,98340.57,100820.2
KMKE,07/20/2019 14:25 UTC,100948.2,28,,69.98,5.66,210,8.23,,,,,,,,,,,1,,,,10,,METAR KMKE 201425Z AUTO 21011G16KT 10SM CLR 28/22 A2981,,,,,,,,,,SSW,30.66,,clear,,,,22.01,98340.57,100820.2
KMKE,07/20/2019 14:30 UTC,100948.2,28,,74.36,7.2,210,,,,,,,,,,,,1,,,,10,,METAR KMKE 201430Z AUTO 21014KT 10SM CLR 28/23 A2981,,,,,,,,,,SSW,31.26,,clear,,,,23.01,98340.57,100820.18
KMKE,07/20/2019 14:35 UTC,100914.33,28,,74.36,7.72,210,,,,,,,,,,,,1,,,,10,,METAR KMKE 201435Z AUTO 21015KT 10SM CLR 28/23 A2980,,,,,,,,,,SSW,31.26,,clear,,,,23.01,98307.58,100786.35
KMKE,07/20/2019 14:40 UTC,100914.33,28,,74.36,7.2,210,9.77,,,,,,,,,,,1,,,,10,,METAR KMKE 201440Z AUTO 21014G19KT 10SM CLR 28/23 A2980,,,,,,,,,,SSW,31.26,,clear,,,,23.01,98307.58,100786.35
KMKE,07/20/2019 14:45 UTC,100914.33,28,,74.36,7.72,210,10.8,,,,,,,,,,,,,,,10,,METAR KMKE 201445Z AUTO 21015G21KT 10SM 28/23 A2980,,,,,,,,,,SSW,31.26,,,,,,23.01,98307.58,100786.35
KMKE,07/20/2019 14:50 UTC,100914.33,29,,70.17,7.72,210,,,,,,,,,,,,406,,,,10,,METAR KMKE 201450Z AUTO 21015KT 10SM FEW040 29/23 A2980,,,,,,,,,,SSW,32.76,,thin scattered,,,,23.02,98307.58,100778.07
KMKE,07/20/2019 14:52 UTC,100914.33,28.9,23.3,71.87,8.23,210,11.32,,100840,,,,,,6011,,,406,2503,,,10,,KMKE 201452Z 21016G22KT 10SM FEW040 BKN250 29/23 A2980 RMK AO2  SLP084 T02890233 56011,,,,7620,,,,,,SSW,32.85,,broken,,,,23.32,98307.58,100778.89
KMKE,07/20/2019 14:55 UTC,100914.33,29,,70.17,8.23,210,,,,,,,,,,,,1,,,,10,,METAR KMKE 201455Z AUTO 21016KT 10SM CLR 29/23 A2980,,,,,,,,,,SSW,32.76,,clear,,,,23.02,98307.58,100778.07
KMKE,07/20/2019 15:00 UTC,100914.33,29,,70.17,5.14,210,,,,,,,,,,,,1,,,,10,,METAR KMKE 201500Z AUTO 21010KT 10SM CLR 29/23 A2980,,,,,,,,,,SSW,32.76,,clear,,,,23.02,98307.58,100778.07
KMKE,07/20/2019 15:05 UTC,100914.33,29,,70.17,5.66,200,,,,,,,,,,,,1,,,,10,,METAR KMKE 201505Z AUTO 20011KT 10SM CLR 29/23 A2980,,,,,,,,,,SSW,32.76,,clear,,,,23.02,98307.58,100778.07
KMKE,07/20/2019 15:10 UTC,100914.33,29,,70.17,6.69,210,,,,,,,,,,,,1,,,,10,,METAR KMKE 201510Z AUTO 21013KT 10SM CLR 29/23 A2980,,,,,,,,,,SSW,32.76,,clear,,,,23.02,98307.58,100778.07
KMKE,07/20/2019 15:15 UTC,100914.33,29,,70.17,7.2,220,,,,,,,,,,,,1,,,,10,,METAR KMKE 201515Z AUTO 22014KT 10SM CLR 29/23 A2980,,,,,,,,,,SW,32.76,,clear,,,,23.02,98307.58,100778.07
KMKE,07/20/2019 15:20 UTC,100914.33,30,,70.36,6.17,220,,,,,,,,,,,,1,,,,10,,METAR KMKE 201520Z AUTO 22012KT 10SM CLR 30/24 A2980,,,,,,,,,,SW,35.13,,clear,,,,24.02,98307.58,100769.81
KMKE,07/20/2019 15:25 UTC,100914.33,30,,70.36,6.17,230,,,,,,,,,,,,1,,,,10,,METAR KMKE 201525Z AUTO 23012KT 10SM CLR 30/24 A2980,,,,,,,,,,SW,35.13,,clear,,,,24.02,98307.58,100769.81
KMKE,07/20/2019 15:30 UTC,100948.2,30,,70.36,6.69,220,,,,,,,,,,,,1,,,,10,,METAR KMKE 201530Z AUTO 22013KT 10SM CLR 30/24 A2981,,,,,,,,,,SW,35.13,,clear,,,,24.02,98340.57,100803.63
KMKE,07/20/2019 15:35 UTC,100948.2,30,,70.36,7.2,220,,,,,,,,,,,,1,,,,10,,METAR KMKE 201535Z AUTO 22014KT 10SM CLR 30/24 A2981,,,,,,,,,,SW,35.13,,clear,,,,24.02,98340.57,100803.63
KMKE,07/20/2019 15:40 UTC,100948.2,31,,66.46,7.2,230,,,,,,,,,,,,1,,,,10,,METAR KMKE 201540Z AUTO 23014KT 10SM CLR 31/24 A2981,,,,,,,,,,SW,36.56,,clear,,,,24.03,98340.57,100795.45
KMKE,07/20/2019 15:45 UTC,100914.33,31,,66.46,6.69,220,,,,,,,,,,,,1,,,,10,,METAR KMKE 201545Z AUTO 22013KT 10SM CLR 31/24 A2980,,,,,,,,,,SW,36.56,,clear,,,,24.03,98307.58,100761.64
KMKE,07/20/2019 15:50 UTC,100914.33,31,,66.46,6.69,220,,,,,,,,,,,,256,,,,10,,METAR KMKE 201550Z AUTO 22013KT 10SM FEW025 31/24 A2980,,,,,,,,,,SW,36.56,,thin scattered,,,,24.03,98307.58,100761.64
KMKE,07/20/2019 15:52 UTC,100948.2,30.6,24.4,69.63,7.72,230,,,100850,,,,,,,,,256,2503,,,10,,KMKE 201552Z 23015KT 10SM FEW025 BKN250 31/24 A2981 RMK AO2 SLP085  T03060244,,,,7620,,,,,,SW,36.44,,broken,,,,24.43,98340.57,100798.71
KMKE,07/20/2019 15:55 UTC,100914.33,31,,66.46,8.75,210,,,,,,,,,,,,1,,,,10,,METAR KMKE 201555Z AUTO 21017KT 10SM CLR 31/24 A2980,,,,,,,,,,SSW,36.56,,clear,,,,24.03,98307.58,100761.64
KMKE,07/20/2019 16:00 UTC,100914.33,31,,66.46,7.72,220,,,,,,,,,,,,1,,,,10,,METAR KMKE 201600Z AUTO 22015KT 10SM CLR 31/24 A2980,,,,,,,,,,SW,36.56,,clear,,,,24.03,98307.58,100761.64
KMKE,07/20/2019 16:05 UTC,100880.47,31,,66.46,7.2,210,,,,,,,,,,,,1,,,,10,,METAR KMKE 201605Z AUTO 21014KT 10SM CLR 31/24 A2979,,,,,,,,,,SSW,36.56,,clear,,,,24.03,98274.59,100727.82
KMKE,07/20/2019 16:10 UTC,100914.33,31,,66.46,7.72,210,,,,,,,,,,,,1,,,,10,,METAR KMKE 201610Z AUTO 21015KT 10SM CLR 31/24 A2980,,,,,,,,,,SSW,36.56,,clear,,,,24.03,98307.58,100761.64
KMKE,07/20/2019 16:15 UTC,100914.33,31,,66.46,6.69,230,,,,,,,,,,,,1,,,,10,,METAR KMKE 201615Z AUTO 23013KT 10SM CLR 31/24 A2980,,,,,,,,,,SW,36.56,,clear,,,,24.03,98307.58,100761.64
KMKE,07/20/2019 16:20 UTC,100880.47,32,,62.8,6.69,210,,,,,,,,,,,,1,,,,10,,METAR KMKE 201620Z AUTO 21013KT 10SM CLR 32/24 A2979,,,,,,,,,,SSW,37.95,,clear,,,,24.05,98274.59,100719.7
KMKE,07/20/2019 16:25 UTC,100914.33,32,,62.8,7.2,210,,,,,,,,,,,,1,,,,10,,METAR KMKE 201625Z AUTO 21014KT 10SM CLR 32/24 A2980,,,,,,,,,,SSW,37.95,,clear,,,,24.05,98307.58,100753.52
KMKE,07/20/2019 16:30 UTC,100880.47,32,,66.66,8.23,220,10.8,,,,,,,,,,,1,,,,10,,METAR KMKE 201630Z AUTO 22016G21KT 10SM CLR 32/25 A2979,,,,,,,,,,SW,39.23,,clear,,,,25.04,98274.59,100719.68
KMKE,07/20/2019 16:35 UTC,100880.47,32,,66.66,7.72,220,10.8,,,,,,,,,,,1,,,,10,,METAR KMKE 201635Z AUTO 22015G21KT 10SM CLR 32/25 A2979,,,,,,,,,,SW,39.23,,clear,,,,25.04,98274.59,100719.68
KMKE,07/20/2019 16:40 UTC,100880.47,32,,66.66,6.17,220,,,,,,,,,,,,1,,,,10,,METAR KMKE 201640Z AUTO 22012KT 10SM CLR 32/25 A2979,,,,,,,,,,SW,39.23,,clear,,,,25.04,98274.59,100719.68
KMKE,07/20/2019 16:45 UTC,100880.47,32,,66.66,6.69,220,,,,,,,,,,,,1,,,,10,,METAR KMKE 201645Z AUTO 22013KT 10SM CLR 32/25 A2979,,,,,,,,,,SW,39.23,,clear,,,,25.04,98274.59,100719.68
KMKE,07/20/2019 16:50 UTC,100880.47,32,,66.66,6.17,210,,,,,,,,,,,,252,,,,10,,METAR KMKE 201650Z AUTO 21012KT 10SM SCT025 32/25 A2979,,,,,,,,,,SSW,39.23,,scattered,,,,25.04,98274.59,100719.68
KMKE,07/20/2019 16:52 UTC,100914.33,32.2,25,65.91,6.69,230,,,100820,,,,,,,,,242,2503,,,10,,KMKE 201652Z 23013KT 10SM SCT024 BKN250 32/25 A2980 RMK AO2 SLP082  T03220250,,,,7620,,,,,,SW,39.51,,broken,,,,25.04,98307.58,100751.87
KMKE,07/20/2019 16:55 UTC,100914.33,32,,66.66,7.72,210,,,,,,,,,,,,1,,,,10,,METAR KMKE 201655Z AUTO 21015KT 10SM CLR 32/25 A2980,,,,,,,,,,SSW,39.23,,clear,,,,25.04,98307.58,100753.49
KMKE,07/20/2019 17:00 UTC,100914.33,32,,70.73,6.17,230,,,,,,,,,,,,256,,,,10,,METAR KMKE 201700Z AUTO 23012KT 10SM FEW025 32/26 A2980,,,,,,,,,,SW,40.68,,thin scattered,,,,26.04,98307.58,100753.47
KMKE,07/20/2019 17:05 UTC,100914.33,33,,66.86,6.69,200,,,,,,,,,,,,256,,,,10,,METAR KMKE 201705Z AUTO 20013KT 10SM FEW025 33/26 A2980,,,,,,,,,,SSW,42.15,,thin scattered,,,,26.05,98307.58,100745.4
KMKE,07/20/2019 17:10 UTC,100914.33,33,,66.86,7.2,220,9.77,,,,,,,,,,,256,,,,10,,METAR KMKE 201710Z AUTO 22014G19KT 10SM FEW025 33/26 A2980,,,,,,,,,,SW,42.15,,thin scattered,,,,26.05,98307.58,100745.4
KMKE,07/20/2019 17:15 UTC,100914.33,33,,66.86,6.69,230,,,,,,,,,,,,256,,,,10,,METAR KMKE 201715Z AUTO 23013KT 10SM FEW025 33/26 A2980,,,,,,,,,,SW,42.15,,thin scattered,,,,26.05,98307.58,100745.4
KMKE,07/20/2019 17:20 UTC,100914.33,33,,66.86,7.2,210,,,,,,,,,,,,256,,,,10,,METAR KMKE 201720Z AUTO 21014KT 10SM FEW025 33/26 A2980,,,,,,,,,,SSW,42.15,,thin scattered,,,,26.05,98307.58,100745.4
KMKE,07/20/2019 17:25 UTC,100880.47,33,,66.86,4.63,240,,,,,,,,,,,,252,,,,10,,METAR KMKE 201725Z AUTO 24009KT 10SM SCT025 33/26 A2979,,,,,,,,,,WSW,42.15,,scattered,,,,26.05,98274.59,100711.59
KMKE,07/20/2019 17:30 UTC,100914.33,33,,66.86,7.72,220,,,,,,,,,,,,256,,,,10,,METAR KMKE 201730Z AUTO 22015KT 10SM FEW025 33/26 A2980,,,,,,,,,,SW,42.15,,thin scattered,,,,26.05,98307.58,100745.4
KMKE,07/20/2019 17:35 UTC,100914.33,34,,63.23,7.72,230,,,,,,,,,,,,256,,,,10,,METAR KMKE 201735Z AUTO 23015KT 10SM FEW025 34/26 A2980,,,,,,,,,,SW,43.57,,thin scattered,,,,26.06,98307.58,100737.38
KMKE,07/20/2019 17:40 UTC,100948.2,33,,66.86,4.63,260,,,,,,,,,,,,272,,,,10,,METAR KMKE 201740Z AUTO 26009KT 10SM SCT027 33/26 A2981,,,,,,,,,,W,42.15,,scattered,,,,26.05,98340.57,100779.21
KMKE,07/20/2019 17:45 UTC,100948.2,34,,63.23,5.14,210,,,,,,,,,,,,272,,,,10,,METAR KMKE 201745Z AUTO 21010KT 10SM SCT027 34/26 A2981,,,,,,,,,,SSW,43.57,,scattered,,,,26.06,98340.57,100771.19
KMKE,07/20/2019 17:50 UTC,100948.2,33,,66.86,6.17,230,,,,,,,,,,,,276,,,,10,,METAR KMKE 201750Z AUTO 23012KT 10SM FEW027 33/26 A2981,,,,,,,,,,SW,42.15,,thin scattered,,,,26.05,98340.57,100779.21
KMKE,07/20/2019 17:52 UTC,100948.2,33.3,25,61.97,5.66,240,,,100890,,,,,,3004,,,292,2503,,,10,,KMKE 201752Z 24011KT 10SM SCT029 BKN250 33/25 A2981 RMK AO2 SLP089  T03330250 10339 20239 53004,33.9,23.9,,7620,,,,,,WSW,41.05,,broken,,,,25.06,98340.57,100776.82
KMKE,07/20/2019 17:55 UTC,100948.2,34,,63.23,6.17,240,,,,,,,,,,,,296,,,,10,,METAR KMKE 201755Z AUTO 24012KT 10SM FEW029 34/26 A2981,,,,,,,,,,WSW,43.57,,thin scattered,,,,26.06,98340.57,100771.19
KMKE,07/20/2019 18:00 UTC,100948.2,34,,59.59,6.69,220,,,,,,,,,,,,296,,,,10,,METAR KMKE 201800Z AUTO 22013KT 10SM FEW029 34/25 A2981,,,,,,,,,,SW,42.01,,thin scattered,,,,25.06,98340.57,100771.21
KMKE,07/20/2019 18:05 UTC,100948.2,34,,59.59,5.66,240,,,,,,,,,,,,296,,,,10,,METAR KMKE 201805Z AUTO 24011KT 10SM FEW029 34/25 A2981,,,,,,,,,,WSW,42.01,,thin scattered,,,,25.06,98340.57,100771.21
KMKE,07/20/2019 18:10 UTC,100948.2,33,,63.02,4.63,250,,,,,,,,,,,,316,,,,10,,METAR KMKE 201810Z AUTO 25009KT 10SM FEW031 33/25 A2981,,,,,,,,,,WSW,40.64,,thin scattered,,,,25.05,98340.57,100779.23
KMKE,07/20/2019 18:15 UTC,100948.2,34,,63.23,4.63,230,,,,,,,,,,,,316,,,,10,,METAR KMKE 201815Z AUTO 23009KT 10SM FEW031 34/26 A2981,,,,,,,,,,SW,43.57,,thin scattered,,,,26.06,98340.57,100771.19
KMKE,07/20/2019 18:20 UTC,100948.2,33,,66.86,5.66,200,,,,,,,,,,,,316,652,,,10,,METAR KMKE 201820Z AUTO 20011KT 10SM FEW031 SCT065 33/26 A2981,,,,,,,,,,SSW,42.15,,scattered,,,,26.05,98340.57,100779.21
KMKE,07/20/2019 18:25 UTC,100948.2,33,,63.02,5.66,210,8.23,,,,,,,,,,,316,652,,,10,,METAR KMKE 201825Z AUTO 21011G16KT 10SM FEW031 SCT065 33/25 A2981,,,,,,,,,,SSW,40.64,,scattered,,,,25.05,98340.57,100779.23
KMKE,07/20/2019 18:30 UTC,100982.06,33,,66.86,3.6,250,,,,,,,,,,,,316,653,,,10,,METAR KMKE 201830Z AUTO 25007KT 10SM FEW031 BKN065 33/26 A2982,,,,1981.2,,,,,,WSW,42.15,,broken,,,,26.05,98373.56,100813.01
KMKE,07/20/2019 18:35 UTC,101117.52,32,,62.8,,,,,,,753,,,,,,,332,603,,,10,,METAR KMKE 201835Z AUTO 10SM SCT033 BKN060 BKN075 32/24 A2986,,,,1828.8,,,,,,,37.95,,broken,,,,24.05,98505.52,100956.38
KMKE,07/20/2019 18:40 UTC,101151.38,24,18.3,69.21,10.29,20,13.89,,,,603,,,,,,,276,323,,,10,,METAR KMKE 201840Z AUTO 02020G27KT 10SM FEW027 BKN032 BKN060 24/18 A2987 RMK AO2 PK WND 03033/1837 LTG DSNT W-NE PRESRR WSHFT 33 T02440183,,,16.98,975.36,0,,,30,,NNE,,,broken,,,,17.99,98538.5,101056.99
KMKE,07/20/2019 18:45 UTC,101151.38,23,,69.01,9.77,20,12.86,,,,754,,,,,,,293,653,,,10,,METAR KMKE 201845Z AUTO 02019G25KT 10SM BKN029 BKN065 OVC075 23/17 A2987,,,,883.92,,,,,,NNE,,,overcast,,,,16.99,98538.5,101065.59
KMKE,07/20/2019 18:46 UTC,101151.38,23,17,69.01,9.26,30,14.92,,,5,754,,,,,,,293,653,,,10,,KMKE 201846Z 03018G29KT 10SM VCTS BKN029 BKN065 OVC075 23/17 A2987 RMK AO2 PK WND 03033/1837 LTG DSNT NW-NE TSE46 WSHFT 33,,,16.98,883.92,,,,30,,NNE,,thunder,thunder,,,,16.99,98538.5,101065.59
KMKE,07/20/2019 18:50 UTC,101151.38,23,,73.5,8.75,10,11.83,,,,754,,,,,,,293,653,,,10,,METAR KMKE 201850Z AUTO 01017G23KT 10SM BKN029 BKN065 OVC075 23/18 A2987,,,,883.92,,,,,,N,,,overcast,,,,17.99,98538.5,101065.58
KMKE,07/20/2019 18:52 UTC,101185.24,22.8,17.8,73.46,9.77,20,13.89,,101130,5,754,,,,,,,293,653,,,10,,KMKE 201852Z 02019G27KT 10SM TS BKN029CB BKN065 OVC075 23/18 A2988 RMK AO2 PK WND 03033/1837 LTG DSNT NW-NE TSE46B51 SLP113  WSHFT 33 OCNL LTGIC N TS NW MOV SE T02280178,,,16.98,883.92,,,,30,,NNE,,thunder,thunder,,,,17.79,98571.49,101101.14
KMKE,07/20/2019 18:55 UTC,101219.11,22,,78.09,6.17,20,10.29,,,,,,,,,,,273,604,,,10,,METAR KMKE 201855Z AUTO 02012G20KT 10SM BKN027 OVC060 22/18 A2989,,,,822.96,,,,,,NNE,,,overcast,,,,17.99,98604.49,101141.92
KMKE,07/20/2019 19:00 UTC,101219.11,22,,78.09,6.17,20,11.83,,,13,754,,,,,,,273,653,,,10,,METAR KMKE 201900Z AUTO 02012G23KT 10SM -RA BKN027 BKN065 OVC075 22/18 A2989,,,,822.96,,,,,,NNE,,light rain,light rain,,,,17.99,98604.49,101141.92
KMKE,07/20/2019 19:05 UTC,101219.11,22,,83.13,5.66,30,,,,13,754,,,,,,,273,653,,,10,,METAR KMKE 201905Z AUTO 03011KT 10SM -RA BKN027 BKN065 OVC075 22/19 A2989,,,,822.96,,,,,,NNE,,light rain,light rain,,,,18.99,98604.49,101141.9
KMKE,07/20/2019 19:10 UTC,101219.11,22,,83.13,3.09,50,,,,13,654,,,,,,,126,273,,,10,,METAR KMKE 201910Z AUTO 05006KT 10SM -RA FEW012 BKN027 OVC065 22/19 A2989,,,,822.96,,,,,,NE,,light rain,light rain,,,,18.99,98604.49,101141.9
KMKE,07/20/2019 19:15 UTC,101185.24,21,,88.37,3.6,60,,,,2494,654,,,,,0.508,,126,273,,,2,,METAR KMKE 201915Z AUTO 06007KT 2SM +RA BR FEW012 BKN027 OVC065 21/19 A2988 RMK P0002,,,,822.96,,,,,,ENE,,"heavy rain,mist","heavy rain,mist",,,,18.99,98571.49,101116.76
KMKE,07/20/2019 19:20 UTC,101185.24,21,,88.37,7.2,40,,,,2494,334,,,,,6.35,,56,273,,,1.5,,METAR KMKE 201920Z AUTO 04014KT 1 1/2SM +RA BR FEW005 BKN027 OVC033 21/19 A2988 RMK P0025,,,,822.96,,,,,,NE,,"heavy rain,mist","heavy rain,mist",,,,18.99,98571.49,101116.76
KMKE,07/20/2019 19:21 UTC,101185.24,20.6,18.9,90.01,7.72,30,12.35,,,2558,334,,,,,7.62,,56,273,,,1,,KMKE 201921Z 03015G24KT 1SM R01L/2200VP6000FT +TSRA BR FEW005  BKN027CB OVC033 21/19 A2988 RMK AO2 SFC VIS 1 1/2 LTG DSNT  ALQDS RAB00 OCNL LTGICCC NE-SE TS NE-SE MOV SE P0030  T02060189,,,,822.96,,,,,,NNE,,"heavy rain/thunderstorm,mist","heavy rain/thunderstorm,mist",,,,18.89,98571.49,101120.26
KMKE,07/20/2019 19:25 UTC,101151.38,21,,88.37,6.69,30,,,,2481,334,,,,,9.398,,56,153,,,1.5,,METAR KMKE 201925Z AUTO 03013KT 1 1/2SM RA BR FEW005 BKN015 OVC033 21/19 A2987 RMK P0037,,,,457.2,,,,,,NNE,,"rain,mist","rain,mist",,,,18.99,98538.5,101082.92
KMKE,07/20/2019 19:30 UTC,101252.97,21,,88.37,3.6,40,,,,2493,334,,,,,10.922,,36,153,,,1.5,,METAR KMKE 201930Z AUTO 04007KT 1 1/2SM -RA BR FEW003 BKN015 OVC033 21/19 A2990 RMK P0043,,,,457.2,,,,,,NE,,"light rain,mist","light rain,mist",,,,18.99,98637.47,101184.45
KMKE,07/20/2019 19:35 UTC,101252.97,21,,88.37,4.12,60,,,,2481,1104,,,,,11.176,,52,153,,,6,,METAR KMKE 201935Z AUTO 06008KT 6SM RA BR SCT005 BKN015 OVC110 21/19 A2990 RMK P0044,,,,457.2,,,,,,ENE,,"rain,mist","rain,mist",,,,18.99,98637.47,101184.45
KMKE,07/20/2019 19:40 UTC,101219.11,21,,88.37,3.6,60,,,,2481,1104,,,,,11.43,,52,153,,,4,,METAR KMKE 201940Z AUTO 06007KT 4SM RA BR SCT005 BKN015 OVC110 21/19 A2989 RMK P0045,,,,457.2,,,,,,ENE,,"rain,mist","rain,mist",,,,18.99,98604.49,101150.61
KMKE,07/20/2019 19:42 UTC,101185.24,20.6,19.4,92.85,4.12,80,,,,2546,1104,,,,,11.43,,53,153,,,1,,KMKE 201942Z 08008KT 1SM R01L/P6000FT TSRA BR BKN005 BKN015CB  OVC110 21/19 A2988 RMK AO2 SFC VIS 3 LTG DSNT ALQDS RAB00  OCNL LTGICCCCG OHD-SE TS OHD-SE MOV SE P0045 T02060194,,,,152.4,,,,,,E,,"thunderstorm,mist","thunderstorm,mist",,,,19.4,98571.49,101120.26
KMKE,07/20/2019 19:45 UTC,101185.24,21,,88.37,4.12,70,,,,2481,1104,,,,,11.684,,53,153,,,3,,METAR KMKE 201945Z AUTO 07008KT 3SM RA BR BKN005 BKN015 OVC110 21/19 A2988 RMK P0046,,,,152.4,,,,,,ENE,,"rain,mist","rain,mist",,,,18.99,98571.49,101116.76
KMKE,07/20/2019 19:50 UTC,101185.24,21,,88.37,3.6,40,,,,2493,1104,,,,,11.938,,53,153,,,4,,METAR KMKE 201950Z AUTO 04007KT 4SM -RA BR BKN005 BKN015 OVC110 21/19 A2988 RMK P0047,,,,152.4,,,,,,NE,,"light rain,mist","light rain,mist",,,,18.99,98571.49,101116.76
KMKE,07/20/2019 19:52 UTC,101185.24,20.6,19.4,92.85,3.6,30,,,101150,77,1104,,,,,12.192,,32,153,,,3,,KMKE 201952Z 03007KT 3SM -TSRA SCT003 BKN015CB OVC110 21/19 A2988 RMK AO2 SFC VIS 8 LTG DSNT ALQDS RAB00 SLP115 OCNL LTGICCCCG  SE TS SE MOV SE P0048 T02060194,,,,457.2,,,,,,NNE,,light rain/thunderstorm,light rain/thunderstorm,,,,19.4,98571.49,101120.26
KMKE,07/20/2019 19:55 UTC,101185.24,21,,88.37,5.14,30,,,,13,1104,,,,,,,32,153,,,7,,METAR KMKE 201955Z AUTO 03010KT 7SM -RA SCT003 BKN015 OVC110 21/19 A2988,,,,457.2,,,,,,NNE,,light rain,light rain,,,,18.99,98571.49,101116.76
KMKE,07/20/2019 20:00 UTC,101219.11,21,,88.37,3.6,80,,,,,1104,,,,,,,32,153,,,10,,METAR KMKE 202000Z AUTO 08007KT 10SM SCT003 BKN015 OVC110 21/19 A2989,,,,457.2,,,,,,E,,,overcast,,,,18.99,98604.49,101150.61