Station_ID,time,altimeter_set_1,air_temp,dew_point_temp,relative_humidity_set_1,wind_speed,wind_direction,wind_gust_set_1,snow_depth_set_1,sea_level_pressure_set_1,weather_cond_code_set_1,cloud_layer_3_code_set_1,cloud_low_symbol_set_1,cloud_mid_symbol_set_1,cloud_high_symbol_set_1,pressure_tendency_set_1,precip_accum_one_hour_set_1,precip_accum_three_hour_set_1,cloud_layer_1_code_set_1,cloud_layer_2_code_set_1,precip_accum_six_hour_set_1,precip_accum_24_hour_set_1,visibility_set_1,metar_remark_set_1,metar_set_1,air_temp_high_6_hour_set_1,air_temp_low_6_hour_set_1,peak_wind_speed_set_1,ceiling_set_1,pressure_change_code_set_1,air_temp_high_24_hour_set_1,air_temp_low_24_hour_set_1,peak_wind_direction_set_1,wind_chill_set_1d,wind_cardinal_direction_set_1d,heat_index_set_1d,weather_condition_set_1d,weather_summary_set_1d,cloud_layer_1_set_1d,cloud_layer_2_set_1d,cloud_layer_3_set_1d,dew_point_temperature_set_1d,pressure,sea_level_pressure_set_1d
KMKE,07/08/2020 18:00 UTC,101456.16,31,,58.89,0,0,,,,,,,,,,,,376,,,,10,,METAR KMKE 081800Z AUTO 00000KT 10SM FEW037 31/22 A2996,,,,,,,,,,N,34.57,,thin scattered,,,,22.04,98835.41,101302.69
KMKE,07/08/2020 18:05 UTC,101456.16,31,,58.89,,,,,,,,,,,,,,376,,,,10,,METAR KMKE 081805Z AUTO 10SM FEW037 31/22 A2996,,,,,,,,,,,34.57,,thin scattered,,,,22.04,98835.41,101302.69
KMKE,07/08/2020 18:10 UTC,101456.16,30,,62.35,5.14,110,,,,,,,,,,,,372,,,,10,,METAR KMKE 081810Z AUTO 11010KT 10SM SCT037 30/22 A2996,,,,,,,,,,ESE,33.31,,scattered,,,,22.03,98835.41,101310.91
KMKE,07/08/2020 18:15 UTC,101456.16,29,,66.04,4.12,90,,,,,,,,,,,,372,,,,10,,METAR KMKE 081815Z AUTO 09008KT 10SM SCT037 29/22 A2996,,,,,,,,,,E,32.02,,scattered,,,,22.02,98835.41,101319.19
KMKE,07/08/2020 18:20 UTC,101422.29,29,,66.04,4.63,100,,,,,,,,,,,,372,,,,10,,METAR KMKE 081820Z AUTO 10009KT 10SM SCT037 29/22 A2995,,,,,,,,,,E,32.02,,scattered,,,,22.02,98802.42,101285.37
KMKE,07/08/2020 18:25 UTC,101422.29,29,,66.04,4.63,100,,,,,,,,,,,,372,,,,10,,METAR KMKE 081825Z AUTO 10009KT 10SM SCT037 29/22 A2995,,,,,,,,,,E,32.02,,scattered,,,,22.02,98802.42,101285.37
KMKE,07/08/2020 18:30 UTC,101422.29,29,,66.04,5.14,110,,,,,,,,,,,,372,,,,10,,METAR KMKE 081830Z AUTO 11010KT 10SM SCT037 29/22 A2995,,,,,,,,,,ESE,32.02,,scattered,,,,22.02,98802.42,101285.37
KMKE,07/08/2020 18:35 UTC,101422.29,29,,66.04,4.12,120,,,,,,,,,,,,382,,,,10,,METAR KMKE 081835Z AUTO 12008KT 10SM SCT038 29/22 A2995,,,,,,,,,,ESE,32.02,,scattered,,,,22.02,98802.42,101285.37
KMKE,07/08/2020 18:40 UTC,101422.29,29,,66.04,4.63,100,,,,,,,,,,,,382,452,,,10,,METAR KMKE 081840Z AUTO 10009KT 10SM SCT038 SCT045 29/22 A2995,,,,,,,,,,E,32.02,,scattered,,,,22.02,98802.42,101285.37
KMKE,07/08/2020 18:45 UTC,101422.29,29,,70.17,4.63,110,,,,,,,,,,,,382,,,,10,,METAR KMKE 081845Z AUTO 11009KT 10SM SCT038 29/23 A2995,,,,,,,,,,ESE,32.76,,scattered,,,,23.02,98802.42,101285.34
KMKE,07/08/2020 18:50 UTC,101422.29,30,,66.25,4.63,100,,,,,,,,,,,,382,1202,,,10,,METAR KMKE 081850Z AUTO 10009KT 10SM SCT038 SCT120 30/23 A2995,,,,,,,,,,E,34.16,,scattered,,,,23.03,98802.42,101277.07
KMKE,07/08/2020 18:52 UTC,101388.43,30,22.8,65.45,4.12,100,,,101330,,2502,,,,,,,382,1202,,,10,,KMKE 081852Z 10008KT 10SM SCT038TCU SCT120 SCT250 30/23 A2994 RMK AO2 SLP133 TCU NW T03000228,,,,,,,,,,E,33.98,,scattered,,,,22.83,98769.43,101243.26
KMKE,07/08/2020 18:55 UTC,101388.43,29,,70.17,5.66,100,,,,,,,,,,,,386,,,,10,,METAR KMKE 081855Z AUTO 10011KT 10SM FEW038 29/23 A2994,,,,,,,,,,E,32.76,,thin scattered,,,,23.02,98769.43,101251.53
KMKE,07/08/2020 19:00 UTC,101388.43,29,,70.17,5.66,100,,,,,,,,,,,,382,1202,,,10,,METAR KMKE 081900Z AUTO 10011KT 10SM SCT038 SCT120 29/23 A2994,,,,,,,,,,E,32.76,,scattered,,,,23.02,98769.43,101251.53
KMKE,07/08/2020 19:05 UTC,101388.43,29,,70.17,5.14,100,,,,,,,,,,,,382,1202,,,10,,METAR KMKE 081905Z AUTO 10010KT 10SM SCT038 SCT120 29/23 A2994,,,,,,,,,,E,32.76,,scattered,,,,23.02,98769.43,101251.53
KMKE,07/08/2020 19:10 UTC,101388.43,29,,66.04,4.63,110,,,,,,,,,,,,382,1202,,,10,,METAR KMKE 081910Z AUTO 11009KT 10SM SCT038 SCT120 29/22 A2994,,,,,,,,,,ESE,32.02,,scattered,,,,22.02,98769.43,101251.55
KMKE,07/08/2020 19:15 UTC,101354.56,29,,66.04,5.14,120,,,,,,,,,,,,382,1202,,,10,,METAR KMKE 081915Z AUTO 12010KT 10SM SCT038 SCT120 29/22 A2993,,,,,,,,,,ESE,32.02,,scattered,,,,22.02,98736.44,101217.73
KMKE,07/08/2020 19:20 UTC,101354.56,29,,70.17,5.66,110,,,,,,,,,,,,382,1202,,,10,,METAR KMKE 081920Z AUTO 11011KT 10SM SCT038 SCT120 29/23 A2993,,,,,,,,,,ESE,32.76,,scattered,,,,23.02,98736.44,101217.71
KMKE,07/08/2020 19:25 UTC,101354.56,28,,69.98,5.14,110,,,,,,,,,,,,382,1202,,,10,,METAR KMKE 081925Z AUTO 11010KT 10SM SCT038 SCT120 28/22 A2993,,,,,,,,,,ESE,30.66,,scattered,,,,22.01,98736.44,101226.05
KMKE,07/08/2020 19:30 UTC,101320.7,28,,69.98,5.14,100,,,,,,,,,,,,382,1202,,,10,,METAR KMKE 081930Z AUTO 10010KT 10SM SCT038 SCT120 28/22 A2992,,,,,,,,,,E,30.66,,scattered,,,,22.01,98703.45,101192.23
KMKE,07/08/2020 19:35 UTC,101320.7,29,,70.17,4.63,90,,,,,,,,,,,,382,1202,,,10,,METAR KMKE 081935Z AUTO 09009KT 10SM SCT038 SCT120 29/23 A2992,,,,,,,,,,E,32.76,,scattered,,,,23.02,98703.45,101183.89
KMKE,07/08/2020 19:40 UTC,101320.7,28,,69.98,4.63,110,,,,,,,,,,,,382,1202,,,10,,METAR KMKE 081940Z AUTO 11009KT 10SM SCT038 SCT120 28/22 A2992,,,,,,,,,,ESE,30.66,,scattered,,,,22.01,98703.45,101192.23
KMKE,07/08/2020 19:45 UTC,101286.84,28,,69.98,3.6,100,,,,,,,,,,,,382,1202,,,10,,METAR KMKE 081945Z AUTO 10007KT 10SM SCT038 SCT120 28/22 A2991,,,,,,,,,,E,30.66,,scattered,,,,22.01,98670.47,101158.41
KMKE,07/08/2020 19:50 UTC,101286.84,29,,66.04,4.63,110,,,,,803,,,,,,,382,453,,,10,,METAR KMKE 081950Z AUTO 11009KT 10SM SCT038 BKN045 BKN080 29/22 A2991,,,,1371.6,,,,,,ESE,32.02,,broken,,,,22.02,98670.47,101150.09
KMKE,07/08/2020 19:52 UTC,101286.84,28.9,21.7,65.22,4.63,100,,,101230,13,,,,,,0.025,,413,953,,,10,,KMKE 081952Z 10009KT 10SM -RA BKN041TCU BKN095 29/22 A2991 RMK AO2  RAB52 SLP123 TCU W P0000 T02890217,,,,1249.68,,,,,,E,31.69,light rain,light rain,,,,21.72,98670.47,101150.93
KMKE,07/08/2020 19:55 UTC,101286.84,29,,66.04,4.12,100,,,,,753,,,,,,,376,442,,,10,,METAR KMKE 081955Z AUTO 10008KT 10SM FEW037 SCT044 BKN075 29/22 A2991,,,,2286,,,,,,E,32.02,,broken,,,,22.02,98670.47,101150.09
KMKE,07/08/2020 20:00 UTC,101286.84,29,,66.04,4.63,100,,,,,903,,,,,,,423,753,,,10,,METAR KMKE 082000Z AUTO 10009KT 10SM BKN042 BKN075 BKN090 29/22 A2991,,,,1280.16,,,,,,E,32.02,,broken,,,,22.02,98670.47,101150.09
KMKE,07/08/2020 20:05 UTC,101286.84,29,,66.04,4.63,100,,,,,903,,,,,,,422,753,,,10,,METAR KMKE 082005Z AUTO 10009KT 10SM SCT042 BKN075 BKN090 29/22 A2991,,,,2286,,,,,,E,32.02,,broken,,,,22.02,98670.47,101150.09
KMKE,07/08/2020 20:10 UTC,101252.97,29,,66.04,4.63,110,,,,,902,,,,,,,426,752,,,10,,METAR KMKE 082010Z AUTO 11009KT 10SM FEW042 SCT075 SCT090 29/22 A2990,,,,,,,,,,ESE,32.02,,scattered,,,,22.02,98637.47,101116.27
KMKE,07/08/2020 20:15 UTC,101252.97,29,,66.04,5.14,110,,,,,906,,,,,,,396,466,,,10,,METAR KMKE 082015Z AUTO 11010KT 10SM FEW039 FEW046 FEW090 29/22 A2990,,,,,,,,,,ESE,32.02,,thin scattered,,,,22.02,98637.47,101116.27
KMKE,07/08/2020 20:20 UTC,101252.97,29,,66.04,5.14,120,,,,,,,,,,,,396,,,,10,,METAR KMKE 082020Z AUTO 12010KT 10SM FEW039 29/22 A2990,,,,,,,,,,ESE,32.02,,thin scattered,,,,22.02,98637.47,101116.27
KMKE,07/08/2020 20:25 UTC,101252.97,29,,66.04,6.17,110,,,,,,,,,,,,416,,,,10,,METAR KMKE 082025Z AUTO 11012KT 10SM FEW041 29/22 A2990,,,,,,,,,,ESE,32.02,,thin scattered,,,,22.02,98637.47,101116.27
KMKE,07/08/2020 20:30 UTC,101219.11,29,,66.04,4.12,130,,,,,,,,,,,,1,,,,10,,METAR KMKE 082030Z AUTO 13008KT 10SM CLR 29/22 A2989,,,,,,,,,,SE,32.02,,clear,,,,22.02,98604.49,101082.45
KMKE,07/08/2020 20:35 UTC,101219.11,29,,66.04,5.66,130,,,,,,,,,,,,1,,,,10,,METAR KMKE 082035Z AUTO 13011KT 10SM CLR 29/22 A2989,,,,,,,,,,SE,32.02,,clear,,,,22.02,98604.49,101082.45
KMKE,07/08/2020 20:45 UTC,101219.11,29,,66.04,,,,,,,,,,,,,,1,,,,10,,METAR KMKE 082045Z AUTO 10SM CLR 29/22 A2989,,,,,,,,,,,32.02,,clear,,,,22.02,98604.49,101082.45
KMKE,07/08/2020 20:50 UTC,101219.11,29,,66.04,,,,,,,,,,,,,,456,,,,10,,METAR KMKE 082050Z AUTO 10SM FEW045 29/22 A2989,,,,,,,,,,,32.02,,thin scattered,,,,22.02,98604.49,101082.45
KMKE,07/08/2020 20:52 UTC,101219.11,29.4,21.7,63.37,5.14,130,,,101150,,,,,,8023,0.025,0.025,406,2506,,,10,,KMKE 082052Z 13010KT 10SM FEW040TCU FEW250 29/22 A2989 RMK AO2  RAE1955 SLP115 TCU SW-W P0000 60000 T02940217 58023,,,,,,,,,,SE,32.33,,thin scattered,,,,21.73,98604.49,101079.15
KMKE,07/08/2020 20:55 UTC,101219.11,30,,62.35,4.12,140,,,,,,,,,,,,1,,,,10,,METAR KMKE 082055Z AUTO 14008KT 10SM CLR 30/22 A2989,,,,,,,,,,SE,33.31,,clear,,,,22.03,98604.49,101074.2
KMKE,07/08/2020 21:00 UTC,101185.24,29,,66.04,4.63,140,,,,,,,,,,,,1,,,,10,,METAR KMKE 082100Z AUTO 14009KT 10SM CLR 29/22 A2988,,,,,,,,,,SE,32.02,,clear,,,,22.02,98571.49,101048.63
KMKE,07/08/2020 21:05 UTC,101185.24,29,,66.04,4.63,120,,,,,,,,,,,,1,,,,10,,METAR KMKE 082105Z AUTO 12009KT 10SM CLR 29/22 A2988,,,,,,,,,,ESE,32.02,,clear,,,,22.02,98571.49,101048.63
KMKE,07/08/2020 21:10 UTC,101185.24,29,,66.04,4.63,130,,,,,,,,,,,,1,,,,10,,METAR KMKE 082110Z AUTO 13009KT 10SM CLR 29/22 A2988,,,,,,,,,,SE,32.02,,clear,,,,22.02,98571.49,101048.63
KMKE,07/08/2020 21:15 UTC,101185.24,30,,62.35,4.12,130,,,,,,,,,,,,1,,,,10,,METAR KMKE 082115Z AUTO 13008KT 10SM CLR 30/22 A2988,,,,,,,,,,SE,33.31,,clear,,,,22.03,98571.49,101040.38
KMKE,07/08/2020 21:20 UTC,101185.24,30,,62.35,5.14,110,,,,,,,,,,,,1,,,,10,,METAR KMKE 082120Z AUTO 11010KT 10SM CLR 30/22 A2988,,,,,,,,,,ESE,33.31,,clear,,,,22.03,98571.49,101040.38
KMKE,07/08/2020 21:25 UTC,101185.24,29,,66.04,5.14,120,,,,,,,,,,,,1,,,,10,,METAR KMKE 082125Z AUTO 12010KT 10SM CLR 29/22 A2988,,,,,,,,,,ESE,32.02,,clear,,,,22.02,98571.49,101048.63
KMKE,07/08/2020 21:30 UTC,101185.24,29,,66.04,5.14,120,,,,,,,,,,,,1,,,,10,,METAR KMKE 082130Z AUTO 12010KT 10SM CLR 29/22 A2988,,,,,,,,,,ESE,32.02,,clear,,,,22.02,98571.49,101048.63
KMKE,07/08/2020 21:35 UTC,101151.38,29,,62.13,5.66,120,,,,,,,,,,,,1,,,,10,,METAR KMKE 082135Z AUTO 12011KT 10SM CLR 29/21 A2987,,,,,,,,,,ESE,31.37,,clear,,,,21.02,98538.5,101014.83
KMKE,07/08/2020 21:40 UTC,101151.38,29,,66.04,5.66,120,,,,,,,,,,,,1,,,,10,,METAR KMKE 082140Z AUTO 12011KT 10SM CLR 29/22 A2987,,,,,,,,,,ESE,32.02,,clear,,,,22.02,98538.5,101014.81
KMKE,07/08/2020 21:45 UTC,101151.38,29,,66.04,5.14,130,,,,,,,,,,,,1,,,,10,,METAR KMKE 082145Z AUTO 13010KT 10SM CLR 29/22 A2987,,,,,,,,,,SE,32.02,,clear,,,,22.02,98538.5,101014.81
KMKE,07/08/2020 21:50 UTC,101151.38,29,,66.04,6.17,140,,,,,,,,,,,,1,,,,10,,METAR KMKE 082150Z AUTO 14012KT 10SM CLR 29/22 A2987,,,,,,,,,,SE,32.02,,clear,,,,22.02,98538.5,101014.81
KMKE,07/08/2020 21:52 UTC,101151.38,29.4,21.1,61.09,7.2,140,,,101080,,,,,,,,,456,1806,,,10,,KMKE 082152Z 14014KT 10SM FEW045 FEW180 29/21 A2987 RMK AO2 SLP108  T02940211,,,,,,,,,,SE,31.92,,thin scattered,,,,21.13,98538.5,101011.53
KMKE,07/08/2020 21:55 UTC,101117.52,29,,62.13,7.72,140,,,,,,,,,,,,1,,,,10,,METAR KMKE 082155Z AUTO 14015KT 10SM CLR 29/21 A2986,,,,,,,,,,SE,31.37,,clear,,,,21.02,98505.52,100981.03
KMKE,07/08/2020 22:00 UTC,101117.52,29,,62.13,6.69,140,,,,,,,,,,,,1,,,,10,,METAR KMKE 082200Z AUTO 14013KT 10SM CLR 29/21 A2986,,,,,,,,,,SE,31.37,,clear,,,,21.02,98505.52,100981.03
KMKE,07/08/2020 22:05 UTC,101117.52,29,,62.13,7.2,140,,,,,,,,,,,,1,,,,10,,METAR KMKE 082205Z AUTO 14014KT 10SM CLR 29/21 A2986,,,,,,,,,,SE,31.37,,clear,,,,21.02,98505.52,100981.03
KMKE,07/08/2020 22:10 UTC,101117.52,29,,62.13,,,,,,,,,,,,,,1,,,,10,,METAR KMKE 082210Z AUTO 10SM CLR 29/21 A2986,,,,,,,,,,,31.37,,clear,,,,21.02,98505.52,100981.03
KMKE,07/08/2020 22:15 UTC,101083.65,29,,62.13,7.2,140,,,,,,,,,,,,1,,,,10,,METAR KMKE 082215Z AUTO 14014KT 10SM CLR 29/21 A2985,,,,,,,,,,SE,31.37,,clear,,,,21.02,98472.52,100947.21
KMKE,07/08/2020 22:20 UTC,101083.65,29,,62.13,6.69,140,,,,,,,,,,,,1,,,,10,,METAR KMKE 082220Z AUTO 14013KT 10SM CLR 29/21 A2985,,,,,,,,,,SE,31.37,,clear,,,,21.02,98472.52,100947.21
KMKE,07/08/2020 22:25 UTC,101117.52,29,,66.04,6.17,160,,,,,,,,,,,,1,,,,10,,METAR KMKE 082225Z AUTO 16012KT 10SM CLR 29/22 A2986,,,,,,,,,,SSE,32.02,,clear,,,,22.02,98505.52,100981
KMKE,07/08/2020 22:30 UTC,101117.52,29,,66.04,5.14,150,,,,,,,,,,,,1,,,,10,,METAR KMKE 082230Z AUTO 15010KT 10SM CLR 29/22 A2986,,,,,,,,,,SSE,32.02,,clear,,,,22.02,98505.52,100981
KMKE,07/08/2020 22:35 UTC,101117.52,29,,62.13,5.14,150,,,,,,,,,,,,1,,,,10,,METAR KMKE 082235Z AUTO 15010KT 10SM CLR 29/21 A2986,,,,,,,,,,SSE,31.37,,clear,,,,21.02,98505.52,100981.03
KMKE,07/08/2020 22:40 UTC,101117.52,29,,66.04,5.14,140,,,,,,,,,,,,1,,,,10,,METAR KMKE 082240Z AUTO 14010KT 10SM CLR 29/22 A2986,,,,,,,,,,SE,32.02,,clear,,,,22.02,98505.52,100981
KMKE,07/08/2020 22:45 UTC,101117.52,30,,62.35,4.12,150,,,,,,,,,,,,1,,,,10,,METAR KMKE 082245Z AUTO 15008KT 10SM CLR 30/22 A2986,,,,,,,,,,SSE,33.31,,clear,,,,22.03,98505.52,100972.76
KMKE,07/08/2020 22:50 UTC,101117.52,30,,62.35,4.63,130,,,,,,,,,,,,1,,,,10,,METAR KMKE 082250Z AUTO 13009KT 10SM CLR 30/22 A2986,,,,,,,,,,SE,33.31,,clear,,,,22.03,98505.52,100972.76
KMKE,07/08/2020 22:52 UTC,101117.52,30,21.7,61.22,4.63,130,,,101060,,2502,,,,,,,456,1806,,,10,,KMKE 082252Z 13009KT 10SM FEW045 FEW180 SCT250 30/22 A2986 RMK AO2  SLP106 T03000217,,,,,,,,,,SE,33.08,,scattered,,,,21.73,98505.52,100972.76
KMKE,07/08/2020 22:55 UTC,101117.52,30,,62.35,5.66,140,,,,,,,,,,,,1,,,,10,,METAR KMKE 082255Z AUTO 14011KT 10SM CLR 30/22 A2986,,,,,,,,,,SE,33.31,,clear,,,,22.03,98505.52,100972.76
KMKE,07/08/2020 23:00 UTC,101117.52,30,,62.35,4.12,130,,,,,,,,,,,,1,,,,10,,METAR KMKE 082300Z AUTO 13008KT 10SM CLR 30/22 A2986,,,,,,,,,,SE,33.31,,clear,,,,22.03,98505.52,100972.76
KMKE,07/08/2020 23:05 UTC,101117.52,30,,62.35,3.6,130,,,,,,,,,,,,1,,,,10,,METAR KMKE 082305Z AUTO 13007KT 10SM CLR 30/22 A2986,,,,,,,,,,SE,33.31,,clear,,,,22.03,98505.52,100972.76
KMKE,07/08/2020 23:10 UTC,101151.38,29,,66.04,3.6,130,,,,,,,,,,,,1,,,,10,,METAR KMKE 082310Z AUTO 13007KT 10SM CLR 29/22 A2987,,,,,,,,,,SE,32.02,,clear,,,,22.02,98538.5,101014.81
KMKE,07/08/2020 23:15 UTC,101151.38,29,,66.04,3.6,130,,,,,,,,,,,,1,,,,10,,METAR KMKE 082315Z AUTO 13007KT 10SM CLR 29/22 A2987,,,,,,,,,,SE,32.02,,clear,,,,22.02,98538.5,101014.81
KMKE,07/08/2020 23:20 UTC,101151.38,29,,66.04,4.12,130,,,,,,,,,,,,1,,,,10,,METAR KMKE 082320Z AUTO 13008KT 10SM CLR 29/22 A2987,,,,,,,,,,SE,32.02,,clear,,,,22.02,98538.5,101014.81
KMKE,07/08/2020 23:25 UTC,101151.38,29,,66.04,3.6,150,,,,,,,,,,,,1,,,,10,,METAR KMKE 082325Z AUTO 15007KT 10SM CLR 29/22 A2987,,,,,,,,,,SSE,32.02,,clear,,,,22.02,98538.5,101014.81
KMKE,07/08/2020 23:30 UTC,101185.24,29,,62.13,4.63,180,,,,,,,,,,,,1,,,,10,,METAR KMKE 082330Z AUTO 18009KT 10SM CLR 29/21 A2988,,,,,,,,,,S,31.37,,clear,,,,21.02,98571.49,101048.65
KMKE,07/08/2020 23:35 UTC,101185.24,29,,62.13,3.09,150,,,,,,,,,,,,1,,,,10,,METAR KMKE 082335Z AUTO 15006KT 10SM CLR 29/21 A2988,,,,,,,,,,SSE,31.37,,clear,,,,21.02,98571.49,101048.65
KMKE,07/08/2020 23:40 UTC,101185.24,29,,62.13,4.12,170,,,,,,,,,,,,1,,,,10,,METAR KMKE 082340Z AUTO 17008KT 10SM CLR 29/21 A2988,,,,,,,,,,S,31.37,,clear,,,,21.02,98571.49,101048.65
KMKE,07/08/2020 23:45 UTC,101185.24,29,,62.13,4.12,170,,,,,,,,,,,,1,,,,10,,METAR KMKE 082345Z AUTO 17008KT 10SM CLR 29/21 A2988,,,,,,,,,,S,31.37,,clear,,,,21.02,98571.49,101048.65
KMKE,07/08/2020 23:50 UTC,101185.24,29,,62.13,4.12,170,,,,,,,,,,,,456,,,,10,,METAR KMKE 082350Z AUTO 17008KT 10SM FEW045 29/21 A2988,,,,,,,,,,S,31.37,,thin scattered,,,,21.02,98571.49,101048.65
KMKE,07/08/2020 23:52 UTC,101185.24,28.9,21.1,62.87,4.12,160,,,101120,,2502,,,,5003,,,456,1806,0.025,,10,,KMKE 082352Z 16008KT 10SM FEW045 FEW180 SCT250 29/21 A2988 RMK AO2  SLP112 60000 T02890211 10311 20278 55003,31.1,27.8,,,,,,,,SSE,31.31,,scattered,,,,21.12,98571.49,101049.48
KMKE,07/08/2020 23:55 UTC,101185.24,29,,62.13,4.63,160,,,,,,,,,,,,456,,,,10,,METAR KMKE 082355Z AUTO 16009KT 10SM FEW045 29/21 A2988,,,,,,,,,,SSE,31.37,,thin scattered,,,,21.02,98571.49,101048.65
KMKE,07/09/2020 00:00 UTC,101185.24,29,,62.13,3.6,160,,,,,,,,,,,,456,,,,10,,METAR KMKE 090000Z AUTO 16007KT 10SM FEW045 29/21 A2988,,,,,,,,,,SSE,31.37,,thin scattered,,,,21.02,98571.49,101048.65
KMKE,07/09/2020 00:05 UTC,101185.24,29,,62.13,4.12,160,,,,,,,,,,,,456,,,,10,,METAR KMKE 090005Z AUTO 16008KT 10SM FEW045 29/21 A2988,,,,,,,,,,SSE,31.37,,thin scattered,,,,21.02,98571.49,101048.65
KMKE,07/09/2020 00:10 UTC,101185.24,29,,62.13,4.63,170,,,,,,,,,,,,456,,,,10,,METAR KMKE 090010Z AUTO 17009KT 10SM FEW045 29/21 A2988,,,,,,,,,,S,31.37,,thin scattered,,,,21.02,98571.49,101048.65
KMKE,07/09/2020 00:15 UTC,101185.24,29,,62.13,4.63,170,,,,,,,,,,,,456,,,,10,,METAR KMKE 090015Z AUTO 17009KT 10SM FEW045 29/21 A2988,,,,,,,,,,S,31.37,,thin scattered,,,,21.02,98571.49,101048.65
KMKE,07/09/2020 00:20 UTC,101185.24,29,,62.13,4.63,160,,,,,,,,,,,,456,,,,10,,METAR KMKE 090020Z AUTO 16009KT 10SM FEW045 29/21 A2988,,,,,,,,,,SSE,31.37,,thin scattered,,,,21.02,98571.49,101048.65
KMKE,07/09/2020 00:25 UTC,101185.24,29,,62.13,3.6,160,,,,,,,,,,,,456,,,,10,,METAR KMKE 090025Z AUTO 16007KT 10SM FEW045 29/21 A2988,,,,,,,,,,SSE,31.37,,thin scattered,,,,21.02,98571.49,101048.65
KMKE,07/09/2020 00:30 UTC,101185.24,28,,65.83,3.6,170,,,,,,,,,,,,456,,,,10,,METAR KMKE 090030Z AUTO 17007KT 10SM FEW045 28/21 A2988,,,,,,,,,,S,30.13,,thin scattered,,,,21.01,98571.49,101056.96
KMKE,07/09/2020 00:35 UTC,101185.24,28,,65.83,3.09,160,,,,,,,,,,,,456,,,,10,,METAR KMKE 090035Z AUTO 16006KT 10SM FEW045 28/21 A2988,,,,,,,,,,SSE,30.13,,thin scattered,,,,21.01,98571.49,101056.96
KMKE,07/09/2020 00:40 UTC,101185.24,28,,65.83,3.6,170,,,,,,,,,,,,456,,,,10,,METAR KMKE 090040Z AUTO 17007KT 10SM FEW045 28/21 A2988,,,,,,,,,,S,30.13,,thin scattered,,,,21.01,98571.49,101056.96
KMKE,07/09/2020 00:45 UTC,101185.24,28,,65.83,3.09,160,,,,,,,,,,,,456,,,,10,,METAR KMKE 090045Z AUTO 16006KT 10SM FEW045 28/21 A2988,,,,,,,,,,SSE,30.13,,thin scattered,,,,21.01,98571.49,101056.96
KMKE,07/09/2020 00:50 UTC,101185.24,28,,65.83,3.09,160,,,,,,,,,,,,406,,,,10,,METAR KMKE 090050Z AUTO 16006KT 10SM FEW040 28/21 A2988,,,,,,,,,,SSE,30.13,,thin scattered,,,,21.01,98571.49,101056.96
KMKE,07/09/2020 00:52 UTC,101185.24,28.3,21.1,65.09,3.6,160,,,101110,,2502,,,,,,,406,1806,,,10,,KMKE 090052Z 16007KT 10SM FEW040 FEW180 SCT250 28/21 A2988 RMK AO2  SLP111 T02830211,,,,,,,,,,SSE,30.56,,scattered,,,,21.12,98571.49,101054.46
KMKE,07/09/2020 00:55 UTC,101185.24,28,,65.83,3.09,160,,,,,,,,,,,,1,,,,10,,METAR KMKE 090055Z AUTO 16006KT 10SM CLR 28/21 A2988,,,,,,,,,,SSE,30.13,,clear,,,,21.01,98571.49,101056.96
KMKE,07/09/2020 01:00 UTC,101219.11,28,,65.83,2.57,160,,,,,,,,,,,,1,,,,10,,METAR KMKE 090100Z AUTO 16005KT 10SM CLR 28/21 A2989,,,,,,,,,,SSE,30.13,,clear,,,,21.01,98604.49,101090.78
KMKE,07/09/2020 01:05 UTC,101219.11,28,,65.83,3.09,160,,,,,,,,,,,,1,,,,10,,METAR KMKE 090105Z AUTO 16006KT 10SM CLR 28/21 A2989,,,,,,,,,,SSE,30.13,,clear,,,,21.01,98604.49,101090.78
KMKE,07/09/2020 01:10 UTC,101219.11,28,,65.83,2.57,170,,,,,,,,,,,,1,,,,10,,METAR KMKE 090110Z AUTO 17005KT 10SM CLR 28/21 A2989,,,,,,,,,,S,30.13,,clear,,,,21.01,98604.49,101090.78
KMKE,07/09/2020 01:15 UTC,101219.11,28,,65.83,2.57,160,,,,,,,,,,,,1,,,,10,,METAR KMKE 090115Z AUTO 16005KT 10SM CLR 28/21 A2989,,,,,,,,,,SSE,30.13,,clear,,,,21.01,98604.49,101090.78
KMKE,07/09/2020 01:20 UTC,101219.11,28,,65.83,3.09,160,,,,,,,,,,,,1,,,,10,,METAR KMKE 090120Z AUTO 16006KT 10SM CLR 28/21 A2989,,,,,,,,,,SSE,30.13,,clear,,,,21.01,98604.49,101090.78
KMKE,07/09/2020 01:25 UTC,101219.11,28,,65.83,3.09,170,,,,,,,,,,,,1,,,,10,,METAR KMKE 090125Z AUTO 17006KT 10SM CLR 28/21 A2989,,,,,,,,,,S,30.13,,clear,,,,21.01,98604.49,101090.78
KMKE,07/09/2020 01:30 UTC,101219.11,28,,65.83,3.09,160,,,,,,,,,,,,1,,,,10,,METAR KMKE 090130Z AUTO 16006KT 10SM CLR 28/21 A2989,,,,,,,,,,SSE,30.13,,clear,,,,21.01,98604.49,101090.78
KMKE,07/09/2020 01:35 UTC,101219.11,27,,69.79,3.6,160,,,,,,,,,,,,1,,,,10,,METAR KMKE 090135Z AUTO 16007KT 10SM CLR 27/21 A2989,,,,,,,,,,SSE,28.84,,clear,,,,21.01,98604.49,101099.15
KMKE,07/09/2020 01:40 UTC,101219.11,28,,65.83,2.57,160,,,,,,,,,,,,1,,,,10,,METAR KMKE 090140Z AUTO 16005KT 10SM CLR 28/21 A2989,,,,,,,,,,SSE,30.13,,clear,,,,21.01,98604.49,101090.78
KMKE,07/09/2020 01:45 UTC,101219.11,27,,69.79,3.09,160,,,,,,,,,,,,1,,,,10,,METAR KMKE 090145Z AUTO 16006KT 10SM CLR 27/21 A2989,,,,,,,,,,SSE,28.84,,clear,,,,21.01,98604.49,101099.15
KMKE,07/09/2020 01:50 UTC,101219.11,27,,69.79,3.09,170,,,,,,,,,,,,,,,,10,,METAR KMKE 090150Z AUTO 17006KT 10SM 27/21 A2989,,,,,,,,,,S,28.84,,,,,,21.01,98604.49,101099.15
KMKE,07/09/2020 01:52 UTC,101219.11,27.2,20.6,67.3,3.6,170,,,101160,,,,,,,,,2006,2503,,,10,,KMKE 090152Z 17007KT 10SM FEW200 BKN250 27/21 A2989 RMK AO2 SLP116  T02720206,,,,7620,,,,,,S,28.95,,broken,,,,20.61,98604.49,101097.48
KMKE,07/09/2020 01:55 UTC,101219.11,27,,69.79,3.09,170,,,,,,,,,,,,1,,,,10,,METAR KMKE 090155Z AUTO 17006KT 10SM CLR 27/21 A2989,,,,,,,,,,S,28.84,,clear,,,,21.01,98604.49,101099.15
KMKE,07/09/2020 02:00 UTC,101219.11,27,,69.79,2.57,170,,,,,,,,,,,,1,,,,10,,METAR KMKE 090200Z AUTO 17005KT 10SM CLR 27/21 A2989,,,,,,,,,,S,28.84,,clear,,,,21.01,98604.49,101099.15
KMKE,07/09/2020 02:05 UTC,101252.97,27,,69.79,3.09,170,,,,,,,,,,,,1,,,,10,,METAR KMKE 090205Z AUTO 17006KT 10SM CLR 27/21 A2990,,,,,,,,,,S,28.84,,clear,,,,21.01,98637.47,101132.98
KMKE,07/09/2020 02:10 UTC,101252.97,27,,69.79,3.09,170,,,,,,,,,,,,1,,,,10,,METAR KMKE 090210Z AUTO 17006KT 10SM CLR 27/21 A2990,,,,,,,,,,S,28.84,,clear,,,,21.01,98637.47,101132.98
KMKE,07/09/2020 02:15 UTC,101252.97,27,,69.79,3.09,160,,,,,,,,,,,,1,,,,10,,METAR KMKE 090215Z AUTO 16006KT 10SM CLR 27/21 A2990,,,,,,,,,,SSE,28.84,,clear,,,,21.01,98637.47,101132.98
KMKE,07/09/2020 02:20 UTC,101252.97,27,,69.79,3.09,170,,,,,,,,,,,,1,,,,10,,METAR KMKE 090220Z AUTO 17006KT 10SM CLR 27/21 A2990,,,,,,,,,,S,28.84,,clear,,,,21.01,98637.47,101132.98
KMKE,07/09/2020 02:25 UTC,101252.97,27,,69.79,2.57,160,,,,,,,,,,,,1,,,,10,,METAR KMKE 090225Z AUTO 16005KT 10SM CLR 27/21 A2990,,,,,,,,,,SSE,28.84,,clear,,,,21.01,98637.47,101132.98
KMKE,07/09/2020 02:30 UTC,101252.97,27,,69.79,2.57,160,,,,,,,,,,,,1,,,,10,,METAR KMKE 090230Z AUTO 16005KT 10SM CLR 27/21 A2990,,,,,,,,,,SSE,28.84,,clear,,,,21.01,98637.47,101132.98
KMKE,07/09/2020 02:35 UTC,101252.97,27,,69.79,3.09,170,,,,,,,,,,,,1,,,,10,,METAR KMKE 090235Z AUTO 17006KT 10SM CLR 27/21 A2990,,,,,,,,,,S,28.84,,clear,,,,21.01,98637.47,101132.98
KMKE,07/09/2020 02:40 UTC,101252.97,27,,69.79,2.57,170,,,,,,,,,,,,1,,,,9,,METAR KMKE 090240Z AUTO 17005KT 9SM CLR 27/21 A2990,,,,,,,,,,S,28.84,,clear,,,,21.01,98637.47,101132.98
KMKE,07/09/2020 02:45 UTC,101252.97,27,,69.79,3.09,170,,,,,,,,,,,,1,,,,10,,METAR KMKE 090245Z AUTO 17006KT 10SM CLR 27/21 A2990,,,,,,,,,,S,28.84,,clear,,,,21.01,98637.47,101132.98
KMKE,07/09/2020 02:50 UTC,101252.97,27,,65.62,3.09,170,,,,,,,,,,,,,,,,10,,METAR KMKE 090250Z AUTO 17006KT 10SM 27/20 A2990,,,,,,,,,,S,28.5,,,,,,20.01,98637.47,101133
KMKE,07/09/2020 02:52 UTC,101252.97,26.7,20,66.79,2.57,170,,,101180,,,,,,3007,,,2503,,,,10,,KMKE 090252Z 17005KT 10SM BKN250 27/20 A2990 RMK AO2 SLP118  T02670200 53007,,,,7620,,,,,,S,28.14,,broken,,,,20.01,98637.47,101135.52
KMKE,07/09/2020 02:55 UTC,101252.97,27,,65.62,2.57,180,,,,,,,,,,,,1,,,,10,,METAR KMKE 090255Z AUTO 18005KT 10SM CLR 27/20 A2990,,,,,,,,,,S,28.5,,clear,,,,20.01,98637.47,101133
KMKE,07/09/2020 03:00 UTC,101252.97,27,,65.62,2.57,170,,,,,,,,,,,,1,,,,10,,METAR KMKE 090300Z AUTO 17005KT 10SM CLR 27/20 A2990,,,,,,,,,,S,28.5,,clear,,,,20.01,98637.47,101133
KMKE,07/09/2020 03:05 UTC,101252.97,27,,65.62,3.09,160,,,,,,,,,,,,1,,,,10,,METAR KMKE 090305Z AUTO 16006KT 10SM CLR 27/20 A2990,,,,,,,,,,SSE,28.5,,clear,,,,20.01,98637.47,101133
KMKE,07/09/2020 03:10 UTC,101252.97,26,,69.6,2.57,160,,,,,,,,,,,,1,,,,10,,METAR KMKE 090310Z AUTO 16005KT 10SM CLR 26/20 A2990,,,,,,,,,,SSE,,,clear,,,,20,98637.47,101141.42
KMKE,07/09/2020 03:15 UTC,101252.97,26,,69.6,3.09,160,,,,,,,,,,,,1,,,,10,,METAR KMKE 090315Z AUTO 16006KT 10SM CLR 26/20 A2990,,,,,,,,,,SSE,,,clear,,,,20,98637.47,101141.42
KMKE,07/09/2020 03:20 UTC,101219.11,26,,69.6,2.57,190,,,,,,,,,,,,1,,,,10,,METAR KMKE 090320Z AUTO 19005KT 10SM CLR 26/20 A2989,,,,,,,,,,S,,,clear,,,,20,98604.49,101107.6
KMKE,07/09/2020 03:25 UTC,101219.11,27,,65.62,2.57,170,,,,,,,,,,,,1,,,,10,,METAR KMKE 090325Z AUTO 17005KT 10SM CLR 27/20 A2989,,,,,,,,,,S,28.5,,clear,,,,20.01,98604.49,101099.17
KMKE,07/09/2020 03:30 UTC,101219.11,26,,69.6,2.06,160,,,,,,,,,,,,1,,,,10,,METAR KMKE 090330Z AUTO 16004KT 10SM CLR 26/20 A2989,,,,,,,,,,SSE,,,clear,,,,20,98604.49,101107.6
KMKE,07/09/2020 03:35 UTC,101219.11,26,,69.6,1.54,170,,,,,,,,,,,,1,,,,10,,METAR KMKE 090335Z AUTO 17003KT 10SM CLR 26/20 A2989,,,,,,,,,,S,,,clear,,,,20,98604.49,101107.6
KMKE,07/09/2020 03:40 UTC,101219.11,26,,69.6,1.54,200,,,,,,,,,,,,1,,,,10,,METAR KMKE 090340Z AUTO 20003KT 10SM CLR 26/20 A2989,,,,,,,,,,SSW,,,clear,,,,20,98604.49,101107.6
KMKE,07/09/2020 03:45 UTC,101185.24,26,,69.6,0,0,,,,,,,,,,,,1,,,,10,,METAR KMKE 090345Z AUTO 00000KT 10SM CLR 26/20 A2988,,,,,,,,,,N,,,clear,,,,20,98571.49,101073.77
KMKE,07/09/2020 03:50 UTC,101185.24,26,,69.6,1.54,190,,,,,,,,,,,,,,,,10,,METAR KMKE 090350Z AUTO 19003KT 10SM 26/20 A2988,,,,,,,,,,S,,,,,,,20,98571.49,101073.77
KMKE,07/09/2020 03:52 UTC,101185.24,26.1,20,69.19,1.54,180,,,101130,,,,,,,,,2502,,,,10,,KMKE 090352Z 18003KT 10SM SCT250 26/20 A2988 RMK AO2 SLP113  T02610200,,,,,,,,,,S,,,scattered,,,,20,98571.49,101072.92
KMKE,07/09/2020 03:55 UTC,101185.24,26,,69.6,1.54,200,,,,,,,,,,,,1,,,,10,,METAR KMKE 090355Z AUTO 20003KT 10SM CLR 26/20 A2988,,,,,,,,,,SSW,,,clear,,,,20,98571.49,101073.77
KMKE,07/09/2020 04:00 UTC,101185.24,26,,69.6,1.54,180,,,,,,,,,,,,1,,,,10,,METAR KMKE 090400Z AUTO 18003KT 10SM CLR 26/20 A2988,,,,,,,,,,S,,,clear,,,,20,98571.49,101073.77
KMKE,07/09/2020 04:05 UTC,101185.24,26,,69.6,2.06,180,,,,,,,,,,,,1,,,,10,,METAR KMKE 090405Z AUTO 18004KT 10SM CLR 26/20 A2988,,,,,,,,,,S,,,clear,,,,20,98571.49,101073.77
KMKE,07/09/2020 04:10 UTC,101185.24,27,,65.62,2.06,190,,,,,,,,,,,,1,,,,10,,METAR KMKE 090410Z AUTO 19004KT 10SM CLR 27/20 A2988,,,,,,,,,,S,28.5,,clear,,,,20.01,98571.49,101065.35
KMKE,07/09/2020 04:15 UTC,101219.11,27,,65.62,2.57,190,,,,,,,,,,,,1,,,,10,,METAR KMKE 090415Z AUTO 19005KT 10SM CLR 27/20 A2989,,,,,,,,,,S,28.5,,clear,,,,20.01,98604.49,101099.17
KMKE,07/09/2020 04:20 UTC,101185.24,27,,65.62,3.6,190,,,,,,,,,,,,1,,,,10,,METAR KMKE 090420Z AUTO 19007KT 10SM CLR 27/20 A2988,,,,,,,,,,S,28.5,,clear,,,,20.01,98571.49,101065.35
KMKE,07/09/2020 04:25 UTC,101185.24,27,,65.62,2.57,200,,,,,,,,,,,,1,,,,10,,METAR KMKE 090425Z AUTO 20005KT 10SM CLR 27/20 A2988,,,,,,,,,,SSW,28.5,,clear,,,,20.01,98571.49,101065.35
KMKE,07/09/2020 04:30 UTC,101185.24,27,,65.62,3.09,200,,,,,,,,,,,,1,,,,9,,METAR KMKE 090430Z AUTO 20006KT 9SM CLR 27/20 A2988,,,,,,,,,,SSW,28.5,,clear,,,,20.01,98571.49,101065.35
KMKE,07/09/2020 04:35 UTC,101185.24,27,,65.62,3.09,200,,,,,,,,,,,,1,,,,9,,METAR KMKE 090435Z AUTO 20006KT 9SM CLR 27/20 A2988,,,,,,,,,,SSW,28.5,,clear,,,,20.01,98571.49,101065.35
KMKE,07/09/2020 04:40 UTC,101185.24,26,,69.6,3.09,200,,,,,,,,,,,,1,,,,9,,METAR KMKE 090440Z AUTO 20006KT 9SM CLR 26/20 A2988,,,,,,,,,,SSW,,,clear,,,,20,98571.49,101073.77
KMKE,07/09/2020 04:45 UTC,101185.24,26,,69.6,3.6,190,,,,,,,,,,,,1,,,,10,,METAR KMKE 090445Z AUTO 19007KT 10SM CLR 26/20 A2988,,,,,,,,,,S,,,clear,,,,20,98571.49,101073.77
KMKE,07/09/2020 04:50 UTC,101185.24,27,,61.67,2.57,190,,,,,,,,,,,,,,,,10,,METAR KMKE 090450Z AUTO 19005KT 10SM 27/19 A2988,,,,,,,,,,S,28.2,,,,,,19.01,98571.49,101065.37
KMKE,07/09/2020 04:52 UTC,101185.24,26.1,20,69.19,2.57,200,,,101120,,,,,,,,,2502,,,,10,,KMKE 090452Z 20005KT 10SM SCT250 26/20 A2988 RMK AO2 SLP112  T02610200,,,,,,,,,,SSW,,,scattered,,,,20,98571.49,101072.92
KMKE,07/09/2020 04:55 UTC,101185.24,26,,69.6,2.57,200,,,,,,,,,,,,1,,,,10,,METAR KMKE 090455Z AUTO 20005KT 10SM CLR 26/20 A2988,,,,,,,,,,SSW,,,clear,,,,20,98571.49,101073.77
KMKE,07/09/2020 05:00 UTC,101185.24,26,,69.6,2.06,190,,,,,,,,,,,,1,,,,10,,METAR KMKE 090500Z AUTO 19004KT 10SM CLR 26/20 A2988,,,,,,,,,,S,,,clear,,,,20,98571.49,101073.77
KMKE,07/09/2020 05:05 UTC,101185.24,26,,69.6,2.06,190,,,,,,,,,,,,1,,,,10,,METAR KMKE 090505Z AUTO 19004KT 10SM CLR 26/20 A2988,,,,,,,,,,S,,,clear,,,,20,98571.49,101073.77
KMKE,07/09/2020 05:10 UTC,101185.24,26,,69.6,2.06,190,,,,,,,,,,,,1,,,,10,,METAR KMKE 090510Z AUTO 19004KT 10SM CLR 26/20 A2988,,,,,,,,,,S,,,clear,,,,20,98571.49,101073.77
KMKE,07/09/2020 05:15 UTC,101185.24,26,,69.6,2.06,180,,,,,,,,,,,,1,,,,10,,METAR KMKE 090515Z AUTO 18004KT 10SM CLR 26/20 A2988,,,,,,,,,,S,,,clear,,,,20,98571.49,101073.77
KMKE,07/09/2020 05:20 UTC,101185.24,26,,69.6,2.06,190,,,,,,,,,,,,1,,,,10,,METAR KMKE 090520Z AUTO 19004KT 10SM CLR 26/20 A2988,,,,,,,,,,S,,,clear,,,,20,98571.49,101073.77
KMKE,07/09/2020 05:25 UTC,101185.24,26,,69.6,,,,,,,,,,,,,,1,,,,10,,METAR KMKE 090525Z AUTO 10SM CLR 26/20 A2988,,,,,,,,,,,,,clear,,,,20,98571.49,101073.77
KMKE,07/09/2020 05:30 UTC,101185.24,26,,69.6,2.57,180,,,,,,,,,,,,1,,,,10,,METAR KMKE 090530Z AUTO 18005KT 10SM CLR 26/20 A2988,,,,,,,,,,S,,,clear,,,,20,98571.49,101073.77
KMKE,07/09/2020 05:35 UTC,101185.24,26,,69.6,2.06,190,,,,,,,,,,,,1,,,,10,,METAR KMKE 090535Z AUTO 19004KT 10SM CLR 26/20 A2988,,,,,,,,,,S,,,clear,,,,20,98571.49,101073.77
KMKE,07/09/2020 05:40 UTC,101151.38,26,,69.6,1.54,180,,,,,,,,,,,,1,,,,10,,METAR KMKE 090540Z AUTO 18003KT 10SM CLR 26/20 A2987,,,,,,,,,,S,,,clear,,,,20,98538.5,101039.94
KMKE,07/09/2020 05:45 UTC,101151.38,26,,69.6,2.06,180,,,,,,,,,,,,1,,,,10,,METAR KMKE 090545Z AUTO 18004KT 10SM CLR 26/20 A2987,,,,,,,,,,S,,,clear,,,,20,98538.5,101039.94
KMKE,07/09/2020 05:50 UTC,101185.24,26,,69.6,0,0,,,,,,,,,,,,,,,,10,,METAR KMKE 090550Z AUTO 00000KT 10SM 26/20 A2988,,,,,,,,,,N,,,,,,,20,98571.49,101073.77
KMKE,07/09/2020 05:52 UTC,101185.24,25.6,19.4,68.66,1.54,200,,,101110,,,,,,6008,,,2502,,,,10,,KMKE 090552Z 20003KT 10SM SCT250 26/19 A2988 RMK AO2 SLP111  T02560194 10289 20256 403170206 56008,28.9,25.6,,,,31.7,20.6,,,SSW,,,scattered,,,,19.4,98571.49,101077.16
KMKE,07/09/2020 05:55 UTC,101151.38,26,,65.41,2.06,200,,,,,,,,,,,,1,,,,10,,METAR KMKE 090555Z AUTO 20004KT 10SM CLR 26/19 A2987,,,,,,,,,,SSW,,,clear,,,,19,98538.5,101039.96
KMKE,07/09/2020 06:00 UTC,101185.24,26,,69.6,2.06,200,,,,,,,,,,,,1,,,,10,,METAR KMKE 090600Z AUTO 20004KT 10SM CLR 26/20 A2988,,,,,,,,,,SSW,,,clear,,,,20,98571.49,101073.77
KMKE,07/09/2020 06:05 UTC,101185.24,26,,69.6,1.54,190,,,,,,,,,,,,1,,,,10,,METAR KMKE 090605Z AUTO 19003KT 10SM CLR 26/20 A2988,,,,,,,,,,S,,,clear,,,,20,98571.49,101073.77
KMKE,07/09/2020 06:10 UTC,101185.24,26,,69.6,2.06,190,,,,,,,,,,,,1,,,,10,,METAR KMKE 090610Z AUTO 19004KT 10SM CLR 26/20 A2988,,,,,,,,,,S,,,clear,,,,20,98571.49,101073.77
KMKE,07/09/2020 06:15 UTC,101185.24,26,,69.6,2.57,190,,,,,,,,,,,,1,,,,10,,METAR KMKE 090615Z AUTO 19005KT 10SM CLR 26/20 A2988,,,,,,,,,,S,,,clear,,,,20,98571.49,101073.77
KMKE,07/09/2020 06:20 UTC,101185.24,26,,69.6,2.06,190,,,,,,,,,,,,1,,,,10,,METAR KMKE 090620Z AUTO 19004KT 10SM CLR 26/20 A2988,,,,,,,,,,S,,,clear,,,,20,98571.49,101073.77
KMKE,07/09/2020 06:25 UTC,101185.24,26,,69.6,2.06,200,,,,,,,,,,,,1,,,,10,,METAR KMKE 090625Z AUTO 20004KT 10SM CLR 26/20 A2988,,,,,,,,,,SSW,,,clear,,,,20,98571.49,101073.77
KMKE,07/09/2020 06:30 UTC,101151.38,26,,69.6,2.06,200,,,,,,,,,,,,1,,,,10,,METAR KMKE 090630Z AUTO 20004KT 10SM CLR 26/20 A2987,,,,,,,,,,SSW,,,clear,,,,20,98538.5,101039.94
KMKE,07/09/2020 06:35 UTC,101185.24,26,,69.6,2.06,190,,,,,,,,,,,,1,,,,10,,METAR KMKE 090635Z AUTO 19004KT 10SM CLR 26/20 A2988,,,,,,,,,,S,,,clear,,,,20,98571.49,101073.77
KMKE,07/09/2020 06:40 UTC,101185.24,26,,69.6,1.54,190,,,,,,,,,,,,1,,,,10,,METAR KMKE 090640Z AUTO 19003KT 10SM CLR 26/20 A2988,,,,,,,,,,S,,,clear,,,,20,98571.49,101073.77
KMKE,07/09/2020 06:45 UTC,101185.24,26,,69.6,2.06,210,,,,,,,,,,,,1,,,,10,,METAR KMKE 090645Z AUTO 21004KT 10SM CLR 26/20 A2988,,,,,,,,,,SSW,,,clear,,,,20,98571.49,101073.77
KMKE,07/09/2020 06:50 UTC,101185.24,26,,69.6,2.57,200,,,,,,,,,,,,,,,,10,,METAR KMKE 090650Z AUTO 20005KT 10SM 26/20 A2988,,,,,,,,,,SSW,,,,,,,20,98571.49,101073.77
KMKE,07/09/2020 06:52 UTC,101185.24,25.6,20,71.26,2.57,210,,,101110,,,,,,,,,2006,2502,,,10,,KMKE 090652Z 21005KT 10SM FEW200 SCT250 26/20 A2988 RMK AO2 SLP111  T02560200,,,,,,,,,,SSW,,,scattered,,,,20,98571.49,101077.15
KMKE,07/09/2020 06:55 UTC,101185.24,26,,69.6,2.57,210,,,,,,,,,,,,1,,,,10,,METAR KMKE 090655Z AUTO 21005KT 10SM CLR 26/20 A2988,,,,,,,,,,SSW,,,clear,,,,20,98571.49,101073.77
KMKE,07/09/2020 07:00 UTC,101185.24,26,,69.6,3.09,210,,,,,,,,,,,,1,,,,10,,METAR KMKE 090700Z AUTO 21006KT 10SM CLR 26/20 A2988,,,,,,,,,,SSW,,,clear,,,,20,98571.49,101073.77
KMKE,07/09/2020 07:05 UTC,101185.24,26,,69.6,3.09,200,,,,,,,,,,,,1,,,,10,,METAR KMKE 090705Z AUTO 20006KT 10SM CLR 26/20 A2988,,,,,,,,,,SSW,,,clear,,,,20,98571.49,101073.77
KMKE,07/09/2020 07:10 UTC,101185.24,26,,69.6,2.06,200,,,,,,,,,,,,1,,,,10,,METAR KMKE 090710Z AUTO 20004KT 10SM CLR 26/20 A2988,,,,,,,,,,SSW,,,clear,,,,20,98571.49,101073.77
KMKE,07/09/2020 07:15 UTC,101185.24,26,,69.6,2.57,200,,,,,,,,,,,,1,,,,10,,METAR KMKE 090715Z AUTO 20005KT 10SM CLR 26/20 A2988,,,,,,,,,,SSW,,,clear,,,,20,98571.49,101073.77
KMKE,07/09/2020 07:20 UTC,101185.24,26,,69.6,2.06,190,,,,,,,,,,,,1,,,,10,,METAR KMKE 090720Z AUTO 19004KT 10SM CLR 26/20 A2988,,,,,,,,,,S,,,clear,,,,20,98571.49,101073.77
KMKE,07/09/2020 07:25 UTC,101151.38,26,,69.6,3.09,190,,,,,,,,,,,,1,,,,10,,METAR KMKE 090725Z AUTO 19006KT 10SM CLR 26/20 A2987,,,,,,,,,,S,,,clear,,,,20,98538.5,101039.94
KMKE,07/09/2020 07:30 UTC,101151.38,26,,69.6,2.57,200,,,,,,,,,,,,1,,,,10,,METAR KMKE 090730Z AUTO 20005KT 10SM CLR 26/20 A2987,,,,,,,,,,SSW,,,clear,,,,20,98538.5,101039.94
KMKE,07/09/2020 07:35 UTC,101151.38,25,,73.85,2.06,190,,,,,,,,,,,,1,,,,10,,METAR KMKE 090735Z AUTO 19004KT 10SM CLR 25/20 A2987,,,,,,,,,,S,,,clear,,,,20,98538.5,101048.42
KMKE,07/09/2020 07:40 UTC,101151.38,25,,73.85,2.57,190,,,,,,,,,,,,1,,,,10,,METAR KMKE 090740Z AUTO 19005KT 10SM CLR 25/20 A2987,,,,,,,,,,S,,,clear,,,,20,98538.5,101048.42
KMKE,07/09/2020 07:45 UTC,101151.38,25,,73.85,2.06,190,,,,,,,,,,,,1,,,,10,,METAR KMKE 090745Z AUTO 19004KT 10SM CLR 25/20 A2987,,,,,,,,,,S,,,clear,,,,20,98538.5,101048.42
KMKE,07/09/2020 07:50 UTC,101151.38,25,,73.85,2.57,190,,,,,,,,,,,,,,,,10,,METAR KMKE 090750Z AUTO 19005KT 10SM 25/20 A2987,,,,,,,,,,S,,,,,,,20,98538.5,101048.42
KMKE,07/09/2020 07:52 UTC,101151.38,25,20,73.85,2.06,200,,,101070,,,,,,,,,2506,,,,10,,KMKE 090752Z 20004KT 10SM FEW250 25/20 A2987 RMK AO2 SLP107  T02500200,,,,,,,,,,SSW,,,thin scattered,,,,20,98538.5,101048.42
KMKE,07/09/2020 07:55 UTC,101151.38,25,,73.85,1.54,190,,,,,,,,,,,,1,,,,10,,METAR KMKE 090755Z AUTO 19003KT 10SM CLR 25/20 A2987,,,,,,,,,,S,,,clear,,,,20,98538.5,101048.42
KMKE,07/09/2020 08:00 UTC,101151.38,25,,73.85,1.54,190,,,,,,,,,,,,1,,,,10,,METAR KMKE 090800Z AUTO 19003KT 10SM CLR 25/20 A2987,,,,,,,,,,S,,,clear,,,,20,98538.5,101048.42
KMKE,07/09/2020 08:05 UTC,101151.38,25,,73.85,1.54,190,,,,,,,,,,,,1,,,,10,,METAR KMKE 090805Z AUTO 19003KT 10SM CLR 25/20 A2987,,,,,,,,,,S,,,clear,,,,20,98538.5,101048.42
KMKE,07/09/2020 08:10 UTC,101185.24,26,,69.6,2.06,210,,,,,,,,,,,,1,,,,10,,METAR KMKE 090810Z AUTO 21004KT 10SM CLR 26/20 A2988,,,,,,,,,,SSW,,,clear,,,,20,98571.49,101073.77
KMKE,07/09/2020 08:15 UTC,101185.24,25,,73.85,1.54,220,,,,,,,,,,,,1,,,,10,,METAR KMKE 090815Z AUTO 22003KT 10SM CLR 25/20 A2988,,,,,,,,,,SW,,,clear,,,,20,98571.49,101082.25
KMKE,07/09/2020 08:20 UTC,101185.24,25,,73.85,0,0,,,,,,,,,,,,1,,,,10,,METAR KMKE 090820Z AUTO 00000KT 10SM CLR 25/20 A2988,,,,,,,,,,N,,,clear,,,,20,98571.49,101082.25
KMKE,07/09/2020 08:25 UTC,101185.24,25,,73.85,1.54,250,,,,,,,,,,,,1,,,,10,,METAR KMKE 090825Z AUTO 25003KT 10SM CLR 25/20 A2988,,,,,,,,,,WSW,,,clear,,,,20,98571.49,101082.25
KMKE,07/09/2020 08:30 UTC,101185.24,25,,73.85,1.54,210,,,,,,,,,,,,1,,,,10,,METAR KMKE 090830Z AUTO 21003KT 10SM CLR 25/20 A2988,,,,,,,,,,SSW,,,clear,,,,20,98571.49,101082.25
KMKE,07/09/2020 08:35 UTC,101185.24,25,,73.85,1.54,200,,,,,,,,,,,,1,,,,10,,METAR KMKE 090835Z AUTO 20003KT 10SM CLR 25/20 A2988,,,,,,,,,,SSW,,,clear,,,,20,98571.49,101082.25
KMKE,07/09/2020 08:40 UTC,101151.38,24,,78.39,2.06,200,,,,,,,,,,,,1,,,,10,,METAR KMKE 090840Z AUTO 20004KT 10SM CLR 24/20 A2987,,,,,,,,,,SSW,,,clear,,,,20,98538.5,101056.95
KMKE,07/09/2020 08:45 UTC,101151.38,25,,73.85,1.54,210,,,,,,,,,,,,1,,,,10,,METAR KMKE 090845Z AUTO 21003KT 10SM CLR 25/20 A2987,,,,,,,,,,SSW,,,clear,,,,20,98538.5,101048.42
KMKE,07/09/2020 08:50 UTC,101185.24,25,,73.85,0,0,,,,,,,,,,,,,,,,10,,METAR KMKE 090850Z AUTO 00000KT 10SM 25/20 A2988,,,,,,,,,,N,,,,,,,20,98571.49,101082.25
KMKE,07/09/2020 08:52 UTC,101185.24,25,20,73.85,0,0,,,101110,,,,,,3000,,,2506,,,,10,,KMKE 090852Z 00000KT 10SM FEW250 25/20 A2988 RMK AO2 SLP111  T02500200 53000,,,,,,,,,,N,,,thin scattered,,,,20,98571.49,101082.25
KMKE,07/09/2020 08:55 UTC,101185.24,26,,69.6,1.54,230,,,,,,,,,,,,1,,,,10,,METAR KMKE 090855Z AUTO 23003KT 10SM CLR 26/20 A2988,,,,,,,,,,SW,,,clear,,,,20,98571.49,101073.77
KMKE,07/09/2020 09:00 UTC,101185.24,26,,69.6,0,0,,,,,,,,,,,,1,,,,10,,METAR KMKE 090900Z AUTO 00000KT 10SM CLR 26/20 A2988,,,,,,,,,,N,,,clear,,,,20,98571.49,101073.77
KMKE,07/09/2020 09:05 UTC,101185.24,25,,73.85,0,0,,,,,,,,,,,,1,,,,10,,METAR KMKE 090905Z AUTO 00000KT 10SM CLR 25/20 A2988,,,,,,,,,,N,,,clear,,,,20,98571.49,101082.25
KMKE,07/09/2020 09:10 UTC,101185.24,24,,78.39,0,0,,,,,,,,,,,,1,,,,10,,METAR KMKE 090910Z AUTO 00000KT 10SM CLR 24/20 A2988,,,,,,,,,,N,,,clear,,,,20,98571.49,101090.78
KMKE,07/09/2020 09:15 UTC,101185.24,25,,73.85,0,0,,,,,,,,,,,,1,,,,10,,METAR KMKE 090915Z AUTO 00000KT 10SM CLR 25/20 A2988,,,,,,,,,,N,,,clear,,,,20,98571.49,101082.25
KMKE,07/09/2020 09:20 UTC,101185.24,24,,78.39,0,0,,,,,,,,,,,,1,,,,10,,METAR KMKE 090920Z AUTO 00000KT 10SM CLR 24/20 A2988,,,,,,,,,,N,,,clear,,,,20,98571.49,101090.78
KMKE,07/09/2020 09:25 UTC,101185.24,24,,78.39,0,0,,,,,,,,,,,,1,,,,10,,METAR KMKE 090925Z AUTO 00000KT 10SM CLR 24/20 A2988,,,,,,,,,,N,,,clear,,,,20,98571.49,101090.78
KMKE,07/09/2020 09:30 UTC,101185.24,25,,73.85,1.54,200,,,,,,,,,,,,1,,,,10,,METAR KMKE 090930Z AUTO 20003KT 10SM CLR 25/20 A2988,,,,,,,,,,SSW,,,clear,,,,20,98571.49,101082.25
KMKE,07/09/2020 09:35 UTC,101185.24,25,,73.85,2.06,200,,,,,,,,,,,,1,,,,10,,METAR KMKE 090935Z AUTO 20004KT 10SM CLR 25/20 A2988,,,,,,,,,,SSW,,,clear,,,,20,98571.49,101082.25
KMKE,07/09/2020 09:40 UTC,101185.24,25,,73.85,2.06,200,,,,,,,,,,,,1,,,,10,,METAR KMKE 090940Z AUTO 20004KT 10SM CLR 25/20 A2988,,,,,,,,,,SSW,,,clear,,,,20,98571.49,101082.25
KMKE,07/09/2020 09:45 UTC,101185.24,24,,78.39,2.06,190,,,,,,,,,,,,1,,,,9,,METAR KMKE 090945Z AUTO 19004KT 9SM CLR 24/20 A2988,,,,,,,,,,S,,,clear,,,,20,98571.49,101090.78
KMKE,07/09/2020 09:50 UTC,101185.24,24,,78.39,2.06,190,,,,,,,,,,,,,,,,9,,METAR KMKE 090950Z AUTO 19004KT 9SM 24/20 A2988,,,,,,,,,,S,,,,,,,20,98571.49,101090.78
KMKE,07/09/2020 09:52 UTC,101185.24,24.4,20,76.54,2.06,190,,,101110,,,,,,,,,1506,2502,,,10,,KMKE 090952Z 19004KT 10SM FEW150 SCT250 24/20 A2988 RMK AO2 SLP111  T02440200,,,,,,,,,,S,,,scattered,,,,20,98571.49,101087.36
KMKE,07/09/2020 09:55 UTC,101185.24,24,,78.39,2.57,190,,,,,,,,,,,,1,,,,10,,METAR KMKE 090955Z AUTO 19005KT 10SM CLR 24/20 A2988,,,,,,,,,,S,,,clear,,,,20,98571.49,101090.78
KMKE,07/09/2020 10:00 UTC,101151.38,24,,78.39,2.06,200,,,,,,,,,,,,1,,,,10,,METAR KMKE 091000Z AUTO 20004KT 10SM CLR 24/20 A2987,,,,,,,,,,SSW,,,clear,,,,20,98538.5,101056.95
KMKE,07/09/2020 10:05 UTC,101185.24,24,,78.39,0,0,,,,,,,,,,,,1,,,,10,,METAR KMKE 091005Z AUTO 00000KT 10SM CLR 24/20 A2988,,,,,,,,,,N,,,clear,,,,20,98571.49,101090.78
KMKE,07/09/2020 10:10 UTC,101151.38,24,,78.39,0,0,,,,,,,,,,,,1,,,,10,,METAR KMKE 091010Z AUTO 00000KT 10SM CLR 24/20 A2987,,,,,,,,,,N,,,clear,,,,20,98538.5,101056.95
KMKE,07/09/2020 10:15 UTC,101151.38,25,,73.85,1.54,190,,,,,,,,,,,,1,,,,10,,METAR KMKE 091015Z AUTO 19003KT 10SM CLR 25/20 A2987,,,,,,,,,,S,,,clear,,,,20,98538.5,101048.42
KMKE,07/09/2020 10:20 UTC,101151.38,24,,78.39,1.54,200,,,,,,,,,,,,1,,,,10,,METAR KMKE 091020Z AUTO 20003KT 10SM CLR 24/20 A2987,,,,,,,,,,SSW,,,clear,,,,20,98538.5,101056.95
KMKE,07/09/2020 10:25 UTC,101185.24,24,,78.39,2.57,210,,,,,,,,,,,,1,,,,10,,METAR KMKE 091025Z AUTO 21005KT 10SM CLR 24/20 A2988,,,,,,,,,,SSW,,,clear,,,,20,98571.49,101090.78
KMKE,07/09/2020 10:30 UTC,101151.38,24,,78.39,2.57,210,,,,,,,,,,,,1,,,,10,,METAR KMKE 091030Z AUTO 21005KT 10SM CLR 24/20 A2987,,,,,,,,,,SSW,,,clear,,,,20,98538.5,101056.95
KMKE,07/09/2020 10:35 UTC,101185.24,24,,78.39,2.57,220,,,,,,,,,,,,1,,,,10,,METAR KMKE 091035Z AUTO 22005KT 10SM CLR 24/20 A2988,,,,,,,,,,SW,,,clear,,,,20,98571.49,101090.78
KMKE,07/09/2020 10:40 UTC,101151.38,24,,78.39,2.06,230,,,,,,,,,,,,1,,,,10,,METAR KMKE 091040Z AUTO 23004KT 10SM CLR 24/20 A2987,,,,,,,,,,SW,,,clear,,,,20,98538.5,101056.95
KMKE,07/09/2020 10:45 UTC,101151.38,24,,78.39,1.54,230,,,,,,,,,,,,1,,,,10,,METAR KMKE 091045Z AUTO 23003KT 10SM CLR 24/20 A2987,,,,,,,,,,SW,,,clear,,,,20,98538.5,101056.95
KMKE,07/09/2020 10:50 UTC,101151.38,25,,73.85,0,0,,,,,,,,,,,,506,,,,10,,METAR KMKE 091050Z AUTO 00000KT 10SM FEW050 25/20 A2987,,,,,,,,,,N,,,thin scattered,,,,20,98538.5,101048.42
KMKE,07/09/2020 10:52 UTC,101185.24,25,20,73.85,0,0,,,101110,,2502,,,,,,,506,2006,,,10,,KMKE 091052Z 00000KT 10SM FEW050 FEW200 SCT250 25/20 A2988 RMK AO2  SLP111 CB DSNT N T02500200,,,,,,,,,,N,,,scattered,,,,20,98571.49,101082.25
KMKE,07/09/2020 10:55 UTC,101185.24,25,,73.85,0,0,,,,,,,,,,,,1,,,,10,,METAR KMKE 091055Z AUTO 00000KT 10SM CLR 25/20 A2988,,,,,,,,,,N,,,clear,,,,20,98571.49,101082.25
KMKE,07/09/2020 11:00 UTC,101219.11,25,,73.85,0,0,,,,,,,,,,,,1,,,,10,,METAR KMKE 091100Z AUTO 00000KT 10SM CLR 25/20 A2989,,,,,,,,,,N,,,clear,,,,20,98604.49,101116.08
KMKE,07/09/2020 11:05 UTC,101219.11,25,,73.85,0,0,,,,,,,,,,,,1202,,,,10,,METAR KMKE 091105Z AUTO 00000KT 10SM SCT120 25/20 A2989,,,,,,,,,,N,,,scattered,,,,20,98604.49,101116.08
KMKE,07/09/2020 11:10 UTC,101219.11,25,,78.54,2.06,240,,,,,,,,,,,,1203,,,,10,,METAR KMKE 091110Z AUTO 24004KT 10SM BKN120 25/21 A2989,,,,3657.6,,,,,,WSW,,,broken,,,,21,98604.49,101116.06
KMKE,07/09/2020 11:15 UTC,101252.97,26,,69.6,2.06,240,,,,,,,,,,,,1203,,,,10,,METAR KMKE 091115Z AUTO 24004KT 10SM BKN120 26/20 A2990,,,,3657.6,,,,,,WSW,,,broken,,,,20,98637.47,101141.42
KMKE,07/09/2020 11:20 UTC,101219.11,26,,69.6,,,,,,,,,,,,,,1203,,,,10,,METAR KMKE 091120Z AUTO 10SM BKN120 26/20 A2989,,,,3657.6,,,,,,,,,broken,,,,20,98604.49,101107.6
KMKE,07/09/2020 11:25 UTC,101219.11,26,,69.6,,,,,,,,,,,,,,1203,,,,10,,METAR KMKE 091125Z AUTO 10SM BKN120 26/20 A2989,,,,3657.6,,,,,,,,,broken,,,,20,98604.49,101107.6
KMKE,07/09/2020 11:30 UTC,101219.11,26,,74.02,,,,,,,,,,,,,,1203,,,,10,,METAR KMKE 091130Z AUTO 10SM BKN120 26/21 A2989,,,,3657.6,,,,,,,,,broken,,,,21,98604.49,101107.58
KMKE,07/09/2020 11:35 UTC,101252.97,26,,74.02,,,,,,,,,,,,,,1202,,,,10,,METAR KMKE 091135Z AUTO 10SM SCT120 26/21 A2990,,,,,,,,,,,,,scattered,,,,21,98637.47,101141.4
KMKE,07/09/2020 11:40 UTC,101219.11,26,,74.02,,,,,,,,,,,,,,1206,,,,10,,METAR KMKE 091140Z AUTO 10SM FEW120 26/21 A2989,,,,,,,,,,,,,thin scattered,,,,21,98604.49,101107.58
KMKE,07/09/2020 11:45 UTC,101219.11,26,,74.02,,,,,,,,,,,,,,1206,,,,10,,METAR KMKE 091145Z AUTO 10SM FEW120 26/21 A2989,,,,,,,,,,,,,thin scattered,,,,21,98604.49,101107.58
KMKE,07/09/2020 11:50 UTC,101219.11,26,,74.02,2.06,220,11.32,,,,,,,,,,,1206,,,,10,,METAR KMKE 091150Z AUTO 22004G22KT 10SM FEW120 26/21 A2989,,,,,,,,,,SW,,,thin scattered,,,,21,98604.49,101107.58
KMKE,07/09/2020 11:52 UTC,101219.11,26.1,20.6,71.8,2.06,220,,,101150,,,,,,3004,,,1206,2506,,,10,,KMKE 091152Z 22004KT 10SM FEW120 FEW250 26/21 A2989 RMK AO2 SLP115  T02610206 10261 20244 53004,26.1,24.4,,,,,,,,SW,,,thin scattered,,,,20.6,98604.49,101106.74
KMKE,07/09/2020 11:55 UTC,101219.11,26,,74.02,,,,,,,,,,,,,,1,,,,10,,METAR KMKE 091155Z AUTO 10SM CLR 26/21 A2989,,,,,,,,,,,,,clear,,,,21,98604.49,101107.58
KMKE,07/09/2020 12:00 UTC,101219.11,26,,74.02,,,,,,,,,,,,,,1,,,,10,,METAR KMKE 091200Z AUTO 10SM CLR 26/21 A2989,,,,,,,,,,,,,clear,,,,21,98604.49,101107.58
KMKE,07/09/2020 12:05 UTC,101252.97,27,,69.79,,,,,,,,,,,,,,1106,,,,10,,METAR KMKE 091205Z AUTO 10SM FEW110 27/21 A2990,,,,,,,,,,,28.84,,thin scattered,,,,21.01,98637.47,101132.98
KMKE,07/09/2020 12:10 UTC,101252.97,27,,69.79,,,,,,,,,,,,,,1102,,,,10,,METAR KMKE 091210Z AUTO 10SM SCT110 27/21 A2990,,,,,,,,,,,28.84,,scattered,,,,21.01,98637.47,101132.98
KMKE,07/09/2020 12:15 UTC,101286.84,27,,65.62,,,,,,,,,,,,,,606,1102,,,10,,METAR KMKE 091215Z AUTO 10SM FEW060 SCT110 27/20 A2991,,,,,,,,,,,28.5,,scattered,,,,20.01,98670.47,101166.82
KMKE,07/09/2020 12:20 UTC,101286.84,27,,65.62,,,,,,,,,,,,,,602,1103,,,10,,METAR KMKE 091220Z AUTO 10SM SCT060 BKN110 27/20 A2991,,,,3352.8,,,,,,,28.5,,broken,,,,20.01,98670.47,101166.82
KMKE,07/09/2020 12:25 UTC,101320.7,26,,74.02,5.66,10,8.23,,,,,,,,,,,603,1103,,,10,,METAR KMKE 091225Z AUTO 01011G16KT 10SM BKN060 BKN110 26/21 A2992,,,,1828.8,,,,,,N,,,broken,,,,21,98703.45,101209.06
KMKE,07/09/2020 12:30 UTC,101320.7,25,,78.54,4.12,20,,,,,1104,,,,,,,502,603,,,10,,METAR KMKE 091230Z AUTO 02008KT 10SM SCT050 BKN060 OVC110 25/21 A2992,,,,1828.8,,,,,,NNE,,,overcast,,,,21,98703.45,101217.55
KMKE,07/09/2020 12:35 UTC,101320.7,25,,78.54,3.6,10,,,,,1104,,,,,,,503,603,,,10,,METAR KMKE 091235Z AUTO 01007KT 10SM BKN050 BKN060 OVC110 25/21 A2992,,,,1524,,,,,,N,,,overcast,,,,21,98703.45,101217.55
KMKE,07/09/2020 12:40 UTC,101320.7,25,,78.54,3.6,360,,,,,1103,,,,,,,503,603,,,10,,METAR KMKE 091240Z AUTO 36007KT 10SM BKN050 BKN060 BKN110 25/21 A2992,,,,1524,,,,,,N,,,broken,,,,21,98703.45,101217.55
KMKE,07/09/2020 12:45 UTC,101320.7,25,,78.54,3.6,360,,,,,1103,,,,,,,206,503,,,10,,METAR KMKE 091245Z AUTO 36007KT 10SM FEW020 BKN050 BKN110 25/21 A2992,,,,1524,,,,,,N,,,broken,,,,21,98703.45,101217.55
KMKE,07/09/2020 12:50 UTC,101320.7,25,,78.54,3.6,10,,,,,1103,,,,,,,206,503,,,10,,METAR KMKE 091250Z AUTO 01007KT 10SM FEW020 BKN050 BKN110 25/21 A2992,,,,1524,,,,,,N,,,broken,,,,21,98703.45,101217.55
KMKE,07/09/2020 12:52 UTC,101320.7,25,21.1,79.02,3.09,360,,,101260,,1103,,,,,,,206,503,,,10,,KMKE 091252Z 36006KT 10SM FEW020 BKN050TCU BKN110 BKN250 25/21  A2992 RMK AO2 LTG DSNT NE AND NW SLP126 TCU OHD CB DSNT  NW-NE-E T02500211,,,,1524,,,,,,N,,,broken,,,,21.1,98703.45,101217.55
KMKE,07/09/2020 12:55 UTC,101320.7,26,,78.68,3.09,10,,,,,,,,,,,,502,802,,,10,,METAR KMKE 091255Z AUTO 01006KT 10SM SCT050 SCT080 26/22 A2992,,,,,,,,,,N,,,scattered,,,,22,98703.45,101209.04
KMKE,07/09/2020 12:57 UTC,101320.7,25.6,21.7,79.1,2.57,20,,,,5,2503,,,,,,,502,803,,,10,,KMKE 091257Z 02005KT 10SM TS SCT050CB BKN080 BKN250 26/22 A2992 RMK AO2 LTG DSNT NW TSE53B57 OCNL LTCGIC E TS E MOV SE CB  DSNT NW-NE T02560217,,,,2438.4,,,,,,NNE,,thunder,thunder,,,,21.7,98703.45,101212.43
KMKE,07/09/2020 13:00 UTC,101320.7,26,,74.02,3.6,30,,,,,,,,,,,,502,803,,,10,,METAR KMKE 091300Z AUTO 03007KT 10SM SCT050 BKN080 26/21 A2992,,,,2438.4,,,,,,NNE,,,broken,,,,21,98703.45,101209.06
KMKE,07/09/2020 13:05 UTC,101286.84,25,,78.54,4.63,20,,,,,,,,,,,,502,803,,,10,,METAR KMKE 091305Z AUTO 02009KT 10SM SCT050 BKN080 25/21 A2991,,,,2438.4,,,,,,NNE,,,broken,,,,21,98670.47,101183.72
KMKE,07/09/2020 13:10 UTC,101320.7,25,,78.54,4.12,20,,,,,,,,,,,,502,803,,,10,,METAR KMKE 091310Z AUTO 02008KT 10SM SCT050 BKN080 25/21 A2992,,,,2438.4,,,,,,NNE,,,broken,,,,21,98703.45,101217.55
KMKE,07/09/2020 13:15 UTC,101320.7,25,,78.54,4.12,20,,,,,,,,,,,,502,803,,,10,,METAR KMKE 091315Z AUTO 02008KT 10SM SCT050 BKN080 25/21 A2992,,,,2438.4,,,,,,NNE,,,broken,,,,21,98703.45,101217.55
KMKE,07/09/2020 13:20 UTC,101320.7,25,,78.54,4.12,40,,,,,,,,,,,,502,803,,,10,,METAR KMKE 091320Z AUTO 04008KT 10SM SCT050 BKN080 25/21 A2992,,,,2438.4,,,,,,NE,,,broken,,,,21,98703.45,101217.55
KMKE,07/09/2020 13:25 UTC,101320.7,25,,78.54,5.14,60,,,,,,,,,,,,462,1102,,,10,,METAR KMKE 091325Z AUTO 06010KT 10SM SCT046 SCT110 25/21 A2992,,,,,,,,,,ENE,,,scattered,,,,21,98703.45,101217.55
KMKE,07/09/2020 13:27 UTC,101286.84,25,20.6,76.63,5.14,50,,,,,2503,,,,,,,462,1102,,,10,,KMKE 091327Z 05010KT 10SM SCT046TCU SCT110 BKN250 25/21 A2991 RMK AO2 LTG DSNT N AND NW TSE1253B1257E21 TCU E-S-SW TCU DSNT  W-NW CB DSNT NW-N T02500206,,,,7620,,,,,,NE,,,broken,,,,20.6,98670.47,101183.73
KMKE,07/09/2020 13:30 UTC,101286.84,25,,78.54,4.63,50,,,,,,,,,,,,462,1102,,,10,,METAR KMKE 091330Z AUTO 05009KT 10SM SCT046 SCT110 25/21 A2991,,,,,,,,,,NE,,,scattered,,,,21,98670.47,101183.72
KMKE,07/09/2020 13:35 UTC,101286.84,25,,78.54,5.14,50,,,,,,,,,,,,462,1102,,,10,,METAR KMKE 091335Z AUTO 05010KT 10SM SCT046 SCT110 25/21 A2991,,,,,,,,,,NE,,,scattered,,,,21,98670.47,101183.72
KMKE,07/09/2020 13:40 UTC,101286.84,26,,74.02,4.63,50,,,,,,,,,,,,462,1102,,,10,,METAR KMKE 091340Z AUTO 05009KT 10SM SCT046 SCT110 26/21 A2991,,,,,,,,,,NE,,,scattered,,,,21,98670.47,101175.23
KMKE,07/09/2020 13:45 UTC,101286.84,26,,74.02,4.63,50,,,,,,,,,,,,462,1102,,,10,,METAR KMKE 091345Z AUTO 05009KT 10SM SCT046 SCT110 26/21 A2991,,,,,,,,,,NE,,,scattered,,,,21,98670.47,101175.23
KMKE,07/09/2020 13:50 UTC,101286.84,26,,74.02,3.6,30,,,,,,,,,,,,466,1102,,,10,,METAR KMKE 091350Z AUTO 03007KT 10SM FEW046 SCT110 26/21 A2991,,,,,,,,,,NNE,,,scattered,,,,21,98670.47,101175.23
KMKE,07/09/2020 13:52 UTC,101286.84,26.1,21.1,74.03,3.6,40,,,101220,,2502,,,,,,,466,1102,,,10,,KMKE 091352Z 04007KT 10SM FEW046 SCT110 SCT250 26/21 A2991 RMK AO2  TSE1253B1257E21 SLP122 T02610211,,,,,,,,,,NE,,,scattered,,,,21.1,98670.47,101174.38
KMKE,07/09/2020 13:55 UTC,101286.84,26,,74.02,4.12,60,,,,,,,,,,,,1,,,,10,,METAR KMKE 091355Z AUTO 06008KT 10SM CLR 26/21 A2991,,,,,,,,,,ENE,,,clear,,,,21,98670.47,101175.23
KMKE,07/09/2020 14:00 UTC,101286.84,26,,74.02,4.12,50,,,,,,,,,,,,1,,,,10,,METAR KMKE 091400Z AUTO 05008KT 10SM CLR 26/21 A2991,,,,,,,,,,NE,,,clear,,,,21,98670.47,101175.23
KMKE,07/09/2020 14:05 UTC,101286.84,26,,74.02,3.6,30,,,,,,,,,,,,1,,,,10,,METAR KMKE 091405Z AUTO 03007KT 10SM CLR 26/21 A2991,,,,,,,,,,NNE,,,clear,,,,21,98670.47,101175.23
KMKE,07/09/2020 14:10 UTC,101286.84,26,,74.02,3.09,50,,,,,,,,,,,,1,,,,10,,METAR KMKE 091410Z AUTO 05006KT 10SM CLR 26/21 A2991,,,,,,,,,,NE,,,clear,,,,21,98670.47,101175.23
KMKE,07/09/2020 14:15 UTC,101286.84,27,,69.79,3.6,60,,,,,,,,,,,,1,,,,10,,METAR KMKE 091415Z AUTO 06007KT 10SM CLR 27/21 A2991,,,,,,,,,,ENE,28.84,,clear,,,,21.01,98670.47,101166.8
KMKE,07/09/2020 14:20 UTC,101286.84,27,,69.79,3.6,60,,,,,,,,,,,,556,,,,10,,METAR KMKE 091420Z AUTO 06007KT 10SM FEW055 27/21 A2991,,,,,,,,,,ENE,28.84,,thin scattered,,,,21.01,98670.47,101166.8
KMKE,07/09/2020 14:25 UTC,101252.97,27,,69.79,3.6,70,,,,,,,,,,,,506,652,,,10,,METAR KMKE 091425Z AUTO 07007KT 10SM FEW050 SCT065 27/21 A2990,,,,,,,,,,ENE,28.84,,scattered,,,,21.01,98637.47,101132.98
KMKE,07/09/2020 14:30 UTC,101252.97,27,,69.79,4.12,80,,,,,,,,,,,,506,656,,,10,,METAR KMKE 091430Z AUTO 08008KT 10SM FEW050 FEW065 27/21 A2990,,,,,,,,,,E,28.84,,thin scattered,,,,21.01,98637.47,101132.98
KMKE,07/09/2020 14:35 UTC,101252.97,27,,69.79,3.09,90,,,,,,,,,,,,506,656,,,10,,METAR KMKE 091435Z AUTO 09006KT 10SM FEW050 FEW065 27/21 A2990,,,,,,,,,,E,28.84,,thin scattered,,,,21.01,98637.47,101132.98
KMKE,07/09/2020 14:40 UTC,101219.11,27,,69.79,3.6,90,,,,,,,,,,,,506,656,,,10,,METAR KMKE 091440Z AUTO 09007KT 10SM FEW050 FEW065 27/21 A2989,,,,,,,,,,E,28.84,,thin scattered,,,,21.01,98604.49,101099.15
KMKE,07/09/2020 14:45 UTC,101219.11,27,,74.19,3.6,90,,,,,,,,,,,,506,656,,,10,,METAR KMKE 091445Z AUTO 09007KT 10SM FEW050 FEW065 27/22 A2989,,,,,,,,,,E,29.21,,thin scattered,,,,22.01,98604.49,101099.13
KMKE,07/09/2020 14:50 UTC,101219.11,27,,69.79,3.6,120,,,,,,,,,,,,,,,,10,,METAR KMKE 091450Z AUTO 12007KT 10SM 27/21 A2989,,,,,,,,,,ESE,28.84,,,,,,21.01,98604.49,101099.15
KMKE,07/09/2020 14:52 UTC,101219.11,27.2,21.1,69.4,2.57,110,,,101140,,,,,,8001,,,2502,,,,10,,KMKE 091452Z 11005KT 10SM SCT250 27/21 A2989 RMK AO2 SLP114  T02720211 58001,,,,,,,,,,ESE,29.14,,scattered,,,,21.11,98604.49,101097.47
KMKE,07/09/2020 14:55 UTC,101219.11,27,,74.19,3.6,100,,,,,,,,,,,,1,,,,10,,METAR KMKE 091455Z AUTO 10007KT 10SM CLR 27/22 A2989,,,,,,,,,,E,29.21,,clear,,,,22.01,98604.49,101099.13
KMKE,07/09/2020 15:00 UTC,101185.24,28,,65.83,4.12,110,,,,,,,,,,,,1,,,,10,,METAR KMKE 091500Z AUTO 11008KT 10SM CLR 28/21 A2988,,,,,,,,,,ESE,30.13,,clear,,,,21.01,98571.49,101056.96
KMKE,07/09/2020 15:05 UTC,101185.24,28,,65.83,4.12,110,,,,,,,,,,,,1,,,,10,,METAR KMKE 091505Z AUTO 11008KT 10SM CLR 28/21 A2988,,,,,,,,,,ESE,30.13,,clear,,,,21.01,98571.49,101056.96
KMKE,07/09/2020 15:10 UTC,101185.24,28,,65.83,3.09,130,,,,,,,,,,,,1,,,,10,,METAR KMKE 091510Z AUTO 13006KT 10SM CLR 28/21 A2988,,,,,,,,,,SE,30.13,,clear,,,,21.01,98571.49,101056.96
KMKE,07/09/2020 15:15 UTC,101151.38,28,,65.83,4.12,140,,,,,,,,,,,,1,,,,10,,METAR KMKE 091515Z AUTO 14008KT 10SM CLR 28/21 A2987,,,,,,,,,,SE,30.13,,clear,,,,21.01,98538.5,101023.14
KMKE,07/09/2020 15:20 UTC,101151.38,28,,69.98,4.12,130,,,,,,,,,,,,1,,,,10,,METAR KMKE 091520Z AUTO 13008KT 10SM CLR 28/22 A2987,,,,,,,,,,SE,30.66,,clear,,,,22.01,98538.5,101023.12
KMKE,07/09/2020 15:25 UTC,101151.38,28,,69.98,3.6,130,,,,,,,,,,,,1,,,,10,,METAR KMKE 091525Z AUTO 13007KT 10SM CLR 28/22 A2987,,,,,,,,,,SE,30.66,,clear,,,,22.01,98538.5,101023.12
KMKE,07/09/2020 15:30 UTC,101151.38,28,,69.98,3.6,170,,,,,,,,,,,,1,,,,10,,METAR KMKE 091530Z AUTO 17007KT 10SM CLR 28/22 A2987,,,,,,,,,,S,30.66,,clear,,,,22.01,98538.5,101023.12
KMKE,07/09/2020 15:35 UTC,101151.38,28,,69.98,4.12,170,,,,,,,,,,,,1,,,,10,,METAR KMKE 091535Z AUTO 17008KT 10SM CLR 28/22 A2987,,,,,,,,,,S,30.66,,clear,,,,22.01,98538.5,101023.12
KMKE,07/09/2020 15:40 UTC,101151.38,28,,69.98,3.09,140,,,,,,,,,,,,1,,,,10,,METAR KMKE 091540Z AUTO 14006KT 10SM CLR 28/22 A2987,,,,,,,,,,SE,30.66,,clear,,,,22.01,98538.5,101023.12
KMKE,07/09/2020 15:45 UTC,101151.38,29,,66.04,3.09,140,,,,,,,,,,,,1,,,,10,,METAR KMKE 091545Z AUTO 14006KT 10SM CLR 29/22 A2987,,,,,,,,,,SE,32.02,,clear,,,,22.02,98538.5,101014.81
KMKE,07/09/2020 15:50 UTC,101151.38,29,,66.04,3.09,130,,,,,,,,,,,,506,,,,10,,METAR KMKE 091550Z AUTO 13006KT 10SM FEW050 29/22 A2987,,,,,,,,,,SE,32.02,,thin scattered,,,,22.02,98538.5,101014.81
KMKE,07/09/2020 15:52 UTC,101151.38,28.9,22.2,67.24,2.57,140,,,101090,,,,,,,,,506,2503,,,10,,KMKE 091552Z 14005KT 10SM FEW050 BKN250 29/22 A2987 RMK AO2 SLP109  TCU DSNT W-NW T02890222,,,,7620,,,,,,SE,32.03,,broken,,,,22.22,98538.5,101015.64
KMKE,07/09/2020 15:55 UTC,101151.38,29,,66.04,2.57,140,,,,,,,,,,,,1,,,,10,,METAR KMKE 091555Z AUTO 14005KT 10SM CLR 29/22 A2987,,,,,,,,,,SE,32.02,,clear,,,,22.02,98538.5,101014.81
KMKE,07/09/2020 16:00 UTC,101151.38,29,,66.04,2.57,160,,,,,,,,,,,,1,,,,10,,METAR KMKE 091600Z AUTO 16005KT 10SM CLR 29/22 A2987,,,,,,,,,,SSE,32.02,,clear,,,,22.02,98538.5,101014.81
KMKE,07/09/2020 16:05 UTC,101151.38,29,,66.04,2.57,140,,,,,,,,,,,,1,,,,10,,METAR KMKE 091605Z AUTO 14005KT 10SM CLR 29/22 A2987,,,,,,,,,,SE,32.02,,clear,,,,22.02,98538.5,101014.81
KMKE,07/09/2020 16:10 UTC,101185.24,29,,66.04,4.12,120,,,,,,,,,,,,1,,,,10,,METAR KMKE 091610Z AUTO 12008KT 10SM CLR 29/22 A2988,,,,,,,,,,ESE,32.02,,clear,,,,22.02,98571.49,101048.63
KMKE,07/09/2020 16:15 UTC,101151.38,29,,66.04,4.12,140,,,,,,,,,,,,1,,,,10,,METAR KMKE 091615Z AUTO 14008KT 10SM CLR 29/22 A2987,,,,,,,,,,SE,32.02,,clear,,,,22.02,98538.5,101014.81
KMKE,07/09/2020 16:20 UTC,101151.38,29,,66.04,3.6,140,,,,,,,,,,,,1,,,,10,,METAR KMKE 091620Z AUTO 14007KT 10SM CLR 29/22 A2987,,,,,,,,,,SE,32.02,,clear,,,,22.02,98538.5,101014.81
KMKE,07/09/2020 16:25 UTC,101151.38,29,,66.04,3.6,130,,,,,,,,,,,,1,,,,10,,METAR KMKE 091625Z AUTO 13007KT 10SM CLR 29/22 A2987,,,,,,,,,,SE,32.02,,clear,,,,22.02,98538.5,101014.81
KMKE,07/09/2020 16:30 UTC,101151.38,29,,66.04,3.09,140,,,,,,,,,,,,1,,,,10,,METAR KMKE 091630Z AUTO 14006KT 10SM CLR 29/22 A2987,,,,,,,,,,SE,32.02,,clear,,,,22.02,98538.5,101014.81
KMKE,07/09/2020 16:35 UTC,101117.52,29,,66.04,3.6,150,,,,,,,,,,,,1,,,,10,,METAR KMKE 091635Z AUTO 15007KT 10SM CLR 29/22 A2986,,,,,,,,,,SSE,32.02,,clear,,,,22.02,98505.52,100981
KMKE,07/09/2020 16:40 UTC,101151.38,30,,62.35,3.6,160,,,,,,,,,,,,1,,,,10,,METAR KMKE 091640Z AUTO 16007KT 10SM CLR 30/22 A2987,,,,,,,,,,SSE,33.31,,clear,,,,22.03,98538.5,101006.56
KMKE,07/09/2020 16:45 UTC,101151.38,30,,62.35,3.6,150,,,,,,,,,,,,506,,,,10,,METAR KMKE 091645Z AUTO 15007KT 10SM FEW050 30/22 A2987,,,,,,,,,,SSE,33.31,,thin scattered,,,,22.03,98538.5,101006.56
KMKE,07/09/2020 16:50 UTC,101151.38,30,,62.35,3.6,160,,,,,,,,,,,,406,1206,,,10,,METAR KMKE 091650Z AUTO 16007KT 10SM FEW040 FEW120 30/22 A2987,,,,,,,,,,SSE,33.31,,thin scattered,,,,22.03,98538.5,101006.56
KMKE,07/09/2020 16:52 UTC,101151.38,30,22.2,63.12,4.12,160,,,101090,,2503,,,,,,,406,1206,,,10,,KMKE 091652Z 16008KT 10SM FEW040 FEW120 BKN250 30/22 A2987 RMK AO2  SLP109 TCU DSNT S AND W T03000222,,,,7620,,,,,,SSE,33.47,,broken,,,,22.23,98538.5,101006.56
KMKE,07/09/2020 16:55 UTC,101151.38,31,,58.89,3.6,130,,,,,,,,,,,,1,,,,10,,METAR KMKE 091655Z AUTO 13007KT 10SM CLR 31/22 A2987,,,,,,,,,,SE,34.57,,clear,,,,22.04,98538.5,100998.37
KMKE,07/09/2020 17:00 UTC,101151.38,31,,62.58,4.12,140,,,,,,,,,,,,1,,,,10,,METAR KMKE 091700Z AUTO 14008KT 10SM CLR 31/23 A2987,,,,,,,,,,SE,35.51,,clear,,,,23.04,98538.5,100998.35
KMKE,07/09/2020 17:05 UTC,101117.52,31,,62.58,3.6,140,,,,,,,,,,,,1,,,,10,,METAR KMKE 091705Z AUTO 14007KT 10SM CLR 31/23 A2986,,,,,,,,,,SE,35.51,,clear,,,,23.04,98505.52,100964.54
KMKE,07/09/2020 17:10 UTC,101151.38,31,,62.58,,,,,,,,,,,,,,1,,,,10,,METAR KMKE 091710Z AUTO 10SM CLR 31/23 A2987,,,,,,,,,,,35.51,,clear,,,,23.04,98538.5,100998.35
KMKE,07/09/2020 17:15 UTC,101151.38,31,,62.58,3.6,170,,,,,,,,,,,,316,,,,10,,METAR KMKE 091715Z AUTO 17007KT 10SM FEW031 31/23 A2987,,,,,,,,,,S,35.51,,thin scattered,,,,23.04,98538.5,100998.35
KMKE,07/09/2020 17:20 UTC,101117.52,31,,58.89,3.6,120,,,,,,,,,,,,316,,,,10,,METAR KMKE 091720Z AUTO 12007KT 10SM FEW031 31/22 A2986,,,,,,,,,,ESE,34.57,,thin scattered,,,,22.04,98505.52,100964.56
KMKE,07/09/2020 17:25 UTC,101117.52,31,,62.58,5.66,110,,,,,,,,,,,,346,,,,10,,METAR KMKE 091725Z AUTO 11011KT 10SM FEW034 31/23 A2986,,,,,,,,,,ESE,35.51,,thin scattered,,,,23.04,98505.52,100964.54
KMKE,07/09/2020 17:30 UTC,101117.52,30,,62.35,5.66,110,,,,,,,,,,,,346,,,,10,,METAR KMKE 091730Z AUTO 11011KT 10SM FEW034 30/22 A2986,,,,,,,,,,ESE,33.31,,thin scattered,,,,22.03,98505.52,100972.76
KMKE,07/09/2020 17:35 UTC,101117.52,31,,58.89,4.63,100,,,,,,,,,,,,346,,,,10,,METAR KMKE 091735Z AUTO 10009KT 10SM FEW034 31/22 A2986,,,,,,,,,,E,34.57,,thin scattered,,,,22.04,98505.52,100964.56
KMKE,07/09/2020 17:40 UTC,101117.52,30,,62.35,5.14,110,,,,,,,,,,,,346,,,,10,,METAR KMKE 091740Z AUTO 11010KT 10SM FEW034 30/22 A2986,,,,,,,,,,ESE,33.31,,thin scattered,,,,22.03,98505.52,100972.76
KMKE,07/09/2020 17:50 UTC,101117.52,30,,66.25,5.14,130,,,,,,,,,,,,342,1102,,,10,,METAR KMKE 091750Z AUTO 13010KT 10SM SCT034 SCT110 30/23 A2986,,,,,,,,,,SE,34.16,,scattered,,,,23.03,98505.52,100972.74
KMKE,07/09/2020 17:52 UTC,101083.65,30,22.2,63.12,5.14,120,,,101030,,2503,,,,8011,,,342,1102,,,10,,KMKE 091752Z 12010KT 10SM SCT034TCU SCT110 BKN250 30/22 A2985 RMK AO2 LTG DSNT S AND W SLP103 TCU SW CB DSNT S AND W T03000222  10311 20250 58011,31.1,25,,7620,,,,,,ESE,33.47,,broken,,,,22.23,98472.52,100938.94
KMKE,07/09/2020 17:55 UTC,101083.65,30,,62.35,5.66,120,,,,,,,,,,,,376,,,,10,,METAR KMKE 091755Z AUTO 12011KT 10SM FEW037 30/22 A2985,,,,,,,,,,ESE,33.31,,thin scattered,,,,22.03,98472.52,100938.94
KMKE,07/09/2020 18:00 UTC,101083.65,31,,62.58,5.66,120,,,,,,,,,,,,406,,,,10,,METAR KMKE 091800Z AUTO 12011KT 10SM FEW040 31/23 A2985,,,,,,,,,,ESE,35.51,,thin scattered,,,,23.04,98472.52,100930.73