Station_ID,time,altimeter_set_1,air_temp,dew_point_temp,relative_humidity_set_1,wind_speed,wind_direction,wind_gust_set_1,snow_depth_set_1,sea_level_pressure_set_1,weather_cond_code_set_1,cloud_layer_3_code_set_1,cloud_low_symbol_set_1,cloud_mid_symbol_set_1,cloud_high_symbol_set_1,pressure_tendency_set_1,precip_accum_one_hour_set_1,precip_accum_three_hour_set_1,cloud_layer_1_code_set_1,cloud_layer_2_code_set_1,precip_accum_six_hour_set_1,precip_accum_24_hour_set_1,visibility_set_1,metar_remark_set_1,metar_set_1,air_temp_high_6_hour_set_1,air_temp_low_6_hour_set_1,peak_wind_speed_set_1,ceiling_set_1,pressure_change_code_set_1,air_temp_high_24_hour_set_1,air_temp_low_24_hour_set_1,peak_wind_direction_set_1,wind_chill_set_1d,wind_cardinal_direction_set_1d,heat_index_set_1d,weather_condition_set_1d,weather_summary_set_1d,cloud_layer_1_set_1d,cloud_layer_2_set_1d,cloud_layer_3_set_1d,dew_point_temperature_set_1d,pressure,sea_level_pressure_set_1d
KMKE,09/06/2016 18:00 UTC,101625.47,33,,55.9,6.17,210,,,,,,,,,,,,1,,,,10,,METAR KMKE 061800Z AUTO 21012KT 10SM CLR 33/23 A3001,,,,,,,,,,SSW,38.11,,clear,,,,23.06,99000.35,101455.42
KMKE,09/06/2016 18:05 UTC,101625.47,33,,55.9,7.2,230,,,,,,,,,,,,1,,,,10,,METAR KMKE 061805Z AUTO 23014KT 10SM CLR 33/23 A3001,,,,,,,,,,SW,38.11,,clear,,,,23.06,99000.35,101455.42
KMKE,09/06/2016 18:10 UTC,101625.47,33,,55.9,5.66,210,,,,,,,,,,,,1,,,,10,,METAR KMKE 061810Z AUTO 21011KT 10SM CLR 33/23 A3001,,,,,,,,,,SSW,38.11,,clear,,,,23.06,99000.35,101455.42
KMKE,09/06/2016 18:15 UTC,101591.61,33,,55.9,6.17,200,,,,,,,,,,,,1,,,,10,,METAR KMKE 061815Z AUTO 20012KT 10SM CLR 33/23 A3000,,,,,,,,,,SSW,38.11,,clear,,,,23.06,98967.36,101421.61
KMKE,09/06/2016 18:20 UTC,101591.61,33,,55.9,6.69,200,,,,,,,,,,,,1,,,,10,,METAR KMKE 061820Z AUTO 20013KT 10SM CLR 33/23 A3000,,,,,,,,,,SSW,38.11,,clear,,,,23.06,98967.36,101421.61
KMKE,09/06/2016 18:25 UTC,101591.61,33,,55.9,5.14,230,,,,,,,,,,,,1,,,,10,,METAR KMKE 061825Z AUTO 23010KT 10SM CLR 33/23 A3000,,,,,,,,,,SW,38.11,,clear,,,,23.06,98967.36,101421.61
KMKE,09/06/2016 18:30 UTC,101557.75,33,,55.9,7.72,200,,,,,,,,,,,,1,,,,10,,METAR KMKE 061830Z AUTO 20015KT 10SM CLR 33/23 A2999,,,,,,,,,,SSW,38.11,,clear,,,,23.06,98934.38,101387.81
KMKE,09/06/2016 18:35 UTC,101557.75,33,,55.9,8.23,210,,,,,,,,,,,,1,,,,10,,METAR KMKE 061835Z AUTO 21016KT 10SM CLR 33/23 A2999,,,,,,,,,,SSW,38.11,,clear,,,,23.06,98934.38,101387.81
KMKE,09/06/2016 18:40 UTC,101557.75,33,,55.9,6.17,200,,,,,,,,,,,,1,,,,10,,METAR KMKE 061840Z AUTO 20012KT 10SM CLR 33/23 A2999,,,,,,,,,,SSW,38.11,,clear,,,,23.06,98934.38,101387.81
KMKE,09/06/2016 18:45 UTC,101523.88,33,,55.9,6.17,210,,,,,,,,,,,,1,,,,10,,METAR KMKE 061845Z AUTO 21012KT 10SM CLR 33/23 A2998,,,,,,,,,,SSW,38.11,,clear,,,,23.06,98901.38,101354
KMKE,09/06/2016 18:50 UTC,101523.88,34,,52.86,7.72,210,,,,,,,,,,,,506,856,,,10,,METAR KMKE 061850Z AUTO 21015KT 10SM FEW050 FEW085 34/23 A2998,,,,,,,,,,SSW,39.39,,thin scattered,,,,23.08,98901.38,101345.93
KMKE,09/06/2016 18:52 UTC,101523.88,33.9,22.8,52.86,7.2,200,10.29,,101450,,2502,,,,,,,506,856,,,10,,KMKE 061852Z 20014G20KT 10SM FEW050 FEW085 SCT250 34/23 A2998 RMK AO2 SLP145 T03390228,,,,,,,,,,SSW,39.16,,scattered,,,,22.98,98901.38,101346.74
KMKE,09/06/2016 18:55 UTC,101523.88,33,,52.61,8.23,210,,,,,,,,,,,,1,,,,10,,METAR KMKE 061855Z AUTO 21016KT 10SM CLR 33/22 A2998,,,,,,,,,,SSW,37.06,,clear,,,,22.07,98901.38,101354.02
KMKE,09/06/2016 19:00 UTC,101490.02,33,,52.61,8.75,200,,,,,,,,,,,,1,,,,10,,METAR KMKE 061900Z AUTO 20017KT 10SM CLR 33/22 A2997,,,,,,,,,,SSW,37.06,,clear,,,,22.07,98868.4,101320.22
KMKE,09/06/2016 19:05 UTC,101490.02,33,,52.61,7.2,200,9.77,,,,,,,,,,,1,,,,10,,METAR KMKE 061905Z AUTO 20014G19KT 10SM CLR 33/22 A2997,,,,,,,,,,SSW,37.06,,clear,,,,22.07,98868.4,101320.22
KMKE,09/06/2016 19:10 UTC,101490.02,34,,49.75,6.17,220,,,,,,,,,,,,1,,,,10,,METAR KMKE 061910Z AUTO 22012KT 10SM CLR 34/22 A2997,,,,,,,,,,SW,38.31,,clear,,,,22.08,98868.4,101312.16
KMKE,09/06/2016 19:15 UTC,101490.02,34,,52.86,9.26,200,,,,,,,,,,,,1,,,,10,,METAR KMKE 061915Z AUTO 20018KT 10SM CLR 34/23 A2997,,,,,,,,,,SSW,39.39,,clear,,,,23.08,98868.4,101312.14
KMKE,09/06/2016 19:20 UTC,101490.02,33,,52.61,7.2,200,,,,,,,,,,,,1,,,,10,,METAR KMKE 061920Z AUTO 20014KT 10SM CLR 33/22 A2997,,,,,,,,,,SSW,37.06,,clear,,,,22.07,98868.4,101320.22
KMKE,09/06/2016 19:25 UTC,101490.02,34,,52.86,6.69,210,,,,,,,,,,,,1,,,,10,,METAR KMKE 061925Z AUTO 21013KT 10SM CLR 34/23 A2997,,,,,,,,,,SSW,39.39,,clear,,,,23.08,98868.4,101312.14
KMKE,09/06/2016 19:30 UTC,101490.02,34,,49.75,6.69,230,,,,,,,,,,,,1,,,,10,,METAR KMKE 061930Z AUTO 23013KT 10SM CLR 34/22 A2997,,,,,,,,,,SW,38.31,,clear,,,,22.08,98868.4,101312.16
KMKE,09/06/2016 19:35 UTC,101490.02,33,,52.61,8.75,210,,,,,,,,,,,,1,,,,10,,METAR KMKE 061935Z AUTO 21017KT 10SM CLR 33/22 A2997,,,,,,,,,,SSW,37.06,,clear,,,,22.07,98868.4,101320.22
KMKE,09/06/2016 19:40 UTC,101490.02,33,,52.61,7.2,210,,,,,,,,,,,,436,,,,10,,METAR KMKE 061940Z AUTO 21014KT 10SM FEW043 33/22 A2997,,,,,,,,,,SSW,37.06,,thin scattered,,,,22.07,98868.4,101320.22
KMKE,09/06/2016 19:45 UTC,101490.02,34,,49.75,8.23,210,10.8,,,,,,,,,,,436,806,,,10,,METAR KMKE 061945Z AUTO 21016G21KT 10SM FEW043 FEW080 34/22 A2997,,,,,,,,,,SSW,38.31,,thin scattered,,,,22.08,98868.4,101312.16
KMKE,09/06/2016 19:50 UTC,101456.15,34,,49.75,7.2,210,,,,,,,,,,,,456,806,,,10,,METAR KMKE 061950Z AUTO 21014KT 10SM FEW045 FEW080 34/22 A2996,,,,,,,,,,SSW,38.31,,thin scattered,,,,22.08,98835.4,101278.34
KMKE,09/06/2016 19:52 UTC,101456.15,33.9,22.2,49.75,6.69,210,11.32,,101390,,2502,,,,,,,456,806,,,10,,KMKE 061952Z 21013G22KT 10SM FEW045 FEW080 SCT250 34/22 A2996 RMK AO2 PK WND 21026/1858 SLP139 T03390222,,,13.38,,,,,210,,SSW,38.09,,scattered,,,,21.99,98835.4,101279.15
KMKE,09/06/2016 19:55 UTC,101456.15,34,,49.75,8.23,220,,,,,,,,,,,,806,,,,10,,METAR KMKE 061955Z AUTO 22016KT 10SM FEW080 34/22 A2996,,,,,,,,,,SW,38.31,,thin scattered,,,,22.08,98835.4,101278.34
KMKE,09/06/2016 20:00 UTC,101456.15,34,,49.75,7.72,220,10.29,,,,,,,,,,,436,,,,10,,METAR KMKE 062000Z AUTO 22015G20KT 10SM FEW043 34/22 A2996,,,,,,,,,,SW,38.31,,thin scattered,,,,22.08,98835.4,101278.34
KMKE,09/06/2016 20:05 UTC,101456.15,34,,49.75,7.72,220,,,,,,,,,,,,436,,,,10,,METAR KMKE 062005Z AUTO 22015KT 10SM FEW043 34/22 A2996,,,,,,,,,,SW,38.31,,thin scattered,,,,22.08,98835.4,101278.34
KMKE,09/06/2016 20:10 UTC,101456.15,34,,49.75,8.23,200,,,,,,,,,,,,1,,,,10,,METAR KMKE 062010Z AUTO 20016KT 10SM CLR 34/22 A2996,,,,,,,,,,SSW,38.31,,clear,,,,22.08,98835.4,101278.34
KMKE,09/06/2016 20:15 UTC,101422.29,33,,52.61,8.23,220,,,,,,,,,,,,1,,,,10,,METAR KMKE 062015Z AUTO 22016KT 10SM CLR 33/22 A2995,,,,,,,,,,SW,37.06,,clear,,,,22.07,98802.42,101252.6
KMKE,09/06/2016 20:20 UTC,101422.29,33,,52.61,8.23,210,,,,,,,,,,,,1,,,,10,,METAR KMKE 062020Z AUTO 21016KT 10SM CLR 33/22 A2995,,,,,,,,,,SSW,37.06,,clear,,,,22.07,98802.42,101252.6
KMKE,09/06/2016 20:25 UTC,101422.29,33,,52.61,7.2,220,,,,,806,,,,,,,426,606,,,10,,METAR KMKE 062025Z AUTO 22014KT 10SM FEW042 FEW060 FEW080 33/22 A2995,,,,,,,,,,SW,37.06,,thin scattered,,,,22.07,98802.42,101252.6
KMKE,09/06/2016 20:30 UTC,101422.29,33,,55.9,6.69,200,,,,,756,,,,,,,426,606,,,10,,METAR KMKE 062030Z AUTO 20013KT 10SM FEW042 FEW060 FEW075 33/23 A2995,,,,,,,,,,SSW,38.11,,thin scattered,,,,23.06,98802.42,101252.58
KMKE,09/06/2016 20:35 UTC,101422.29,33,,55.9,6.17,190,,,,,,,,,,,,426,,,,10,,METAR KMKE 062035Z AUTO 19012KT 10SM FEW042 33/23 A2995,,,,,,,,,,S,38.11,,thin scattered,,,,23.06,98802.42,101252.58
KMKE,09/06/2016 20:40 UTC,101422.29,34,,52.86,6.17,220,,,,,,,,,,,,426,,,,10,,METAR KMKE 062040Z AUTO 22012KT 10SM FEW042 34/23 A2995,,,,,,,,,,SW,39.39,,thin scattered,,,,23.08,98802.42,101244.53
KMKE,09/06/2016 20:45 UTC,101422.29,34,,52.86,7.72,210,,,,,,,,,,,,426,,,,10,,METAR KMKE 062045Z AUTO 21015KT 10SM FEW042 34/23 A2995,,,,,,,,,,SSW,39.39,,thin scattered,,,,23.08,98802.42,101244.53
KMKE,09/06/2016 20:50 UTC,101388.43,33,,55.9,8.23,200,,,,,,,,,,,,426,606,,,10,,METAR KMKE 062050Z AUTO 20016KT 10SM FEW042 FEW060 33/23 A2994,,,,,,,,,,SSW,38.11,,thin scattered,,,,23.06,98769.43,101218.77
KMKE,09/06/2016 20:52 UTC,101388.43,32.8,22.2,52.61,8.23,200,10.8,,101330,,,,,,6022,,,426,802,,,10,,KMKE 062052Z 20016G21KT 10SM FEW042 SCT080 33/22 A2994 RMK AO2  SLP133 T03280222 56022,,,,,,,,,,SSW,36.64,,scattered,,,,21.88,98769.43,101220.42
KMKE,09/06/2016 20:55 UTC,101388.43,33,,52.61,8.75,230,,,,,,,,,,,,426,802,,,10,,METAR KMKE 062055Z AUTO 23017KT 10SM FEW042 SCT080 33/22 A2994,,,,,,,,,,SW,37.06,,scattered,,,,22.07,98769.43,101218.8
KMKE,09/06/2016 21:00 UTC,101388.43,33,,55.9,8.75,180,,,,,,,,,,,,426,802,,,10,,METAR KMKE 062100Z AUTO 18017KT 10SM FEW042 SCT080 33/23 A2994,,,,,,,,,,S,38.11,,scattered,,,,23.06,98769.43,101218.77
KMKE,09/06/2016 21:05 UTC,101388.43,33,,55.9,6.17,190,,,,,,,,,,,,426,802,,,10,,METAR KMKE 062105Z AUTO 19012KT 10SM FEW042 SCT080 33/23 A2994,,,,,,,,,,S,38.11,,scattered,,,,23.06,98769.43,101218.77
KMKE,09/06/2016 21:10 UTC,101388.43,33,,55.9,6.69,210,,,,,,,,,,,,426,802,,,10,,METAR KMKE 062110Z AUTO 21013KT 10SM FEW042 SCT080 33/23 A2994,,,,,,,,,,SSW,38.11,,scattered,,,,23.06,98769.43,101218.77
KMKE,09/06/2016 21:15 UTC,101422.29,33,,55.9,6.69,200,,,,,,,,,,,,426,802,,,10,,METAR KMKE 062115Z AUTO 20013KT 10SM FEW042 SCT080 33/23 A2995,,,,,,,,,,SSW,38.11,,scattered,,,,23.06,98802.42,101252.58
KMKE,09/06/2016 21:20 UTC,101388.43,33,,55.9,6.69,200,,,,,,,,,,,,426,802,,,10,,METAR KMKE 062120Z AUTO 20013KT 10SM FEW042 SCT080 33/23 A2994,,,,,,,,,,SSW,38.11,,scattered,,,,23.06,98769.43,101218.77
KMKE,09/06/2016 21:25 UTC,101388.43,32,,59.13,7.2,210,,,,,,,,,,,,426,802,,,10,,METAR KMKE 062125Z AUTO 21014KT 10SM FEW042 SCT080 32/23 A2994,,,,,,,,,,SSW,36.81,,scattered,,,,23.05,98769.43,101226.88
KMKE,09/06/2016 21:30 UTC,101388.43,33,,55.9,6.17,210,,,,,,,,,,,,426,802,,,10,,METAR KMKE 062130Z AUTO 21012KT 10SM FEW042 SCT080 33/23 A2994,,,,,,,,,,SSW,38.11,,scattered,,,,23.06,98769.43,101218.77
KMKE,09/06/2016 21:35 UTC,101388.43,33,,52.61,7.72,210,,,,,,,,,,,,426,802,,,10,,METAR KMKE 062135Z AUTO 21015KT 10SM FEW042 SCT080 33/22 A2994,,,,,,,,,,SSW,37.06,,scattered,,,,22.07,98769.43,101218.8
KMKE,09/06/2016 21:40 UTC,101388.43,33,,52.61,7.72,220,,,,,,,,,,,,426,802,,,10,,METAR KMKE 062140Z AUTO 22015KT 10SM FEW042 SCT080 33/22 A2994,,,,,,,,,,SW,37.06,,scattered,,,,22.07,98769.43,101218.8
KMKE,09/06/2016 21:45 UTC,101388.43,33,,52.61,8.23,220,,,,,,,,,,,,426,802,,,10,,METAR KMKE 062145Z AUTO 22016KT 10SM FEW042 SCT080 33/22 A2994,,,,,,,,,,SW,37.06,,scattered,,,,22.07,98769.43,101218.8
KMKE,09/06/2016 21:50 UTC,101388.43,33,,52.61,7.72,220,,,,,,,,,,,,426,802,,,10,,METAR KMKE 062150Z AUTO 22015KT 10SM FEW042 SCT080 33/22 A2994,,,,,,,,,,SW,37.06,,scattered,,,,22.07,98769.43,101218.8
KMKE,09/06/2016 21:52 UTC,101388.43,32.8,21.7,52.61,6.17,220,10.29,,101320,,,,,,,,,426,802,,,10,,KMKE 062152Z COR 22012G20KT 10SM FEW042 SCT080 33/22 A2994 RMK AO2  LTG DSNT N AND NW CB DSNT NW-N SLP132 T03280217,,,,,,,,,,SW,36.64,,scattered,,,,21.88,98769.43,101220.42
KMKE,09/06/2016 21:55 UTC,101388.43,33,,52.61,6.17,220,8.75,,,,,,,,,,,426,802,,,10,,METAR KMKE 062155Z AUTO 22012G17KT 10SM FEW042 SCT080 33/22 A2994,,,,,,,,,,SW,37.06,,scattered,,,,22.07,98769.43,101218.8
KMKE,09/06/2016 22:00 UTC,101388.43,33,,52.61,6.69,230,,,,,,,,,,,,426,802,,,10,,METAR KMKE 062200Z AUTO 23013KT 10SM FEW042 SCT080 33/22 A2994,,,,,,,,,,SW,37.06,,scattered,,,,22.07,98769.43,101218.8
KMKE,09/06/2016 22:05 UTC,101388.43,34,,49.75,7.2,230,,,,,,,,,,,,426,802,,,10,,METAR KMKE 062205Z AUTO 23014KT 10SM FEW042 SCT080 34/22 A2994,,,,,,,,,,SW,38.31,,scattered,,,,22.08,98769.43,101210.74
KMKE,09/06/2016 22:10 UTC,101422.29,34,,49.75,6.69,230,9.26,,,,,,,,,,,426,802,,,10,,METAR KMKE 062210Z AUTO 23013G18KT 10SM FEW042 SCT080 34/22 A2995,,,,,,,,,,SW,38.31,,scattered,,,,22.08,98802.42,101244.55
KMKE,09/06/2016 22:15 UTC,101388.43,33,,52.61,8.23,220,10.8,,,,,,,,,,,426,802,,,10,,METAR KMKE 062215Z AUTO 22016G21KT 10SM FEW042 SCT080 33/22 A2994,,,,,,,,,,SW,37.06,,scattered,,,,22.07,98769.43,101218.8
KMKE,09/06/2016 22:20 UTC,101388.43,33,,52.61,7.72,210,,,,,,,,,,,,426,802,,,10,,METAR KMKE 062220Z AUTO 21015KT 10SM FEW042 SCT080 33/22 A2994,,,,,,,,,,SSW,37.06,,scattered,,,,22.07,98769.43,101218.8
KMKE,09/06/2016 22:25 UTC,101422.29,33,,52.61,6.17,220,,,,,,,,,,,,426,802,,,10,,METAR KMKE 062225Z AUTO 22012KT 10SM FEW042 SCT080 33/22 A2995,,,,,,,,,,SW,37.06,,scattered,,,,22.07,98802.42,101252.6
KMKE,09/06/2016 22:30 UTC,101422.29,33,,52.61,9.26,230,,,,,,,,,,,,426,802,,,10,,METAR KMKE 062230Z AUTO 23018KT 10SM FEW042 SCT080 33/22 A2995,,,,,,,,,,SW,37.06,,scattered,,,,22.07,98802.42,101252.6
KMKE,09/06/2016 22:35 UTC,101422.29,33,,52.61,8.75,230,,,,,,,,,,,,426,802,,,10,,METAR KMKE 062235Z AUTO 23017KT 10SM FEW042 SCT080 33/22 A2995,,,,,,,,,,SW,37.06,,scattered,,,,22.07,98802.42,101252.6
KMKE,09/06/2016 22:40 UTC,101388.43,33,,52.61,7.72,230,,,,,,,,,,,,426,802,,,10,,METAR KMKE 062240Z AUTO 23015KT 10SM FEW042 SCT080 33/22 A2994,,,,,,,,,,SW,37.06,,scattered,,,,22.07,98769.43,101218.8
KMKE,09/06/2016 22:45 UTC,101388.43,33,,52.61,7.72,230,,,,,,,,,,,,426,802,,,10,,METAR KMKE 062245Z AUTO 23015KT 10SM FEW042 SCT080 33/22 A2994,,,,,,,,,,SW,37.06,,scattered,,,,22.07,98769.43,101218.8
KMKE,09/06/2016 22:50 UTC,101388.43,33,,52.61,7.2,230,,,,,,,,,,,,446,752,,,10,,METAR KMKE 062250Z AUTO 23014KT 10SM FEW044 SCT075 33/22 A2994,,,,,,,,,,SW,37.06,,scattered,,,,22.07,98769.43,101218.8
KMKE,09/06/2016 22:52 UTC,101388.43,32.8,21.7,52.61,7.2,220,11.32,,101330,,752,,,,,,,446,556,,,10,,KMKE 062252Z 22014G22KT 10SM FEW044 FEW055 SCT075 SCT250 33/22  A2994 RMK AO2 LTG DSNT NE SLP133 CB DSNT NE T03280217,,,,,,,,,,SW,36.64,,scattered,,,,21.88,98769.43,101220.42
KMKE,09/06/2016 22:55 UTC,101388.43,33,,52.61,8.23,230,10.8,,,,752,,,,,,,446,556,,,10,,METAR KMKE 062255Z AUTO 23016G21KT 10SM FEW044 FEW055 SCT075 33/22 A2994,,,,,,,,,,SW,37.06,,scattered,,,,22.07,98769.43,101218.8
KMKE,09/06/2016 23:00 UTC,101388.43,33,,52.61,7.72,230,,,,,752,,,,,,,446,556,,,10,,METAR KMKE 062300Z AUTO 23015KT 10SM FEW044 FEW055 SCT075 33/22 A2994,,,,,,,,,,SW,37.06,,scattered,,,,22.07,98769.43,101218.8
KMKE,09/06/2016 23:05 UTC,101388.43,33,,52.61,8.75,220,,,,,752,,,,,,,446,556,,,10,,METAR KMKE 062305Z AUTO 22017KT 10SM FEW044 FEW055 SCT075 33/22 A2994,,,,,,,,,,SW,37.06,,scattered,,,,22.07,98769.43,101218.8
KMKE,09/06/2016 23:10 UTC,101388.43,33,,52.61,6.17,230,,,,,752,,,,,,,446,556,,,10,,METAR KMKE 062310Z AUTO 23012KT 10SM FEW044 FEW055 SCT075 33/22 A2994,,,,,,,,,,SW,37.06,,scattered,,,,22.07,98769.43,101218.8
KMKE,09/06/2016 23:15 UTC,101388.43,33,,52.61,7.2,230,,,,,752,,,,,,,446,556,,,10,,METAR KMKE 062315Z AUTO 23014KT 10SM FEW044 FEW055 SCT075 33/22 A2994,,,,,,,,,,SW,37.06,,scattered,,,,22.07,98769.43,101218.8
KMKE,09/06/2016 23:20 UTC,101388.43,32,,55.65,7.72,220,,,,,752,,,,,,,446,556,,,10,,METAR KMKE 062320Z AUTO 22015KT 10SM FEW044 FEW055 SCT075 32/22 A2994,,,,,,,,,,SW,35.82,,scattered,,,,22.05,98769.43,101226.9
KMKE,09/06/2016 23:25 UTC,101388.43,32,,55.65,7.2,230,,,,,752,,,,,,,446,556,,,10,,METAR KMKE 062325Z AUTO 23014KT 10SM FEW044 FEW055 SCT075 32/22 A2994,,,,,,,,,,SW,35.82,,scattered,,,,22.05,98769.43,101226.9
KMKE,09/06/2016 23:30 UTC,101388.43,32,,55.65,5.66,230,,,,,752,,,,,,,446,556,,,10,,METAR KMKE 062330Z AUTO 23011KT 10SM FEW044 FEW055 SCT075 32/22 A2994,,,,,,,,,,SW,35.82,,scattered,,,,22.05,98769.43,101226.9
KMKE,09/06/2016 23:35 UTC,101388.43,32,,55.65,6.17,230,,,,,752,,,,,,,446,556,,,10,,METAR KMKE 062335Z AUTO 23012KT 10SM FEW044 FEW055 SCT075 32/22 A2994,,,,,,,,,,SW,35.82,,scattered,,,,22.05,98769.43,101226.9
KMKE,09/06/2016 23:40 UTC,101388.43,32,,55.65,7.2,220,,,,,752,,,,,,,446,556,,,10,,METAR KMKE 062340Z AUTO 22014KT 10SM FEW044 FEW055 SCT075 32/22 A2994,,,,,,,,,,SW,35.82,,scattered,,,,22.05,98769.43,101226.9
KMKE,09/06/2016 23:45 UTC,101388.43,32,,55.65,5.14,220,,,,,752,,,,,,,446,556,,,10,,METAR KMKE 062345Z AUTO 22010KT 10SM FEW044 FEW055 SCT075 32/22 A2994,,,,,,,,,,SW,35.82,,scattered,,,,22.05,98769.43,101226.9
KMKE,09/06/2016 23:50 UTC,101388.43,32,,55.65,6.69,230,9.26,,,,,,,,,,,446,756,,,10,,METAR KMKE 062350Z AUTO 23013G18KT 10SM FEW044 FEW075 32/22 A2994,,,,,,,,,,SW,35.82,,thin scattered,,,,22.05,98769.43,101226.9
KMKE,09/06/2016 23:52 UTC,101388.43,31.7,21.7,55.65,6.69,220,9.26,,101330,,2506,,,,5000,,,446,756,,,10,,KMKE 062352Z 22013G18KT 10SM FEW044 FEW075 FEW250 32/22 A2994 RMK AO2 SLP133 CB DSNT NW-NE TCU DSNT N T03170217 10344 20317  55000,34.4,31.7,,,,,,,,SW,35.2,,thin scattered,,,,21.77,98769.43,101229.35
KMKE,09/06/2016 23:55 UTC,101388.43,32,,55.65,5.14,220,,,,,,,,,,,,446,756,,,10,,METAR KMKE 062355Z AUTO 22010KT 10SM FEW044 FEW075 32/22 A2994,,,,,,,,,,SW,35.82,,thin scattered,,,,22.05,98769.43,101226.9
KMKE,09/07/2016 00:00 UTC,101388.43,32,,55.65,5.66,230,,,,,,,,,,,,416,756,,,10,,METAR KMKE 070000Z AUTO 23011KT 10SM FEW041 FEW075 32/22 A2994,,,,,,,,,,SW,35.82,,thin scattered,,,,22.05,98769.43,101226.9
KMKE,09/07/2016 00:05 UTC,101388.43,31,,58.89,6.17,220,,,,,,,,,,,,416,756,,,10,,METAR KMKE 070005Z AUTO 22012KT 10SM FEW041 FEW075 31/22 A2994,,,,,,,,,,SW,34.57,,thin scattered,,,,22.04,98769.43,101235.06
KMKE,09/07/2016 00:10 UTC,101422.29,31,,58.89,5.14,220,,,,,,,,,,,,416,756,,,10,,METAR KMKE 070010Z AUTO 22010KT 10SM FEW041 FEW075 31/22 A2995,,,,,,,,,,SW,34.57,,thin scattered,,,,22.04,98802.42,101268.88
KMKE,09/07/2016 00:15 UTC,101422.29,31,,58.89,5.66,220,,,,,,,,,,,,416,756,,,10,,METAR KMKE 070015Z AUTO 22011KT 10SM FEW041 FEW075 31/22 A2995,,,,,,,,,,SW,34.57,,thin scattered,,,,22.04,98802.42,101268.88
KMKE,09/07/2016 00:20 UTC,101422.29,31,,58.89,5.14,220,,,,,,,,,,,,416,756,,,10,,METAR KMKE 070020Z AUTO 22010KT 10SM FEW041 FEW075 31/22 A2995,,,,,,,,,,SW,34.57,,thin scattered,,,,22.04,98802.42,101268.88
KMKE,09/07/2016 00:25 UTC,101456.15,31,,58.89,4.63,230,,,,,,,,,,,,416,756,,,10,,METAR KMKE 070025Z AUTO 23009KT 10SM FEW041 FEW075 31/22 A2996,,,,,,,,,,SW,34.57,,thin scattered,,,,22.04,98835.4,101302.68
KMKE,09/07/2016 00:30 UTC,101456.15,31,,58.89,5.14,220,,,,,,,,,,,,416,756,,,10,,METAR KMKE 070030Z AUTO 22010KT 10SM FEW041 FEW075 31/22 A2996,,,,,,,,,,SW,34.57,,thin scattered,,,,22.04,98835.4,101302.68
KMKE,09/07/2016 00:35 UTC,101456.15,31,,58.89,4.63,210,,,,,,,,,,,,416,756,,,10,,METAR KMKE 070035Z AUTO 21009KT 10SM FEW041 FEW075 31/22 A2996,,,,,,,,,,SSW,34.57,,thin scattered,,,,22.04,98835.4,101302.68
KMKE,09/07/2016 00:40 UTC,101456.15,31,,58.89,3.09,210,,,,,,,,,,,,416,756,,,10,,METAR KMKE 070040Z AUTO 21006KT 10SM FEW041 FEW075 31/22 A2996,,,,,,,,,,SSW,34.57,,thin scattered,,,,22.04,98835.4,101302.68
KMKE,09/07/2016 00:45 UTC,101456.15,31,,58.89,3.6,200,,,,,,,,,,,,416,756,,,10,,METAR KMKE 070045Z AUTO 20007KT 10SM FEW041 FEW075 31/22 A2996,,,,,,,,,,SSW,34.57,,thin scattered,,,,22.04,98835.4,101302.68
KMKE,09/07/2016 00:50 UTC,101490.02,31,,58.89,3.6,200,,,,,,,,,,,,416,756,,,10,,METAR KMKE 070050Z AUTO 20007KT 10SM FEW041 FEW075 31/22 A2997,,,,,,,,,,SSW,34.57,,thin scattered,,,,22.04,98868.4,101336.5
KMKE,09/07/2016 00:52 UTC,101490.02,30.6,22.2,58.89,3.6,200,,,101410,,2506,,,,,,,406,556,,,10,,KMKE 070052Z 20007KT 10SM FEW040 FEW055 FEW250 31/22 A2997 RMK AO2  LTG DSNT N AND NW SLP141 OCNL LTG DSNT NE CB DSNT NW-NE TCU  DSNT N T03060222,,,,,,,,,,SSW,33.76,,thin scattered,,,,21.66,98868.4,101339.79
KMKE,09/07/2016 00:55 UTC,101456.15,31,,58.89,4.12,190,,,,,,,,,,,,406,556,,,10,,METAR KMKE 070055Z AUTO 19008KT 10SM FEW040 FEW055 31/22 A2996,,,,,,,,,,S,34.57,,thin scattered,,,,22.04,98835.4,101302.68
KMKE,09/07/2016 01:00 UTC,101456.15,30,,62.35,4.12,200,,,,,,,,,,,,406,556,,,10,,METAR KMKE 070100Z AUTO 20008KT 10SM FEW040 FEW055 30/22 A2996,,,,,,,,,,SSW,33.31,,thin scattered,,,,22.03,98835.4,101310.9
KMKE,09/07/2016 01:05 UTC,101490.02,30,,62.35,4.12,200,,,,,,,,,,,,406,556,,,10,,METAR KMKE 070105Z AUTO 20008KT 10SM FEW040 FEW055 30/22 A2997,,,,,,,,,,SSW,33.31,,thin scattered,,,,22.03,98868.4,101344.73
KMKE,09/07/2016 01:10 UTC,101490.02,30,,62.35,3.09,200,,,,,,,,,,,,406,556,,,10,,METAR KMKE 070110Z AUTO 20006KT 10SM FEW040 FEW055 30/22 A2997,,,,,,,,,,SSW,33.31,,thin scattered,,,,22.03,98868.4,101344.73
KMKE,09/07/2016 01:15 UTC,101490.02,30,,62.35,3.6,200,,,,,,,,,,,,406,556,,,10,,METAR KMKE 070115Z AUTO 20007KT 10SM FEW040 FEW055 30/22 A2997,,,,,,,,,,SSW,33.31,,thin scattered,,,,22.03,98868.4,101344.73
KMKE,09/07/2016 01:20 UTC,101490.02,30,,62.35,3.09,200,,,,,,,,,,,,406,556,,,10,,METAR KMKE 070120Z AUTO 20006KT 10SM FEW040 FEW055 30/22 A2997,,,,,,,,,,SSW,33.31,,thin scattered,,,,22.03,98868.4,101344.73
KMKE,09/07/2016 01:25 UTC,101490.02,29,,66.04,3.09,200,,,,,,,,,,,,406,556,,,10,,METAR KMKE 070125Z AUTO 20006KT 10SM FEW040 FEW055 29/22 A2997,,,,,,,,,,SSW,32.02,,thin scattered,,,,22.02,98868.4,101353.01
KMKE,09/07/2016 01:30 UTC,101490.02,29,,66.04,3.6,200,,,,,,,,,,,,406,556,,,10,,,,,,,,,,,,SSW,32.02,,thin scattered,,,,22.02,98868.4,101353.01
KMKE,09/07/2016 01:35 UTC,101490.02,29,,66.04,4.12,200,,,,,,,,,,,,406,556,,,10,,,,,,,,,,,,SSW,32.02,,thin scattered,,,,22.02,98868.4,101353.01
KMKE,09/07/2016 01:40 UTC,101490.02,29,,66.04,4.12,200,,,,,,,,,,,,406,556,,,10,,,,,,,,,,,,SSW,32.02,,thin scattered,,,,22.02,98868.4,101353.01
KMKE,09/07/2016 01:45 UTC,101490.02,29,,66.04,3.09,190,,,,,,,,,,,,406,556,,,10,,,,,,,,,,,,S,32.02,,thin scattered,,,,22.02,98868.4,101353.01
KMKE,09/07/2016 01:50 UTC,101490.02,29,,66.04,3.6,200,,,,,,,,,,,,406,,,,10,,,,,,,,,,,,SSW,32.02,,thin scattered,,,,22.02,98868.4,101353.01
KMKE,09/07/2016 01:52 UTC,101523.88,29.4,,65.33,4.12,200,,,101450,,,,,,,,,406,2506,,,10,,,,,,,,,,,,SSW,32.69,,thin scattered,,,,22.22,98901.38,101383.49
KMKE,09/07/2016 01:55 UTC,101523.88,29,,66.04,3.6,200,,,,,,,,,,,,406,,,,10,,,,,,,,,,,,SSW,32.02,,thin scattered,,,,22.02,98901.38,101386.81
KMKE,09/07/2016 02:00 UTC,101523.88,29,,66.04,4.12,200,,,,,,,,,,,,406,,,,10,,,,,,,,,,,,SSW,32.02,,thin scattered,,,,22.02,98901.38,101386.81
KMKE,09/07/2016 02:05 UTC,101523.88,29,,66.04,3.6,200,,,,,,,,,,,,406,,,,10,,,,,,,,,,,,SSW,32.02,,thin scattered,,,,22.02,98901.38,101386.81
KMKE,09/07/2016 02:10 UTC,101523.88,29,,66.04,3.6,200,,,,,,,,,,,,406,,,,10,,,,,,,,,,,,SSW,32.02,,thin scattered,,,,22.02,98901.38,101386.81
KMKE,09/07/2016 02:15 UTC,101557.75,29,,66.04,4.12,210,,,,,,,,,,,,406,,,,10,,,,,,,,,,,,SSW,32.02,,thin scattered,,,,22.02,98934.38,101420.64
KMKE,09/07/2016 02:20 UTC,101523.88,29,,66.04,3.6,210,,,,,,,,,,,,406,,,,10,,,,,,,,,,,,SSW,32.02,,thin scattered,,,,22.02,98901.38,101386.81
KMKE,09/07/2016 02:25 UTC,101557.75,29,,66.04,4.12,210,,,,,,,,,,,,406,,,,10,,,,,,,,,,,,SSW,32.02,,thin scattered,,,,22.02,98934.38,101420.64
KMKE,09/07/2016 02:30 UTC,101557.75,29,,66.04,4.12,210,,,,,,,,,,,,406,,,,10,,,,,,,,,,,,SSW,32.02,,thin scattered,,,,22.02,98934.38,101420.64
KMKE,09/07/2016 02:35 UTC,101557.75,29,,66.04,3.6,210,,,,,,,,,,,,406,,,,10,,,,,,,,,,,,SSW,32.02,,thin scattered,,,,22.02,98934.38,101420.64
KMKE,09/07/2016 02:40 UTC,101557.75,29,,66.04,3.6,210,,,,,,,,,,,,406,,,,10,,,,,,,,,,,,SSW,32.02,,thin scattered,,,,22.02,98934.38,101420.64
KMKE,09/07/2016 02:45 UTC,101557.75,28,,69.98,4.12,220,,,,,,,,,,,,406,,,,10,,,,,,,,,,,,SW,30.66,,thin scattered,,,,22.01,98934.38,101428.98
KMKE,09/07/2016 02:50 UTC,101557.75,28,,69.98,4.12,220,,,,,,,,,,,,406,,,,10,,,,,,,,,,,,SW,30.66,,thin scattered,,,,22.01,98934.38,101428.98
KMKE,09/07/2016 02:52 UTC,101557.75,28.3,,69.61,3.6,220,,,101500,,,,,,1017,,,406,2506,,,10,,,,,,,,,,,,SW,31.2,,thin scattered,,,,22.21,98934.38,101426.47
KMKE,09/07/2016 02:55 UTC,101557.75,28,,69.98,4.12,220,,,,,,,,,,,,1,,,,10,,,,,,,,,,,,SW,30.66,,clear,,,,22.01,98934.38,101428.98
KMKE,09/07/2016 03:00 UTC,101557.75,28,,69.98,3.6,220,,,,,,,,,,,,1,,,,10,,,,,,,,,,,,SW,30.66,,clear,,,,22.01,98934.38,101428.98
KMKE,09/07/2016 03:05 UTC,101591.61,28,,69.98,4.12,220,,,,,,,,,,,,1,,,,10,,,,,,,,,,,,SW,30.66,,clear,,,,22.01,98967.36,101462.79
KMKE,09/07/2016 03:10 UTC,101591.61,28,,69.98,4.63,220,,,,,,,,,,,,,,,,10,,,,,,,,,,,,SW,30.66,,,,,,22.01,98967.36,101462.79
KMKE,09/07/2016 03:15 UTC,101591.61,28,,69.98,4.63,220,,,,,,,,,,,,,,,,10,,,,,,,,,,,,SW,30.66,,,,,,22.01,98967.36,101462.79
KMKE,09/07/2016 03:20 UTC,101591.61,28,,69.98,4.63,220,,,,,,,,,,,,,,,,10,,,,,,,,,,,,SW,30.66,,,,,,22.01,98967.36,101462.79
KMKE,09/07/2016 03:25 UTC,101591.61,28,,69.98,4.63,220,,,,,,,,,,,,,,,,10,,,,,,,,,,,,SW,30.66,,,,,,22.01,98967.36,101462.79
KMKE,09/07/2016 03:30 UTC,101591.61,28,,69.98,4.63,220,,,,,,,,,,,,,,,,10,,,,,,,,,,,,SW,30.66,,,,,,22.01,98967.36,101462.79
KMKE,09/07/2016 03:35 UTC,101591.61,28,,74.36,4.12,220,,,,,,,,,,,,,,,,10,,,,,,,,,,,,SW,31.26,,,,,,23.01,98967.36,101462.77
KMKE,09/07/2016 03:40 UTC,101591.61,28,,74.36,3.09,220,,,,,,,,,,,,,,,,10,,,,,,,,,,,,SW,31.26,,,,,,23.01,98967.36,101462.77
KMKE,09/07/2016 03:45 UTC,101625.47,28,,74.36,0,0,,,,,,,,,,,,,,,,10,,,,,,,,,,,,N,31.26,,,,,,23.01,99000.35,101496.59
KMKE,09/07/2016 03:50 UTC,101625.47,28,,69.98,6.69,30,,,,,,,,,,,,803,,,,10,,,,,,2438.4,,,,,,NNE,30.66,,broken,,,,22.01,99000.35,101496.62
KMKE,09/07/2016 03:52 UTC,101625.47,26.1,,76.8,5.66,40,7.72,,101570,,,,,,,,,803,,,,10,,,,,,2438.4,,,,,,NE,,,broken,,,,21.7,99000.35,101512.63
KMKE,09/07/2016 03:55 UTC,101625.47,24,,83.37,5.14,30,,,,,,,,,,,,703,804,,,10,,,,,,2133.6,,,,,,NNE,,,overcast,,,,21,99000.35,101530.58
KMKE,09/07/2016 04:00 UTC,101659.34,24,,83.37,6.69,30,,,,,,,,,,,,603,804,,,10,,,,,,1828.8,,,,,,NNE,,,overcast,,,,21,99033.34,101564.42
KMKE,09/07/2016 04:05 UTC,101659.34,24,,83.37,5.14,20,,,,,854,,,,,,,503,703,,,10,,,,,,1524,,,,,,NNE,,,overcast,,,,21,99033.34,101564.42
KMKE,09/07/2016 04:10 UTC,101659.34,23,,88.54,5.14,30,,,,,854,,,,,,,246,503,,,10,,,,,,1524,,,,,,NNE,,,overcast,,,,21,99033.34,101573.05
KMKE,09/07/2016 04:15 UTC,101659.34,24,,83.37,6.17,20,8.75,,,,704,,,,,,,246,493,,,10,,,,,,1493.52,,,,,,NNE,,,overcast,,,,21,99033.34,101564.42
KMKE,09/07/2016 04:20 UTC,101659.34,23,,83.25,8.75,30,,,,,854,,,,,,,246,493,,,10,,,,,,1493.52,,,,,,NNE,,,overcast,,,,19.99,99033.34,101573.07
KMKE,09/07/2016 04:25 UTC,101625.47,23,,83.25,8.23,40,,,,,904,,,,,,,246,493,,,10,,,,,,1493.52,,,,,,NE,,,overcast,,,,19.99,99000.35,101539.24
KMKE,09/07/2016 04:30 UTC,101659.34,23,,83.25,6.69,20,9.26,,,,754,,,,,,,246,493,,,10,,,,,,1493.52,,,,,,NNE,,,overcast,,,,19.99,99033.34,101573.07
KMKE,09/07/2016 04:35 UTC,101625.47,23,,78.24,7.2,20,,,,,854,,,,,,,246,493,,,10,,,,,,1493.52,,,,,,NNE,,,overcast,,,,18.99,99000.35,101539.25
KMKE,09/07/2016 04:40 UTC,101659.34,23,,78.24,6.69,10,,,,,854,,,,,,,266,493,,,10,,,,,,1493.52,,,,,,N,,,overcast,,,,18.99,99033.34,101573.09
KMKE,09/07/2016 04:45 UTC,101659.34,23,,78.24,7.2,10,,,,,854,,,,,,,286,493,,,10,,,,,,1493.52,,,,,,N,,,overcast,,,,18.99,99033.34,101573.09
KMKE,09/07/2016 04:50 UTC,101693.2,23,,78.24,6.17,10,,,,,853,,,,,,,282,493,,,10,,,,,,1493.52,,,,,,N,,,broken,,,,18.99,99066.33,101606.93
KMKE,09/07/2016 04:52 UTC,101659.34,23.3,,78.77,5.14,20,,,101610,,853,,,,,,,282,493,,,10,,,,,,1493.52,,,,,,NNE,,,broken,,,,19.39,99033.34,101570.49
KMKE,09/07/2016 04:55 UTC,101693.2,23,,78.24,5.14,20,,,,,854,,,,,,,276,493,,,10,,,,,,1493.52,,,,,,NNE,,,overcast,,,,18.99,99066.33,101606.93
KMKE,09/07/2016 05:00 UTC,101727.07,23,,78.24,8.23,350,,,,,494,,,,,,,306,343,,,10,,,,,,1036.32,,,,,,N,,,overcast,,,,18.99,99099.32,101640.76
KMKE,09/07/2016 05:05 UTC,101727.07,24,,73.67,6.17,340,8.75,,,,484,,,,,,,196,323,,,10,,,,,,975.36,,,,,,NNW,,,overcast,,,,18.99,99099.32,101632.12
KMKE,09/07/2016 05:10 UTC,101727.07,24,,73.67,3.6,340,,,,,484,,,,,,,196,323,,,10,,,,,,975.36,,,,,,NNW,,,overcast,,,,18.99,99099.32,101632.12
KMKE,09/07/2016 05:15 UTC,101727.07,24,,73.67,4.63,330,,,,,,,,,,,,323,464,,,10,,,,,,975.36,,,,,,NNW,,,overcast,,,,18.99,99099.32,101632.12
KMKE,09/07/2016 05:20 UTC,101727.07,24,,73.67,5.14,340,,,,1,,,,,,0.254,,343,444,,,10,,,,,,1036.32,,,,,,NNW,,rain,rain,,,,18.99,99099.32,101632.12
KMKE,09/07/2016 05:25 UTC,101693.2,23,,78.24,5.14,10,,,,13,,,,,,0.254,,343,444,,,10,,,,,,1036.32,,,,,,N,,light rain,light rain,,,,18.99,99066.33,101606.93
KMKE,09/07/2016 05:30 UTC,101693.2,23,,78.24,3.6,10,,,,1,,,,,,0.508,,343,444,,,9,,,,,,1036.32,,,,,,N,,rain,rain,,,,18.99,99066.33,101606.93
KMKE,09/07/2016 05:35 UTC,101659.34,22,,83.13,4.63,20,,,,1,,,,,,0.508,,383,484,,,9,,,,,,1158.24,,,,,,NNE,,rain,rain,,,,18.99,99033.34,101581.78
KMKE,09/07/2016 05:40 UTC,101693.2,22,,83.13,3.6,20,,,,13,554,,,,,0.762,,356,453,,,10,,,,,,1371.6,,,,,,NNE,,light rain,light rain,,,,18.99,99066.33,101615.62
KMKE,09/07/2016 05:45 UTC,101659.34,22,,83.13,4.63,30,,,,13,504,,,,,0.762,,356,423,,,10,,,,,,1280.16,,,,,,NNE,,light rain,light rain,,,,18.99,99033.34,101581.78
KMKE,09/07/2016 05:50 UTC,101693.2,22,,83.13,3.6,30,,,,13,,,,,,0.762,,403,504,,,10,,,,,,1219.2,,,,,,NNE,,light rain,light rain,,,,18.99,99066.33,101615.62
KMKE,09/07/2016 05:52 UTC,101693.2,22.2,,84.2,3.6,30,,,101640,13,,,,,1014,0.762,,403,504,0.762,,10,,,31.7,22.2,,1219.2,,34.4,22.2,,,NNE,,light rain,light rain,,,,19.39,99066.33,101613.87
KMKE,09/07/2016 05:55 UTC,101693.2,22,,83.13,3.6,50,,,,,,,,,,,,403,504,,,10,,,,,,1219.2,,,,,,NE,,,overcast,,,,18.99,99066.33,101615.62
KMKE,09/07/2016 06:00 UTC,101693.2,22,,83.13,2.06,50,,,,,,,,,,,,383,504,,,10,,,,,,1158.24,,,,,,NE,,,overcast,,,,18.99,99066.33,101615.62
KMKE,09/07/2016 06:05 UTC,101693.2,22,,83.13,2.06,70,,,,,,,,,,,,383,504,,,10,,,,,,1158.24,,,,,,ENE,,,overcast,,,,18.99,99066.33,101615.62
KMKE,09/07/2016 06:10 UTC,101659.34,22,,83.13,3.09,70,,,,,,,,,,,,383,503,,,10,,,,,,1158.24,,,,,,ENE,,,broken,,,,18.99,99033.34,101581.78
KMKE,09/07/2016 06:15 UTC,101659.34,22,,83.13,3.6,70,,,,,804,,,,,,,382,503,,,10,,,,,,1524,,,,,,ENE,,,overcast,,,,18.99,99033.34,101581.78
KMKE,09/07/2016 06:20 UTC,101659.34,22,,83.13,1.54,60,,,,,804,,,,,,,393,503,,,10,,,,,,1188.72,,,,,,ENE,,,overcast,,,,18.99,99033.34,101581.78
KMKE,09/07/2016 06:25 UTC,101625.47,22,,88.46,2.57,80,,,,,854,,,,,,,376,453,,,10,,,,,,1371.6,,,,,,E,,,overcast,,,,20,99000.35,101547.93
KMKE,09/07/2016 06:30 UTC,101591.61,22,,88.46,2.06,60,,,,,703,,,,,,,422,503,,,10,,,,,,1524,,,,,,ENE,,,broken,,,,20,98967.36,101514.09
KMKE,09/07/2016 06:35 UTC,101591.61,22,,88.46,2.06,40,,,,,754,,,,,,,462,503,,,10,,,,,,1524,,,,,,NE,,,overcast,,,,20,98967.36,101514.09
KMKE,09/07/2016 06:40 UTC,101557.75,22,,88.46,2.57,100,,,,,,,,,,,,442,603,,,10,,,,,,1828.8,,,,,,E,,,broken,,,,20,98934.38,101480.26
KMKE,09/07/2016 06:45 UTC,101591.61,22,,88.46,1.54,40,,,,,,,,,,,,443,603,,,10,,,,,,1341.12,,,,,,NE,,,broken,,,,20,98967.36,101514.09
KMKE,09/07/2016 06:50 UTC,101591.61,22,,88.46,1.54,70,,,,,,,,,,,,442,553,,,10,,,,,,1676.4,,,,,,ENE,,,broken,,,,20,98967.36,101514.09
KMKE,09/07/2016 06:52 UTC,101557.75,21.7,,90.09,0,0,,,101510,,,,,,,0.025,,442,553,,,10,,,,,,1676.4,,,,,,N,,,broken,,,,20,98934.38,101482.88
KMKE,09/07/2016 06:55 UTC,101591.61,22,,88.46,0,0,,,,,,,,,,,,442,553,,,10,,,,,,1676.4,,,,,,N,,,broken,,,,20,98967.36,101514.09
KMKE,09/07/2016 07:00 UTC,101557.75,22,,88.46,0,0,,,,,,,,,,,,443,603,,,10,,,,,,1341.12,,,,,,N,,,broken,,,,20,98934.38,101480.26
KMKE,09/07/2016 07:05 UTC,101557.75,22,,88.46,0,0,,,,,,,,,,,,443,,,,10,,,,,,1341.12,,,,,,N,,,broken,,,,20,98934.38,101480.26
KMKE,09/07/2016 07:10 UTC,101591.61,22,,88.46,1.54,130,,,,,,,,,,,,442,603,,,10,,,,,,1828.8,,,,,,SE,,,broken,,,,20,98967.36,101514.09
KMKE,09/07/2016 07:15 UTC,101557.75,22,,88.46,1.54,140,,,,,,,,,,,,442,602,,,10,,,,,,,,,,,,SE,,,scattered,,,,20,98934.38,101480.26
KMKE,09/07/2016 07:20 UTC,101557.75,22,,88.46,1.54,140,,,,,,,,,,,,442,,,,10,,,,,,,,,,,,SE,,,scattered,,,,20,98934.38,101480.26
KMKE,09/07/2016 07:25 UTC,101557.75,22,,88.46,1.54,130,,,,,,,,,,,,416,482,,,10,,,,,,,,,,,,SE,,,scattered,,,,20,98934.38,101480.26
KMKE,09/07/2016 07:30 UTC,101557.75,22,,88.46,2.06,120,,,,,,,,,,,,416,,,,10,,,,,,,,,,,,ESE,,,thin scattered,,,,20,98934.38,101480.26
KMKE,09/07/2016 07:35 UTC,101557.75,22,,88.46,2.06,150,,,,,,,,,,,,392,,,,10,,,,,,,,,,,,SSE,,,scattered,,,,20,98934.38,101480.26
KMKE,09/07/2016 07:40 UTC,101557.75,22,,88.46,1.54,170,,,,,,,,,,,,393,,,,10,,,,,,1188.72,,,,,,S,,,broken,,,,20,98934.38,101480.26
KMKE,09/07/2016 07:45 UTC,101557.75,22,,88.46,2.06,170,,,,,,,,,,,,392,,,,10,,,,,,,,,,,,S,,,scattered,,,,20,98934.38,101480.26
KMKE,09/07/2016 07:50 UTC,101557.75,22,,88.46,1.54,170,,,,13,,,,,,,,392,1103,,,10,,,,,,3352.8,,,,,,S,,light rain,light rain,,,,20,98934.38,101480.26
KMKE,09/07/2016 07:52 UTC,101591.61,22.2,,87.39,1.54,160,,,101510,13,2003,,,,,0.025,,392,1103,,,10,,,,,,3352.8,,,,,,SSE,,light rain,light rain,,,,19.99,98967.36,101512.35
KMKE,09/07/2016 07:55 UTC,101591.61,22,,88.46,0,0,,,,13,,,,,,,,393,1103,,,10,,,,,,1188.72,,,,,,N,,light rain,light rain,,,,20,98967.36,101514.09
KMKE,09/07/2016 08:00 UTC,101659.34,22,,88.46,5.14,330,,,,13,,,,,,,,383,1103,,,10,,,,,,1158.24,,,,,,NNW,,light rain,light rain,,,,20,99033.34,101581.77
KMKE,09/07/2016 08:05 UTC,101625.47,22,,88.46,3.09,360,,,,,1103,,,,,,,86,363,,,10,,,,,,1097.28,,,,,,N,,,broken,,,,20,99000.35,101547.93
KMKE,09/07/2016 08:09 UTC,101625.47,22.2,,87.39,3.6,10,,,,,503,,,,,0.025,,86,363,,,10,,,,,,1097.28,,,,,,N,,,broken,,,,19.99,99000.35,101546.18
KMKE,09/07/2016 08:10 UTC,101625.47,22,,88.46,3.09,360,,,,,503,,,,,,,86,363,,,10,,,,,,1097.28,,,,,,N,,,broken,,,,20,99000.35,101547.93
KMKE,09/07/2016 08:15 UTC,101591.61,22,,88.46,2.57,50,,,,,503,,,,,,,86,363,,,10,,,,,,1097.28,,,,,,NE,,,broken,,,,20,98967.36,101514.09
KMKE,09/07/2016 08:20 UTC,101625.47,22,,94.07,2.06,20,,,,,504,,,,,,,116,363,,,10,,,,,,1097.28,,,,,,NNE,,,overcast,,,,21,99000.35,101547.91
KMKE,09/07/2016 08:25 UTC,101591.61,22,,94.07,0,0,,,,,,,,,,,,116,364,,,10,,,,,,1097.28,,,,,,N,,,overcast,,,,21,98967.36,101514.07
KMKE,09/07/2016 08:30 UTC,101625.47,22,,94.07,2.06,30,10.8,,,,1104,,,,,,,116,343,,,10,,,,,,1036.32,,,,,,NNE,,,overcast,,,,21,99000.35,101547.91
KMKE,09/07/2016 08:35 UTC,101625.47,22,,94.07,2.06,30,10.8,,,,1104,,,,,,,116,343,,,10,,,,,,1036.32,,,,,,NNE,,,overcast,,,,21,99000.35,101547.91
KMKE,09/07/2016 08:40 UTC,101591.61,22,,88.46,2.06,30,10.8,,,,1104,,,,,,,116,343,,,10,,,,,,1036.32,,,,,,NNE,,,overcast,,,,20,98967.36,101514.09
KMKE,09/07/2016 08:45 UTC,101591.61,22,,94.07,2.06,30,10.8,,,,1104,,,,,,,116,343,,,10,,,,,,1036.32,,,,,,NNE,,,overcast,,,,21,98967.36,101514.07
KMKE,09/07/2016 08:50 UTC,101591.61,22,,88.46,2.06,30,10.8,,,,1104,,,,,,,116,343,,,10,,,,,,1036.32,,,,,,NNE,,,overcast,,,,20,98967.36,101514.09
KMKE,09/07/2016 08:52 UTC,101591.61,22.2,,87.39,1.54,90,,,101530,,,,,,5010,0.025,0.025,343,1104,,,10,,,,,,1036.32,,,,,,E,,,overcast,,,,19.99,98967.36,101512.35
KMKE,09/07/2016 08:55 UTC,101591.61,22,,94.07,1.54,70,,,,,,,,,,,,343,454,,,10,,,,,,1036.32,,,,,,ENE,,,overcast,,,,21,98967.36,101514.07
KMKE,09/07/2016 09:00 UTC,101591.61,22,,88.46,2.06,90,,,,,604,,,,,,,343,483,,,10,,,,,,1036.32,,,,,,E,,,overcast,,,,20,98967.36,101514.09
KMKE,09/07/2016 09:05 UTC,101591.61,22,,88.46,2.06,110,,,,,704,,,,,,,342,483,,,10,,,,,,1463.04,,,,,,ESE,,,overcast,,,,20,98967.36,101514.09
KMKE,09/07/2016 09:10 UTC,101557.75,22,,88.46,1.54,100,,,,,704,,,,,,,326,482,,,10,,,,,,2133.6,,,,,,E,,,overcast,,,,20,98934.38,101480.26
KMKE,09/07/2016 09:15 UTC,101557.75,22,,88.46,2.57,120,,,,,703,,,,,,,326,462,,,10,,,,,,2133.6,,,,,,ESE,,,broken,,,,20,98934.38,101480.26
KMKE,09/07/2016 09:20 UTC,101557.75,22,,88.46,2.06,120,,,,,903,,,,,,,496,703,,,10,,,,,,2133.6,,,,,,ESE,,,broken,,,,20,98934.38,101480.26
KMKE,09/07/2016 09:25 UTC,101591.61,22,,83.13,1.54,120,,,,,702,,,,,,,496,606,,,10,,,,,,,,,,,,ESE,,,scattered,,,,18.99,98967.36,101514.11
KMKE,09/07/2016 09:30 UTC,101557.75,22,,83.13,2.06,120,,,,,,,,,,,,652,,,,10,,,,,,,,,,,,ESE,,,scattered,,,,18.99,98934.38,101480.28
KMKE,09/07/2016 09:35 UTC,101557.75,22,,83.13,2.57,130,,,,,,,,,,,,702,952,,,10,,,,,,,,,,,,SE,,,scattered,,,,18.99,98934.38,101480.28
KMKE,09/07/2016 09:40 UTC,101557.75,22,,83.13,3.09,130,,,,,,,,,,,,706,903,,,10,,,,,,2743.2,,,,,,SE,,,broken,,,,18.99,98934.38,101480.28
KMKE,09/07/2016 09:45 UTC,101557.75,22,,83.13,2.57,130,,,,,903,,,,,,,556,702,,,10,,,,,,2743.2,,,,,,SE,,,broken,,,,18.99,98934.38,101480.28
KMKE,09/07/2016 09:50 UTC,101557.75,22,,88.46,2.06,140,,,,,903,,,,,,,556,702,,,10,,,,,,2743.2,,,,,,SE,,,broken,,,,20,98934.38,101480.26
KMKE,09/07/2016 09:52 UTC,101557.75,22.2,,87.39,2.06,140,,,101490,,903,,,,,,,556,702,,,10,,,,,,2743.2,,,,,,SE,,,broken,,,,19.99,98934.38,101478.52
KMKE,09/07/2016 09:55 UTC,101557.75,22,,88.46,2.06,150,,,,,903,,,,,,,506,702,,,10,,,,,,2743.2,,,,,,SSE,,,broken,,,,20,98934.38,101480.26
KMKE,09/07/2016 10:00 UTC,101557.75,22,,88.46,2.57,140,,,,13,803,,,,,,,502,653,,,10,,,,,,1981.2,,,,,,SE,,light rain,light rain,,,,20,98934.38,101480.26
KMKE,09/07/2016 10:05 UTC,101557.75,22,,88.46,2.06,150,,,,13,753,,,,,,,502,602,,,10,,,,,,2286,,,,,,SSE,,light rain,light rain,,,,20,98934.38,101480.26
KMKE,09/07/2016 10:10 UTC,101557.75,22,,88.46,0,0,,,,13,,,,,,,,503,703,,,10,,,,,,1524,,,,,,N,,light rain,light rain,,,,20,98934.38,101480.26
KMKE,09/07/2016 10:15 UTC,101557.75,22,,88.46,0,0,,,,,703,,,,,,,503,603,,,10,,,,,,1524,,,,,,N,,,broken,,,,20,98934.38,101480.26
KMKE,09/07/2016 10:20 UTC,101591.61,22,,88.46,1.54,360,,,,,803,,,,,,,502,653,,,10,,,,,,1981.2,,,,,,N,,,broken,,,,20,98967.36,101514.09
KMKE,09/07/2016 10:25 UTC,101591.61,22,,88.46,1.54,360,,,,,753,,,,,,,482,603,,,10,,,,,,1828.8,,,,,,N,,,broken,,,,20,98967.36,101514.09
KMKE,09/07/2016 10:30 UTC,101591.61,22,,88.46,1.54,350,,,,,,,,,,,,502,653,,,10,,,,,,1981.2,,,,,,N,,,broken,,,,20,98967.36,101514.09
KMKE,09/07/2016 10:35 UTC,101591.61,22,,88.46,1.54,360,,,,,,,,,,,,502,652,,,10,,,,,,,,,,,,N,,,scattered,,,,20,98967.36,101514.09
KMKE,09/07/2016 10:40 UTC,101591.61,22,,88.46,0,0,,,,,,,,,,,,476,606,,,10,,,,,,,,,,,,N,,,thin scattered,,,,20,98967.36,101514.09
KMKE,09/07/2016 10:45 UTC,101591.61,22,,88.46,0,0,,,,,,,,,,,,476,606,,,10,,,,,,,,,,,,N,,,thin scattered,,,,20,98967.36,101514.09
KMKE,09/07/2016 10:50 UTC,101625.47,22,,88.46,2.06,360,,,,,1003,,,,,,,496,602,,,10,,,,,,3048,,,,,,N,,,broken,,,,20,99000.35,101547.93
KMKE,09/07/2016 10:52 UTC,101625.47,21.7,,90.09,2.06,350,,,101550,,1003,,,,,0.025,,496,602,,,10,,,,,,3048,,,,,,N,,,broken,,,,20,99000.35,101550.55
KMKE,09/07/2016 10:55 UTC,101625.47,22,,88.46,1.54,340,,,,,,,,,,,,556,,,,10,,,,,,,,,,,,NNW,,,thin scattered,,,,20,99000.35,101547.93
KMKE,09/07/2016 11:00 UTC,101625.47,22,,88.46,1.54,350,,,,,,,,,,,,556,,,,10,,,,,,,,,,,,N,,,thin scattered,,,,20,99000.35,101547.93
KMKE,09/07/2016 11:05 UTC,101625.47,22,,88.46,4.12,340,,,,,,,,,,,,556,,,,10,,,,,,,,,,,,NNW,,,thin scattered,,,,20,99000.35,101547.93
KMKE,09/07/2016 11:10 UTC,101659.34,22,,88.46,3.09,350,,,,,552,,,,,,,116,246,,,10,,,,,,,,,,,,N,,,scattered,,,,20,99033.34,101581.77
KMKE,09/07/2016 11:15 UTC,101659.34,22,,88.46,3.6,340,,,,,553,,,,,,,112,242,,,10,,,,,,1676.4,,,,,,NNW,,,broken,,,,20,99033.34,101581.77
KMKE,09/07/2016 11:20 UTC,101659.34,22,,94.07,2.06,360,,,,,,,,,,,,112,243,,,10,,,,,,731.52,,,,,,N,,,broken,,,,21,99033.34,101581.75
KMKE,09/07/2016 11:22 UTC,101659.34,22.2,,90.68,2.57,360,,,,,1004,,,,,,,112,243,,,10,,,,,,731.52,,,,,,N,,,overcast,,,,20.6,99033.34,101580.01
KMKE,09/07/2016 11:25 UTC,101659.34,22,,94.07,3.6,360,,,,,1004,,,,,,,112,243,,,10,,,,,,731.52,,,,,,N,,,overcast,,,,21,99033.34,101581.75
KMKE,09/07/2016 11:30 UTC,101659.34,22,,94.07,2.57,350,,,,,1004,,,,,,,112,243,,,10,,,,,,731.52,,,,,,N,,,overcast,,,,21,99033.34,101581.75
KMKE,09/07/2016 11:35 UTC,101659.34,23,,88.54,2.06,10,,,,,1004,,,,,,,112,243,,,10,,,,,,731.52,,,,,,N,,,overcast,,,,21,99033.34,101573.05
KMKE,09/07/2016 11:40 UTC,101659.34,23,,88.54,2.06,360,,,,,1004,,,,,,,112,243,,,10,,,,,,731.52,,,,,,N,,,overcast,,,,21,99033.34,101573.05
KMKE,09/07/2016 11:45 UTC,101659.34,23,,88.54,0,0,,,,,1004,,,,,,,112,243,,,10,,,,,,731.52,,,,,,N,,,overcast,,,,21,99033.34,101573.05
KMKE,09/07/2016 11:50 UTC,101659.34,23,,88.54,0,0,,,,,1004,,,,,,,112,243,,,10,,,,,,731.52,,,,,,N,,,overcast,,,,21,99033.34,101573.05
KMKE,09/07/2016 11:52 UTC,101659.34,22.8,,87.44,0,0,,,101590,,264,,,,3005,,,143,213,0.025,0.762,10,,,22.8,21.7,,426.72,,,,,,N,,,overcast,,,,20.6,99033.34,101574.79
KMKE,09/07/2016 11:55 UTC,101659.34,23,,88.54,0,0,,,,,,,,,,,,143,234,,,10,,,,,,426.72,,,,,,N,,,overcast,,,,21,99033.34,101573.05
KMKE,09/07/2016 12:00 UTC,101659.34,23,,83.25,1.54,70,,,,,,,,,,,,142,234,,,10,,,,,,701.04,,,,,,ENE,,,overcast,,,,19.99,99033.34,101573.07
KMKE,09/07/2016 12:05 UTC,101659.34,23,,83.25,2.06,60,,,,,,,,,,,,142,234,,,10,,,,,,701.04,,,,,,ENE,,,overcast,,,,19.99,99033.34,101573.07
KMKE,09/07/2016 12:10 UTC,101659.34,23,,83.25,2.06,30,,,,,,,,,,,,183,264,,,10,,,,,,548.64,,,,,,NNE,,,overcast,,,,19.99,99033.34,101573.07
KMKE,09/07/2016 12:15 UTC,101659.34,23,,83.25,1.54,360,,,,,,,,,,,,183,264,,,10,,,,,,548.64,,,,,,N,,,overcast,,,,19.99,99033.34,101573.07
KMKE,09/07/2016 12:20 UTC,101659.34,23,,83.25,1.54,340,,,,,,,,,,,,183,254,,,10,,,,,,548.64,,,,,,NNW,,,overcast,,,,19.99,99033.34,101573.07
KMKE,09/07/2016 12:25 UTC,101659.34,23,,88.54,0,0,,,,,,,,,,,,183,254,,,10,,,,,,548.64,,,,,,N,,,overcast,,,,21,99033.34,101573.05
KMKE,09/07/2016 12:30 UTC,101659.34,23,,88.54,0,0,,,,,,,,,,,,183,254,,,10,,,,,,548.64,,,,,,N,,,overcast,,,,21,99033.34,101573.05
KMKE,09/07/2016 12:35 UTC,101625.47,23,,88.54,0,0,,,,,,,,,,,,183,284,,,10,,,,,,548.64,,,,,,N,,,overcast,,,,21,99000.35,101539.22
KMKE,09/07/2016 12:40 UTC,101659.34,23,,88.54,0,0,,,,,314,,,,,,,183,263,,,10,,,,,,548.64,,,,,,N,,,overcast,,,,21,99033.34,101573.05
KMKE,09/07/2016 12:45 UTC,101659.34,23,,88.54,1.54,130,,,,,,,,,,,,183,293,,,10,,,,,,548.64,,,,,,SE,,,broken,,,,21,99033.34,101573.05
KMKE,09/07/2016 12:50 UTC,101625.47,23,,83.25,0,0,,,,,653,,,,,,,173,293,,,10,,,,,,518.16,,,,,,N,,,broken,,,,19.99,99000.35,101539.24
KMKE,09/07/2016 12:52 UTC,101625.47,23.3,,81.76,1.54,120,,,101580,,653,,,,,,,173,293,,,10,,,,,,518.16,,,,,,ESE,,,broken,,,,19.99,99000.35,101536.64
KMKE,09/07/2016 12:55 UTC,101625.47,23,,83.25,1.54,120,,,,,653,,,,,,,172,293,,,10,,,,,,883.92,,,,,,ESE,,,broken,,,,19.99,99000.35,101539.24
KMKE,09/07/2016 13:00 UTC,101625.47,23,,83.25,1.54,130,,,,,653,,,,,,,172,293,,,10,,,,,,883.92,,,,,,SE,,,broken,,,,19.99,99000.35,101539.24
KMKE,09/07/2016 13:05 UTC,101625.47,23,,83.25,1.54,140,,,,,653,,,,,,,172,293,,,10,,,,,,883.92,,,,,,SE,,,broken,,,,19.99,99000.35,101539.24
KMKE,09/07/2016 13:10 UTC,101625.47,23,,83.25,0,0,,,,,653,,,,,,,172,293,,,10,,,,,,883.92,,,,,,N,,,broken,,,,19.99,99000.35,101539.24
KMKE,09/07/2016 13:15 UTC,101625.47,23,,83.25,2.06,150,,,,,653,,,,,,,172,293,,,10,,,,,,883.92,,,,,,SSE,,,broken,,,,19.99,99000.35,101539.24
KMKE,09/07/2016 13:20 UTC,101625.47,23,,83.25,2.57,170,,,,,653,,,,,,,172,293,,,10,,,,,,883.92,,,,,,S,,,broken,,,,19.99,99000.35,101539.24
KMKE,09/07/2016 13:25 UTC,101625.47,24,,83.37,2.06,160,,,,,653,,,,,,,172,293,,,10,,,,,,883.92,,,,,,SSE,,,broken,,,,21,99000.35,101530.58
KMKE,09/07/2016 13:30 UTC,101625.47,24,,83.37,0,0,,,,,653,,,,,,,172,293,,,10,,,,,,883.92,,,,,,N,,,broken,,,,21,99000.35,101530.58
KMKE,09/07/2016 13:35 UTC,101693.2,24,,78.39,6.69,330,9.26,,,,473,,,,,,,176,292,,,10,,,,,,1432.56,,,,,,NNW,,,broken,,,,20,99066.33,101598.27
KMKE,09/07/2016 13:39 UTC,101693.2,23.3,,81.76,7.72,340,10.29,,,,473,,,,,,,172,292,,,10,,,,,,1432.56,,,,,,NNW,,,broken,,,,19.99,99066.33,101604.31
KMKE,09/07/2016 13:40 UTC,101693.2,23,,83.25,7.72,340,,,,,473,,,,,,,172,292,,,10,,,,,,1432.56,,,,,,NNW,,,broken,,,,19.99,99066.33,101606.91
KMKE,09/07/2016 13:45 UTC,101693.2,23,,78.24,5.66,330,,,,13,473,,,,,,,172,292,,,10,,,,,,1432.56,,,,,,NNW,,light rain,light rain,,,,18.99,99066.33,101606.93
KMKE,09/07/2016 13:50 UTC,101693.2,22,,83.13,5.14,350,,,,13,473,,,,,,,142,223,,,10,,,,,,670.56,,,,,,N,,light rain,light rain,,,,18.99,99066.33,101615.62
KMKE,09/07/2016 13:52 UTC,101659.34,22.2,,84.2,4.12,360,,,101620,,474,,,,,0.025,,116,223,,,10,,,,,,670.56,,,,,,N,,,overcast,,,,19.39,99033.34,101580.03
KMKE,09/07/2016 13:55 UTC,101659.34,22,,83.13,4.63,10,,,,,224,,,,,,,116,162,,,10,,,,,,670.56,,,,,,N,,,overcast,,,,18.99,99033.34,101581.78
KMKE,09/07/2016 14:00 UTC,101659.34,22,,88.46,3.09,340,,,,,224,,,,,,,116,162,,,10,,,,,,670.56,,,,,,NNW,,,overcast,,,,20,99033.34,101581.77
KMKE,09/07/2016 14:05 UTC,101659.34,22,,88.46,2.57,360,,,,,234,,,,,,,116,146,,,10,,,,,,701.04,,,,,,N,,,overcast,,,,20,99033.34,101581.77
KMKE,09/07/2016 14:10 UTC,101659.34,22,,83.13,2.57,30,,,,,,,,,,,,234,,,,10,,,,,,701.04,,,,,,NNE,,,overcast,,,,18.99,99033.34,101581.78
KMKE,09/07/2016 14:15 UTC,101659.34,23,,78.24,0,0,,,,,,,,,,,,244,,,,10,,,,,,731.52,,,,,,N,,,overcast,,,,18.99,99033.34,101573.09
KMKE,09/07/2016 14:20 UTC,101659.34,23,,83.25,0,0,,,,,,,,,,,,244,,,,10,,,,,,731.52,,,,,,N,,,overcast,,,,19.99,99033.34,101573.07
KMKE,09/07/2016 14:25 UTC,101625.47,23,,78.24,2.57,110,,,,,,,,,,,,244,,,,10,,,,,,731.52,,,,,,ESE,,,overcast,,,,18.99,99000.35,101539.25
KMKE,09/07/2016 14:30 UTC,101659.34,23,,83.25,2.06,120,,,,,,,,,,,,244,,,,10,,,,,,731.52,,,,,,ESE,,,overcast,,,,19.99,99033.34,101573.07
KMKE,09/07/2016 14:35 UTC,101659.34,23,,78.24,2.06,130,,,,,,,,,,,,244,,,,10,,,,,,731.52,,,,,,SE,,,overcast,,,,18.99,99033.34,101573.09
KMKE,09/07/2016 14:40 UTC,101659.34,23,,78.24,3.09,130,,,,,,,,,,,,244,,,,10,,,,,,731.52,,,,,,SE,,,overcast,,,,18.99,99033.34,101573.09
KMKE,09/07/2016 14:45 UTC,101625.47,23,,78.24,2.57,110,,,,,,,,,,,,264,,,,10,,,,,,792.48,,,,,,ESE,,,overcast,,,,18.99,99000.35,101539.25
KMKE,09/07/2016 14:50 UTC,101659.34,23,,78.24,3.6,140,,,,,1004,,,,,,,176,263,,,10,,,,,,792.48,,,,,,SE,,,overcast,,,,18.99,99033.34,101573.09
KMKE,09/07/2016 14:52 UTC,101659.34,23.3,,78.77,3.6,150,,,101590,,1004,,,,8001,,0.025,176,263,,,10,,,,,,792.48,,,,,,SSE,,,overcast,,,,19.39,99033.34,101570.49
KMKE,09/07/2016 14:55 UTC,101625.47,23,,78.24,3.6,140,,,,13,,,,,,,,263,704,,,10,,,,,,792.48,,,,,,SE,,light rain,light rain,,,,18.99,99000.35,101539.25
KMKE,09/07/2016 15:00 UTC,101591.61,23,,78.24,3.6,140,,,,1,1004,,,,,,,263,603,,,7,,,,,,792.48,,,,,,SE,,rain,rain,,,,18.99,98967.36,101505.42
KMKE,09/07/2016 15:05 UTC,101591.61,23,,78.24,3.6,140,,,,1,1104,,,,,0.508,,282,603,,,5,,,,,,1828.8,,,,,,SE,,rain,rain,,,,18.99,98967.36,101505.42
KMKE,09/07/2016 15:10 UTC,101591.61,22,,83.13,3.09,140,,,,13,903,,,,,0.508,,282,552,,,8,,,,,,2743.2,,,,,,SE,,light rain,light rain,,,,18.99,98967.36,101514.11
KMKE,09/07/2016 15:11 UTC,101591.61,22.2,,84.2,3.09,130,,,,13,904,,,,,0.508,,282,552,,,8,,,,,,2743.2,,,,,,SE,,light rain,light rain,,,,19.39,98967.36,101512.36
KMKE,09/07/2016 15:15 UTC,101591.61,23,,78.24,2.57,130,,,,13,904,,,,,0.508,,282,552,,,8,,,,,,2743.2,,,,,,SE,,light rain,light rain,,,,18.99,98967.36,101505.42
KMKE,09/07/2016 15:20 UTC,101591.61,23,,83.25,2.57,120,,,,13,1004,,,,,0.508,,282,552,,,8,,,,,,3048,,,,,,ESE,,light rain,light rain,,,,19.99,98967.36,101505.4
KMKE,09/07/2016 15:25 UTC,101625.47,23,,83.25,2.06,130,,,,13,1203,,,,,0.508,,356,1003,,,10,,,,,,3048,,,,,,SE,,light rain,light rain,,,,19.99,99000.35,101539.24
KMKE,09/07/2016 15:30 UTC,101625.47,23,,83.25,2.06,110,,,,,1203,,,,,0.508,,346,1002,,,10,,,,,,3657.6,,,,,,ESE,,,broken,,,,19.99,99000.35,101539.24
KMKE,09/07/2016 15:35 UTC,101625.47,24,,78.39,1.54,80,,,,,,,,,,0.508,,346,1002,,,10,,,,,,,,,,,,E,,,scattered,,,,20,99000.35,101530.6
KMKE,09/07/2016 15:40 UTC,101625.47,24,,78.39,1.54,40,,,,,1102,,,,,0.508,,286,1002,,,10,,,,,,,,,,,,NE,,,scattered,,,,20,99000.35,101530.6
KMKE,09/07/2016 15:45 UTC,101625.47,24,,78.39,1.54,60,,,,,1003,,,,,0.508,,256,752,,,10,,,,,,3048,,,,,,ENE,,,broken,,,,20,99000.35,101530.6
KMKE,09/07/2016 15:50 UTC,101625.47,24,,83.37,1.54,50,,,,,1004,,,,,0.508,,253,753,,,10,,,,,,762,,,,,,NE,,,overcast,,,,21,99000.35,101530.58
KMKE,09/07/2016 15:52 UTC,101591.61,23.9,,78.86,2.06,80,,,101550,,854,,,,,0.508,,106,253,,,10,,,,,,762,,,,,,E,,,overcast,,,,19.99,98967.36,101497.63
KMKE,09/07/2016 15:55 UTC,101625.47,24,,78.39,0,0,,,,,1003,,,,,,,253,293,,,10,,,,,,762,,,,,,N,,,broken,,,,20,99000.35,101530.6
KMKE,09/07/2016 16:00 UTC,101625.47,24,,83.37,0,0,,,,,703,,,,,,,252,323,,,10,,,,,,975.36,,,,,,N,,,broken,,,,21,99000.35,101530.58
KMKE,09/07/2016 16:05 UTC,101625.47,24,,83.37,0,0,,,,,703,,,,,,,253,323,,,10,,,,,,762,,,,,,N,,,broken,,,,21,99000.35,101530.58
KMKE,09/07/2016 16:10 UTC,101591.61,24,,83.37,0,0,,,,13,704,,,,,,,253,323,,,7,,,,,,762,,,,,,N,,light rain,light rain,,,,21,98967.36,101496.75
KMKE,09/07/2016 16:15 UTC,101557.75,24,,83.37,2.57,40,,,,13,704,,,,,,,253,323,,,7,,,,,,762,,,,,,NE,,light rain,light rain,,,,21,98934.38,101462.93
KMKE,09/07/2016 16:20 UTC,101557.75,24,,83.37,2.57,60,,,,13,704,,,,,,,253,323,,,10,,,,,,762,,,,,,ENE,,light rain,light rain,,,,21,98934.38,101462.93
KMKE,09/07/2016 16:25 UTC,101557.75,24,,83.37,2.06,90,,,,,704,,,,,,,253,323,,,10,,,,,,762,,,,,,E,,,overcast,,,,21,98934.38,101462.93
KMKE,09/07/2016 16:30 UTC,101557.75,24,,83.37,2.57,100,,,,,803,,,,,,,106,292,,,10,,,,,,2438.4,,,,,,E,,,broken,,,,21,98934.38,101462.93
KMKE,09/07/2016 16:32 UTC,101557.75,23.9,,84.39,2.06,100,,,,,803,,,,,0.025,,106,292,,,10,,,,,,2438.4,,,,,,E,,,broken,,,,21.1,98934.38,101463.79
KMKE,09/07/2016 16:35 UTC,101557.75,24,,83.37,2.57,110,,,,,803,,,,,,,106,292,,,10,,,,,,2438.4,,,,,,ESE,,,broken,,,,21,98934.38,101462.93
KMKE,09/07/2016 16:40 UTC,101557.75,24,,83.37,3.6,140,,,,,803,,,,,,,106,292,,,10,,,,,,2438.4,,,,,,SE,,,broken,,,,21,98934.38,101462.93
KMKE,09/07/2016 16:45 UTC,101523.88,24,,83.37,3.6,130,,,,,803,,,,,,,106,292,,,10,,,,,,2438.4,,,,,,SE,,,broken,,,,21,98901.38,101429.08
KMKE,09/07/2016 16:50 UTC,101523.88,24,,83.37,3.09,140,,,,,1203,,,,,,,106,292,,,10,,,,,,3657.6,,,,,,SE,,,broken,,,,21,98901.38,101429.08
KMKE,09/07/2016 16:52 UTC,101523.88,23.9,,84.39,3.09,130,,,101480,,1203,,,,,0.025,,106,292,,,10,,,,,,3657.6,,,,,,SE,,,broken,,,,21.1,98901.38,101429.94
KMKE,09/07/2016 16:55 UTC,101523.88,24,,83.37,3.09,140,,,,,1203,,,,,,,222,702,,,10,,,,,,3657.6,,,,,,SE,,,broken,,,,21,98901.38,101429.08
KMKE,09/07/2016 17:00 UTC,101557.75,24,,83.37,2.57,130,,,,,1203,,,,,,,222,702,,,10,,,,,,3657.6,,,,,,SE,,,broken,,,,21,98934.38,101462.93
KMKE,09/07/2016 17:05 UTC,101591.61,24,,83.37,3.6,200,,,,1,1203,,,,,,,222,702,,,8,,,,,,3657.6,,,,,,SSW,,rain,rain,,,,21,98967.36,101496.75
KMKE,09/07/2016 17:10 UTC,101523.88,23,,88.54,4.12,160,,,,14,1103,,,,,0.508,,222,702,,,4,,,,,,3352.8,,,,,,SSE,,heavy rain,heavy rain,,,,21,98901.38,101437.71
KMKE,09/07/2016 17:15 UTC,101422.29,23,,88.54,5.14,120,,,,14,1103,,,,,1.524,,222,702,,,4,,,,,,3352.8,,,,,,ESE,,heavy rain,heavy rain,,,,21,98802.42,101336.21
KMKE,09/07/2016 17:17 UTC,101422.29,22.8,,87.44,5.14,120,,,,2494,1103,,,,,2.032,,226,333,,,2,,,,,,1005.84,FR,,,,,ESE,,"heavy rain,mist","heavy rain,mist",,,,20.6,98802.42,101337.95
KMKE,09/07/2016 17:20 UTC,101456.15,23,,88.54,4.63,120,,,,31,1103,,,,,2.286,,226,333,,,5,,,,,,1005.84,,,,,,ESE,,mist,mist,,,,21,98835.4,101370.04
KMKE,09/07/2016 17:24 UTC,101490.02,22.8,21.1,90.17,3.6,140,,,,2493,1103,,,,,2.286,,216,333,,,5,,KMKE 071724Z 14007KT 5SM -RA BR FEW021 BKN033 BKN110 OVC130 23/21  A2997 RMK AO2 LTG DSNT S RAB03 P0009 T02280211,,,,1005.84,,,,,,SE,,"light rain,mist","light rain,mist",,,,21.1,98868.4,101405.61
KMKE,09/07/2016 17:25 UTC,101490.02,23,,88.54,3.6,140,,,,2493,1103,,,,,2.286,,216,333,,,5,,METAR KMKE 071725Z AUTO 14007KT 5SM -RA BR FEW021 BKN033 BKN110 23/21 A2997 RMK P0009,,,,1005.84,,,,,,SE,,"light rain,mist","light rain,mist",,,,21,98868.4,101403.88
KMKE,09/07/2016 17:30 UTC,101490.02,23,,88.54,2.06,150,,,,13,702,,,,,2.54,,216,332,,,10,,METAR KMKE 071730Z AUTO 15004KT 10SM -RA FEW021 SCT033 SCT070 23/21 A2997 RMK P0010,,,,,,,,,,SSE,,light rain,light rain,,,,21,98868.4,101403.88
KMKE,09/07/2016 17:35 UTC,101456.15,23,,94.12,2.57,140,,,,13,702,,,,,2.54,,216,332,,,10,,METAR KMKE 071735Z AUTO 14005KT 10SM -RA FEW021 SCT033 SCT070 23/22 A2996 RMK P0010,,,,,,,,,,SE,,light rain,light rain,,,,22,98835.4,101370.01
KMKE,09/07/2016 17:40 UTC,101456.15,23,,94.12,2.57,140,,,,,1102,,,,,2.54,,156,332,,,10,,METAR KMKE 071740Z AUTO 14005KT 10SM FEW015 SCT033 SCT110 23/22 A2996 RMK P0010,,,,,,,,,,SE,,,scattered,,,,22,98835.4,101370.01
KMKE,09/07/2016 17:45 UTC,101456.15,24,,88.62,3.6,150,,,,,1102,,,,,2.54,,156,332,,,10,,METAR KMKE 071745Z AUTO 15007KT 10SM FEW015 SCT033 SCT110 24/22 A2996 RMK P0010,,,,,,,,,,SSE,,,scattered,,,,22,98835.4,101361.4
KMKE,09/07/2016 17:50 UTC,101456.15,24,,88.62,3.09,140,,,,,1102,,,,,2.54,,156,332,,,10,,METAR KMKE 071750Z AUTO 14006KT 10SM FEW015 SCT033 SCT110 24/22 A2996 RMK P0010,,,,,,,,,,SE,,,scattered,,,,22,98835.4,101361.4
KMKE,09/07/2016 17:52 UTC,101422.29,24.4,22.2,88.62,3.09,160,,,101390,,1102,,,,8020,2.54,,156,332,3.048,,10,,KMKE 071752Z 16006KT 10SM FEW015 SCT033 SCT110 BKN210 24/22  A2995 RMK AO2 LTG DSNT SE RAB03E39 SLP139 P0010 60012 T02440222  10244 20222 58020,24.4,22.2,,,,,,,,SSE,,,scattered,,,,22.39,98802.42,101324.14
KMKE,09/07/2016 17:55 UTC,101422.29,24,,88.62,4.12,140,,,,,1102,,,,,,,156,296,,,10,,METAR KMKE 071755Z AUTO 14008KT 10SM FEW015 FEW029 SCT110 24/22 A2995,,,,,,,,,,SE,,,scattered,,,,22,98802.42,101327.57
KMKE,09/07/2016 18:00 UTC,101422.29,24,,88.62,4.63,150,,,,,1102,,,,,,,156,296,,,10,,METAR KMKE 071800Z AUTO 15009KT 10SM FEW015 FEW029 SCT110 24/22 A2995,,,,,,,,,,SSE,,,scattered,,,,22,98802.42,101327.57