Station_ID,time,altimeter_set_1,air_temp,dew_point_temp,relative_humidity_set_1,wind_speed,wind_direction,wind_gust_set_1,snow_depth_set_1,sea_level_pressure_set_1,weather_cond_code_set_1,cloud_layer_3_code_set_1,cloud_low_symbol_set_1,cloud_mid_symbol_set_1,cloud_high_symbol_set_1,pressure_tendency_set_1,precip_accum_one_hour_set_1,precip_accum_three_hour_set_1,cloud_layer_1_code_set_1,cloud_layer_2_code_set_1,precip_accum_six_hour_set_1,precip_accum_24_hour_set_1,visibility_set_1,metar_remark_set_1,metar_set_1,air_temp_high_6_hour_set_1,air_temp_low_6_hour_set_1,peak_wind_speed_set_1,ceiling_set_1,pressure_change_code_set_1,air_temp_high_24_hour_set_1,air_temp_low_24_hour_set_1,peak_wind_direction_set_1,wind_chill_set_1d,wind_cardinal_direction_set_1d,heat_index_set_1d,weather_condition_set_1d,weather_summary_set_1d,cloud_layer_1_set_1d,cloud_layer_2_set_1d,cloud_layer_3_set_1d,dew_point_temperature_set_1d,pressure,sea_level_pressure_set_1d
KMKE,08/06/2021 01:00 UTC,101591.61,27,,44.89,4.63,230,,,,,,,,,,,,803,1104,,,10,,METAR KMKE 060100Z AUTO 23009KT 10SM BKN080 OVC110 27/14 A3000,,,,2438.4,,,,,,SW,27.12,,overcast,,,,14.01,98967.36,101471.33
KMKE,08/06/2021 01:05 UTC,101591.61,27,,44.89,5.14,230,,,,,,,,,,,,803,1104,,,10,,METAR KMKE 060105Z AUTO 23010KT 10SM BKN080 OVC110 27/14 A3000,,,,2438.4,,,,,,SW,27.12,,overcast,,,,14.01,98967.36,101471.33
KMKE,08/06/2021 01:10 UTC,101625.47,27,,44.89,4.12,230,,,,,,,,,,,,803,1104,,,10,,METAR KMKE 060110Z AUTO 23008KT 10SM BKN080 OVC110 27/14 A3001,,,,2438.4,,,,,,SW,27.12,,overcast,,,,14.01,99000.35,101505.16
KMKE,08/06/2021 01:15 UTC,101591.61,27,,44.89,4.63,230,,,,,,,,,,,,802,1103,,,10,,METAR KMKE 060115Z AUTO 23009KT 10SM SCT080 BKN110 27/14 A3000,,,,3352.8,,,,,,SW,27.12,,broken,,,,14.01,98967.36,101471.33
KMKE,08/06/2021 01:20 UTC,101591.61,27,,44.89,5.14,220,,,,,,,,,,,,806,1003,,,10,,METAR KMKE 060120Z AUTO 22010KT 10SM FEW080 BKN100 27/14 A3000,,,,3048,,,,,,SW,27.12,,broken,,,,14.01,98967.36,101471.33
KMKE,08/06/2021 01:25 UTC,101591.61,27,,44.89,4.63,220,,,,,,,,,,,,756,1103,,,10,,METAR KMKE 060125Z AUTO 22009KT 10SM FEW075 BKN110 27/14 A3000,,,,3352.8,,,,,,SW,27.12,,broken,,,,14.01,98967.36,101471.33
KMKE,08/06/2021 01:30 UTC,101591.61,27,,44.89,4.63,210,,,,,,,,,,,,756,1103,,,10,,METAR KMKE 060130Z AUTO 21009KT 10SM FEW075 BKN110 27/14 A3000,,,,3352.8,,,,,,SSW,27.12,,broken,,,,14.01,98967.36,101471.33
KMKE,08/06/2021 01:35 UTC,101591.61,27,,44.89,4.63,210,,,,,,,,,,,,1103,,,,10,,METAR KMKE 060135Z AUTO 21009KT 10SM BKN110 27/14 A3000,,,,3352.8,,,,,,SSW,27.12,,broken,,,,14.01,98967.36,101471.33
KMKE,08/06/2021 01:40 UTC,101591.61,27,,44.89,5.14,220,,,,,,,,,,,,1104,,,,10,,METAR KMKE 060140Z AUTO 22010KT 10SM OVC110 27/14 A3000,,,,3352.8,,,,,,SW,27.12,,overcast,,,,14.01,98967.36,101471.33
KMKE,08/06/2021 01:45 UTC,101591.61,27,,44.89,4.63,220,,,,,,,,,,,,1104,,,,10,,METAR KMKE 060145Z AUTO 22009KT 10SM OVC110 27/14 A3000,,,,3352.8,,,,,,SW,27.12,,overcast,,,,14.01,98967.36,101471.33
KMKE,08/06/2021 01:50 UTC,101591.61,27,,44.89,5.14,220,,,,,,,,,,,,902,1104,,,10,,METAR KMKE 060150Z AUTO 22010KT 10SM SCT090 OVC110 27/14 A3000,,,,3352.8,,,,,,SW,27.12,,overcast,,,,14.01,98967.36,101471.33
KMKE,08/06/2021 01:52 UTC,101625.47,26.7,14.4,46.88,4.63,220,,,101550,,,,,,,,,906,1104,,,10,,KMKE 060152Z 22009KT 10SM FEW090 OVC110 27/14 A3001 RMK AO2 SLP155  T02670144,,,,3352.8,,,,,,SW,26.65,,overcast,,,,14.41,99000.35,101507.68
KMKE,08/06/2021 01:55 UTC,101625.47,27,,44.89,5.14,220,,,,,,,,,,,,1004,,,,10,,METAR KMKE 060155Z AUTO 22010KT 10SM OVC100 27/14 A3001,,,,3048,,,,,,SW,27.12,,overcast,,,,14.01,99000.35,101505.16
KMKE,08/06/2021 02:00 UTC,101591.61,27,,44.89,5.14,220,,,,,,,,,,,,1104,,,,10,,METAR KMKE 060200Z AUTO 22010KT 10SM OVC110 27/14 A3000,,,,3352.8,,,,,,SW,27.12,,overcast,,,,14.01,98967.36,101471.33
KMKE,08/06/2021 02:05 UTC,101625.47,27,,44.89,4.63,230,,,,,,,,,,,,1104,,,,10,,METAR KMKE 060205Z AUTO 23009KT 10SM OVC110 27/14 A3001,,,,3352.8,,,,,,SW,27.12,,overcast,,,,14.01,99000.35,101505.16
KMKE,08/06/2021 02:10 UTC,101625.47,26,,50.78,4.63,230,,,,,,,,,,,,906,1104,,,10,,METAR KMKE 060210Z AUTO 23009KT 10SM FEW090 OVC110 26/15 A3001,,,,3352.8,,,,,,SW,,,overcast,,,,15,99000.35,101513.6
KMKE,08/06/2021 02:15 UTC,101625.47,26,,50.78,4.63,220,,,,,,,,,,,,906,1104,,,10,,METAR KMKE 060215Z AUTO 22009KT 10SM FEW090 OVC110 26/15 A3001,,,,3352.8,,,,,,SW,,,overcast,,,,15,99000.35,101513.6
KMKE,08/06/2021 02:20 UTC,101625.47,26,,50.78,4.63,220,,,,,,,,,,,,1104,,,,10,,METAR KMKE 060220Z AUTO 22009KT 10SM OVC110 26/15 A3001,,,,3352.8,,,,,,SW,,,overcast,,,,15,99000.35,101513.6
KMKE,08/06/2021 02:25 UTC,101625.47,26,,50.78,4.12,220,,,,,,,,,,,,1104,,,,10,,METAR KMKE 060225Z AUTO 22008KT 10SM OVC110 26/15 A3001,,,,3352.8,,,,,,SW,,,overcast,,,,15,99000.35,101513.6
KMKE,08/06/2021 02:30 UTC,101625.47,26,,50.78,4.63,220,,,,,,,,,,,,1004,,,,10,,METAR KMKE 060230Z AUTO 22009KT 10SM OVC100 26/15 A3001,,,,3048,,,,,,SW,,,overcast,,,,15,99000.35,101513.6
KMKE,08/06/2021 02:35 UTC,101625.47,26,,50.78,4.12,230,,,,,,,,,,,,1004,,,,10,,METAR KMKE 060235Z AUTO 23008KT 10SM OVC100 26/15 A3001,,,,3048,,,,,,SW,,,overcast,,,,15,99000.35,101513.6
KMKE,08/06/2021 02:40 UTC,101625.47,26,,50.78,3.6,230,,,,,,,,,,,,1004,,,,10,,METAR KMKE 060240Z AUTO 23007KT 10SM OVC100 26/15 A3001,,,,3048,,,,,,SW,,,overcast,,,,15,99000.35,101513.6
KMKE,08/06/2021 02:45 UTC,101625.47,26,,50.78,4.63,220,,,,,,,,,,,,1104,,,,10,,METAR KMKE 060245Z AUTO 22009KT 10SM OVC110 26/15 A3001,,,,3352.8,,,,,,SW,,,overcast,,,,15,99000.35,101513.6
KMKE,08/06/2021 02:50 UTC,101625.47,26,,50.78,4.63,230,,,,,,,,,,,,1004,,,,10,,METAR KMKE 060250Z AUTO 23009KT 10SM OVC100 26/15 A3001,,,,3048,,,,,,SW,,,overcast,,,,15,99000.35,101513.6
KMKE,08/06/2021 02:52 UTC,101625.47,26.1,15,50.48,4.63,220,,,101550,,,,,,1002,,,1003,1104,,,10,,KMKE 060252Z 22009KT 10SM BKN100 OVC110 26/15 A3001 RMK AO2 SLP155  T02610150 51002,,,,3048,,,,,,SW,,,overcast,,,,15,99000.35,101512.75
KMKE,08/06/2021 02:55 UTC,101625.47,26,,54.14,4.12,230,,,,,,,,,,,,953,1104,,,10,,METAR KMKE 060255Z AUTO 23008KT 10SM BKN095 OVC110 26/16 A3001,,,,2895.6,,,,,,SW,,,overcast,,,,16,99000.35,101513.59
KMKE,08/06/2021 03:00 UTC,101625.47,26,,54.14,3.6,230,,,,,,,,,,,,903,1104,,,10,,METAR KMKE 060300Z AUTO 23007KT 10SM BKN090 OVC110 26/16 A3001,,,,2743.2,,,,,,SW,,,overcast,,,,16,99000.35,101513.59
KMKE,08/06/2021 03:05 UTC,101591.61,26,,54.14,3.09,230,,,,,,,,,,,,903,1104,,,10,,METAR KMKE 060305Z AUTO 23006KT 10SM BKN090 OVC110 26/16 A3000,,,,2743.2,,,,,,SW,,,overcast,,,,16,98967.36,101479.76
KMKE,08/06/2021 03:10 UTC,101591.61,26,,54.14,3.09,230,,,,13,1104,,,,,,,656,903,,,10,,METAR KMKE 060310Z AUTO 23006KT 10SM -RA FEW065 BKN090 OVC110 26/16 A3000,,,,2743.2,,,,,,SW,,light rain,light rain,,,,16,98967.36,101479.76
KMKE,08/06/2021 03:15 UTC,101591.61,26,,54.14,2.57,250,,,,13,,,,,,,,702,904,,,10,,METAR KMKE 060315Z AUTO 25005KT 10SM -RA SCT070 OVC090 26/16 A3000,,,,2743.2,,,,,,WSW,,light rain,light rain,,,,16,98967.36,101479.76
KMKE,08/06/2021 03:20 UTC,101591.61,26,,54.14,3.09,250,,,,13,1104,,,,,,,706,903,,,10,,METAR KMKE 060320Z AUTO 25006KT 10SM -RA FEW070 BKN090 OVC110 26/16 A3000,,,,2743.2,,,,,,WSW,,light rain,light rain,,,,16,98967.36,101479.76
KMKE,08/06/2021 03:25 UTC,101591.61,26,,54.14,2.57,240,,,,13,1104,,,,,,,756,903,,,10,,METAR KMKE 060325Z AUTO 24005KT 10SM -RA FEW075 BKN090 OVC110 26/16 A3000,,,,2743.2,,,,,,WSW,,light rain,light rain,,,,16,98967.36,101479.76
KMKE,08/06/2021 03:30 UTC,101591.61,26,,54.14,2.57,230,,,,,1104,,,,,,,706,903,,,10,,METAR KMKE 060330Z AUTO 23005KT 10SM FEW070 BKN090 OVC110 26/16 A3000,,,,2743.2,,,,,,SW,,,overcast,,,,16,98967.36,101479.76
KMKE,08/06/2021 03:35 UTC,101557.75,25,,57.45,2.57,230,,,,,1103,,,,,,,806,903,,,10,,METAR KMKE 060335Z AUTO 23005KT 10SM FEW080 BKN090 BKN110 25/16 A2999,,,,2743.2,,,,,,SW,,,broken,,,,16,98934.38,101454.44
KMKE,08/06/2021 03:40 UTC,101557.75,25,,57.45,2.57,220,,,,,1103,,,,,,,806,953,,,10,,METAR KMKE 060340Z AUTO 22005KT 10SM FEW080 BKN095 BKN110 25/16 A2999,,,,2895.6,,,,,,SW,,,broken,,,,16,98934.38,101454.44
KMKE,08/06/2021 03:45 UTC,101591.61,25,,57.45,2.57,210,,,,,,,,,,,,953,1104,,,10,,METAR KMKE 060345Z AUTO 21005KT 10SM BKN095 OVC110 25/16 A3000,,,,2895.6,,,,,,SSW,,,overcast,,,,16,98967.36,101488.27
KMKE,08/06/2021 03:50 UTC,101591.61,25,,57.45,2.06,200,,,,,,,,,,,,903,1104,,,10,,METAR KMKE 060350Z AUTO 20004KT 10SM BKN090 OVC110 25/16 A3000,,,,2743.2,,,,,,SSW,,,overcast,,,,16,98967.36,101488.27
KMKE,08/06/2021 03:52 UTC,101591.61,25,15.6,56,3.09,200,,,101520,,,,,,,0.025,,903,1104,,,10,,KMKE 060352Z 20006KT 10SM BKN090 OVC110 25/16 A3000 RMK AO2  RAB09E29 SLP152 P0000 T02500156,,,,2743.2,,,,,,SSW,,,overcast,,,,15.6,98967.36,101488.28
KMKE,08/06/2021 03:55 UTC,101591.61,25,,57.45,3.6,210,,,,,,,,,,,,903,1104,,,10,,METAR KMKE 060355Z AUTO 21007KT 10SM BKN090 OVC110 25/16 A3000,,,,2743.2,,,,,,SSW,,,overcast,,,,16,98967.36,101488.27
KMKE,08/06/2021 04:00 UTC,101591.61,25,,57.45,3.6,200,,,,,,,,,,,,904,,,,10,,METAR KMKE 060400Z AUTO 20007KT 10SM OVC090 25/16 A3000,,,,2743.2,,,,,,SSW,,,overcast,,,,16,98967.36,101488.27
KMKE,08/06/2021 04:05 UTC,101591.61,25,,57.45,3.6,210,,,,,,,,,,,,752,954,,,10,,METAR KMKE 060405Z AUTO 21007KT 10SM SCT075 OVC095 25/16 A3000,,,,2895.6,,,,,,SSW,,,overcast,,,,16,98967.36,101488.27
KMKE,08/06/2021 04:10 UTC,101591.61,25,,57.45,4.63,220,,,,,,,,,,,,652,854,,,10,,METAR KMKE 060410Z AUTO 22009KT 10SM SCT065 OVC085 25/16 A3000,,,,2590.8,,,,,,SW,,,overcast,,,,16,98967.36,101488.27
KMKE,08/06/2021 04:15 UTC,101591.61,24,,64.98,4.63,220,,,,13,,,,,,,,653,854,,,10,,METAR KMKE 060415Z AUTO 22009KT 10SM -RA BKN065 OVC085 24/17 A3000,,,,1981.2,,,,,,SW,,light rain,light rain,,,,16.99,98967.36,101496.82
KMKE,08/06/2021 04:20 UTC,101591.61,24,,64.98,3.6,240,,,,13,904,,,,,,,653,803,,,10,,METAR KMKE 060420Z AUTO 24007KT 10SM -RA BKN065 BKN080 OVC090 24/17 A3000,,,,1981.2,,,,,,WSW,,light rain,light rain,,,,16.99,98967.36,101496.82
KMKE,08/06/2021 04:25 UTC,101591.61,24,,64.98,3.09,230,,,,,,,,,,,,653,804,,,10,,METAR KMKE 060425Z AUTO 23006KT 10SM BKN065 OVC080 24/17 A3000,,,,1981.2,,,,,,SW,,,overcast,,,,16.99,98967.36,101496.82
KMKE,08/06/2021 04:30 UTC,101591.61,24,,64.98,3.6,210,,,,,,,,,,,,704,,,,10,,METAR KMKE 060430Z AUTO 21007KT 10SM OVC070 24/17 A3000,,,,2133.6,,,,,,SSW,,,overcast,,,,16.99,98967.36,101496.82
KMKE,08/06/2021 04:35 UTC,101591.61,24,,64.98,3.09,210,,,,,,,,,,,,704,,,,10,,METAR KMKE 060435Z AUTO 21006KT 10SM OVC070 24/17 A3000,,,,2133.6,,,,,,SSW,,,overcast,,,,16.99,98967.36,101496.82
KMKE,08/06/2021 04:40 UTC,101591.61,24,,64.98,3.09,210,,,,,,,,,,,,704,,,,10,,METAR KMKE 060440Z AUTO 21006KT 10SM OVC070 24/17 A3000,,,,2133.6,,,,,,SSW,,,overcast,,,,16.99,98967.36,101496.82
KMKE,08/06/2021 04:45 UTC,101591.61,24,,64.98,3.09,210,,,,,,,,,,,,704,,,,10,,METAR KMKE 060445Z AUTO 21006KT 10SM OVC070 24/17 A3000,,,,2133.6,,,,,,SSW,,,overcast,,,,16.99,98967.36,101496.82
KMKE,08/06/2021 04:50 UTC,101591.61,24,,64.98,2.57,200,,,,,,,,,,,,704,,,,10,,METAR KMKE 060450Z AUTO 20005KT 10SM OVC070 24/17 A3000,,,,2133.6,,,,,,SSW,,,overcast,,,,16.99,98967.36,101496.82
KMKE,08/06/2021 04:52 UTC,101591.61,24.4,16.7,62.25,2.57,200,,,101530,,,,,,,0.025,,704,,,,10,,KMKE 060452Z 20005KT 10SM OVC070 24/17 A3000 RMK AO2 RAB14E24  SLP153 P0000 T02440167,,,,2133.6,,,,,,SSW,,,overcast,,,,16.69,98967.36,101493.39
KMKE,08/06/2021 04:55 UTC,101591.61,24,,64.98,3.09,200,,,,,,,,,,,,704,,,,10,,METAR KMKE 060455Z AUTO 20006KT 10SM OVC070 24/17 A3000,,,,2133.6,,,,,,SSW,,,overcast,,,,16.99,98967.36,101496.82
KMKE,08/06/2021 05:00 UTC,101591.61,24,,64.98,4.12,200,,,,,,,,,,,,704,,,,10,,METAR KMKE 060500Z AUTO 20008KT 10SM OVC070 24/17 A3000,,,,2133.6,,,,,,SSW,,,overcast,,,,16.99,98967.36,101496.82
KMKE,08/06/2021 05:05 UTC,101591.61,24,,64.98,3.09,200,,,,,,,,,,,,704,,,,10,,METAR KMKE 060505Z AUTO 20006KT 10SM OVC070 24/17 A3000,,,,2133.6,,,,,,SSW,,,overcast,,,,16.99,98967.36,101496.82
KMKE,08/06/2021 05:10 UTC,101591.61,24,,64.98,3.6,200,,,,,,,,,,,,704,,,,10,,METAR KMKE 060510Z AUTO 20007KT 10SM OVC070 24/17 A3000,,,,2133.6,,,,,,SSW,,,overcast,,,,16.99,98967.36,101496.82
KMKE,08/06/2021 05:15 UTC,101591.61,24,,64.98,3.6,200,,,,,,,,,,,,704,,,,10,,METAR KMKE 060515Z AUTO 20007KT 10SM OVC070 24/17 A3000,,,,2133.6,,,,,,SSW,,,overcast,,,,16.99,98967.36,101496.82
KMKE,08/06/2021 05:20 UTC,101591.61,24,,64.98,3.09,200,,,,,,,,,,,,704,,,,10,,METAR KMKE 060520Z AUTO 20006KT 10SM OVC070 24/17 A3000,,,,2133.6,,,,,,SSW,,,overcast,,,,16.99,98967.36,101496.82
KMKE,08/06/2021 05:25 UTC,101591.61,25,,61.21,3.09,200,,,,,,,,,,,,703,804,,,10,,METAR KMKE 060525Z AUTO 20006KT 10SM BKN070 OVC080 25/17 A3000,,,,2133.6,,,,,,SSW,,,overcast,,,,17,98967.36,101488.25
KMKE,08/06/2021 05:30 UTC,101591.61,25,,61.21,3.6,200,,,,,,,,,,,,703,904,,,10,,METAR KMKE 060530Z AUTO 20007KT 10SM BKN070 OVC090 25/17 A3000,,,,2133.6,,,,,,SSW,,,overcast,,,,17,98967.36,101488.25
KMKE,08/06/2021 05:35 UTC,101557.75,24,,64.98,3.6,190,,,,,,,,,,,,702,904,,,10,,METAR KMKE 060535Z AUTO 19007KT 10SM SCT070 OVC090 24/17 A2999,,,,2743.2,,,,,,S,,,overcast,,,,16.99,98934.38,101462.99
KMKE,08/06/2021 05:40 UTC,101557.75,24,,64.98,3.6,180,,,,,1104,,,,,,,702,903,,,10,,METAR KMKE 060540Z AUTO 18007KT 10SM SCT070 BKN090 OVC110 24/17 A2999,,,,2743.2,,,,,,S,,,overcast,,,,16.99,98934.38,101462.99
KMKE,08/06/2021 05:45 UTC,101557.75,25,,61.21,3.09,180,,,,,1204,,,,,,,756,903,,,10,,METAR KMKE 060545Z AUTO 18006KT 10SM FEW075 BKN090 OVC120 25/17 A2999,,,,2743.2,,,,,,S,,,overcast,,,,17,98934.38,101454.42
KMKE,08/06/2021 05:50 UTC,101557.75,24,,64.98,3.09,190,,,,,,,,,,,,902,1204,,,10,,METAR KMKE 060550Z AUTO 19006KT 10SM SCT090 OVC120 24/17 A2999,,,,3657.6,,,,,,S,,,overcast,,,,16.99,98934.38,101462.99
KMKE,08/06/2021 05:52 UTC,101557.75,24.4,16.7,62.25,3.09,180,,,101490,,,,,,8005,,,902,1204,0.025,,10,,KMKE 060552Z 18006KT 10SM SCT090 OVC120 24/17 A2999 RMK AO2 SLP149  60000 T02440167 10283 20239 403060200 58005,28.3,23.9,,3657.6,,30.6,20,,,S,,,overcast,,,,16.69,98934.38,101459.56
KMKE,08/06/2021 05:55 UTC,101557.75,24,,64.98,2.57,190,,,,,,,,,,,,906,1204,,,10,,METAR KMKE 060555Z AUTO 19005KT 10SM FEW090 OVC120 24/17 A2999,,,,3657.6,,,,,,S,,,overcast,,,,16.99,98934.38,101462.99
KMKE,08/06/2021 06:00 UTC,101557.75,24,,64.98,2.57,180,,,,,,,,,,,,906,1203,,,10,,METAR KMKE 060600Z AUTO 18005KT 10SM FEW090 BKN120 24/17 A2999,,,,3657.6,,,,,,S,,,broken,,,,16.99,98934.38,101462.99
KMKE,08/06/2021 06:05 UTC,101557.75,24,,64.98,2.06,180,,,,,,,,,,,,706,1203,,,10,,METAR KMKE 060605Z AUTO 18004KT 10SM FEW070 BKN120 24/17 A2999,,,,3657.6,,,,,,S,,,broken,,,,16.99,98934.38,101462.99
KMKE,08/06/2021 06:10 UTC,101557.75,24,,64.98,2.57,190,,,,,,,,,,,,653,1203,,,10,,METAR KMKE 060610Z AUTO 19005KT 10SM BKN065 BKN120 24/17 A2999,,,,1981.2,,,,,,S,,,broken,,,,16.99,98934.38,101462.99
KMKE,08/06/2021 06:15 UTC,101557.75,24,,64.98,3.09,190,,,,,,,,,,,,603,1203,,,10,,METAR KMKE 060615Z AUTO 19006KT 10SM BKN060 BKN120 24/17 A2999,,,,1828.8,,,,,,S,,,broken,,,,16.99,98934.38,101462.99
KMKE,08/06/2021 06:20 UTC,101557.75,24,,60.98,3.09,190,,,,,,,,,,,,603,1203,,,10,,METAR KMKE 060620Z AUTO 19006KT 10SM BKN060 BKN120 24/16 A2999,,,,1828.8,,,,,,S,,,broken,,,,15.99,98934.38,101463.01
KMKE,08/06/2021 06:25 UTC,101523.88,24,,60.98,3.09,190,,,,,,,,,,,,604,,,,10,,METAR KMKE 060625Z AUTO 19006KT 10SM OVC060 24/16 A2998,,,,1828.8,,,,,,S,,,overcast,,,,15.99,98901.38,101429.17
KMKE,08/06/2021 06:30 UTC,101523.88,24,,60.98,3.09,190,,,,,,,,,,,,604,,,,10,,METAR KMKE 060630Z AUTO 19006KT 10SM OVC060 24/16 A2998,,,,1828.8,,,,,,S,,,overcast,,,,15.99,98901.38,101429.17
KMKE,08/06/2021 06:35 UTC,101523.88,24,,60.98,3.6,190,,,,,,,,,,,,553,654,,,10,,METAR KMKE 060635Z AUTO 19007KT 10SM BKN055 OVC065 24/16 A2998,,,,1676.4,,,,,,S,,,overcast,,,,15.99,98901.38,101429.17
KMKE,08/06/2021 06:40 UTC,101523.88,24,,60.98,3.09,190,,,,,,,,,,,,554,,,,10,,METAR KMKE 060640Z AUTO 19006KT 10SM OVC055 24/16 A2998,,,,1676.4,,,,,,S,,,overcast,,,,15.99,98901.38,101429.17
KMKE,08/06/2021 06:45 UTC,101523.88,24,,60.98,4.12,190,,,,,,,,,,,,504,,,,10,,METAR KMKE 060645Z AUTO 19008KT 10SM OVC050 24/16 A2998,,,,1524,,,,,,S,,,overcast,,,,15.99,98901.38,101429.17
KMKE,08/06/2021 06:50 UTC,101523.88,24,,60.98,3.09,200,,,,,,,,,,,,504,,,,10,,METAR KMKE 060650Z AUTO 20006KT 10SM OVC050 24/16 A2998,,,,1524,,,,,,SSW,,,overcast,,,,15.99,98901.38,101429.17
KMKE,08/06/2021 06:52 UTC,101523.88,24.4,16.1,59.92,3.09,200,,,101450,,,,,,,,,554,,,,10,,KMKE 060652Z 20006KT 10SM OVC055 24/16 A2998 RMK AO2 SLP145  T02440161,,,,1676.4,,,,,,SSW,,,overcast,,,,16.09,98901.38,101425.74
KMKE,08/06/2021 06:55 UTC,101523.88,24,,60.98,2.57,200,,,,,,,,,,,,504,,,,10,,METAR KMKE 060655Z AUTO 20005KT 10SM OVC050 24/16 A2998,,,,1524,,,,,,SSW,,,overcast,,,,15.99,98901.38,101429.17
KMKE,08/06/2021 07:00 UTC,101523.88,24,,60.98,3.6,200,,,,,,,,,,,,504,,,,10,,METAR KMKE 060700Z AUTO 20007KT 10SM OVC050 24/16 A2998,,,,1524,,,,,,SSW,,,overcast,,,,15.99,98901.38,101429.17
KMKE,08/06/2021 07:05 UTC,101523.88,24,,60.98,3.09,190,,,,,,,,,,,,504,,,,10,,METAR KMKE 060705Z AUTO 19006KT 10SM OVC050 24/16 A2998,,,,1524,,,,,,S,,,overcast,,,,15.99,98901.38,101429.17
KMKE,08/06/2021 07:10 UTC,101490.02,24,,60.98,3.09,200,,,,,,,,,,,,504,,,,10,,METAR KMKE 060710Z AUTO 20006KT 10SM OVC050 24/16 A2997,,,,1524,,,,,,SSW,,,overcast,,,,15.99,98868.4,101395.35
KMKE,08/06/2021 07:15 UTC,101490.02,24,,60.98,3.6,200,,,,,,,,,,,,504,,,,10,,METAR KMKE 060715Z AUTO 20007KT 10SM OVC050 24/16 A2997,,,,1524,,,,,,SSW,,,overcast,,,,15.99,98868.4,101395.35
KMKE,08/06/2021 07:20 UTC,101490.02,24,,60.98,3.6,200,,,,,,,,,,,,504,,,,10,,METAR KMKE 060720Z AUTO 20007KT 10SM OVC050 24/16 A2997,,,,1524,,,,,,SSW,,,overcast,,,,15.99,98868.4,101395.35
KMKE,08/06/2021 07:25 UTC,101490.02,24,,60.98,4.12,190,,,,,,,,,,,,504,,,,10,,METAR KMKE 060725Z AUTO 19008KT 10SM OVC050 24/16 A2997,,,,1524,,,,,,S,,,overcast,,,,15.99,98868.4,101395.35
KMKE,08/06/2021 07:30 UTC,101490.02,24,,60.98,3.09,200,,,,,,,,,,,,504,,,,10,,METAR KMKE 060730Z AUTO 20006KT 10SM OVC050 24/16 A2997,,,,1524,,,,,,SSW,,,overcast,,,,15.99,98868.4,101395.35
KMKE,08/06/2021 07:35 UTC,101490.02,24,,60.98,3.09,190,,,,,,,,,,,,504,,,,10,,METAR KMKE 060735Z AUTO 19006KT 10SM OVC050 24/16 A2997,,,,1524,,,,,,S,,,overcast,,,,15.99,98868.4,101395.35
KMKE,08/06/2021 07:40 UTC,101490.02,24,,60.98,4.12,190,,,,,,,,,,,,504,,,,10,,METAR KMKE 060740Z AUTO 19008KT 10SM OVC050 24/16 A2997,,,,1524,,,,,,S,,,overcast,,,,15.99,98868.4,101395.35
KMKE,08/06/2021 07:45 UTC,101456.16,24,,60.98,3.09,190,,,,,704,,,,,,,473,603,,,10,,METAR KMKE 060745Z AUTO 19006KT 10SM BKN047 BKN060 OVC070 24/16 A2996,,,,1432.56,,,,,,S,,,overcast,,,,15.99,98835.41,101361.52
KMKE,08/06/2021 07:50 UTC,101456.16,24,,60.98,3.6,190,,,,,704,,,,,,,473,603,,,10,,METAR KMKE 060750Z AUTO 19007KT 10SM BKN047 BKN060 OVC070 24/16 A2996,,,,1432.56,,,,,,S,,,overcast,,,,15.99,98835.41,101361.52
KMKE,08/06/2021 07:52 UTC,101456.16,24.4,16.1,59.92,2.57,190,,,101390,,,,,,,,,473,704,,,10,,KMKE 060752Z 19005KT 10SM BKN047 OVC070 24/16 A2996 RMK AO2 SLP139  T02440161,,,,1432.56,,,,,,S,,,overcast,,,,16.09,98835.41,101358.09
KMKE,08/06/2021 07:55 UTC,101456.16,24,,60.98,3.6,190,,,,,704,,,,,,,453,603,,,10,,METAR KMKE 060755Z AUTO 19007KT 10SM BKN045 BKN060 OVC070 24/16 A2996,,,,1371.6,,,,,,S,,,overcast,,,,15.99,98835.41,101361.52
KMKE,08/06/2021 08:00 UTC,101456.16,24,,60.98,4.12,190,,,,,704,,,,,,,453,553,,,10,,METAR KMKE 060800Z AUTO 19008KT 10SM BKN045 BKN055 OVC070 24/16 A2996,,,,1371.6,,,,,,S,,,overcast,,,,15.99,98835.41,101361.52
KMKE,08/06/2021 08:05 UTC,101456.16,24,,60.98,4.12,190,,,,,704,,,,,,,453,603,,,10,,METAR KMKE 060805Z AUTO 19008KT 10SM BKN045 BKN060 OVC070 24/16 A2996,,,,1371.6,,,,,,S,,,overcast,,,,15.99,98835.41,101361.52
KMKE,08/06/2021 08:10 UTC,101456.16,24,,60.98,4.12,200,,,,,704,,,,,,,453,603,,,10,,METAR KMKE 060810Z AUTO 20008KT 10SM BKN045 BKN060 OVC070 24/16 A2996,,,,1371.6,,,,,,SSW,,,overcast,,,,15.99,98835.41,101361.52
KMKE,08/06/2021 08:15 UTC,101456.16,24,,60.98,4.12,200,,,,,,,,,,,,453,654,,,10,,METAR KMKE 060815Z AUTO 20008KT 10SM BKN045 OVC065 24/16 A2996,,,,1371.6,,,,,,SSW,,,overcast,,,,15.99,98835.41,101361.52
KMKE,08/06/2021 08:20 UTC,101456.16,24,,60.98,4.12,210,,,,,,,,,,,,452,654,,,10,,METAR KMKE 060820Z AUTO 21008KT 10SM SCT045 OVC065 24/16 A2996,,,,1981.2,,,,,,SSW,,,overcast,,,,15.99,98835.41,101361.52
KMKE,08/06/2021 08:25 UTC,101456.16,24,,60.98,4.12,210,,,,,,,,,,,,452,653,,,10,,METAR KMKE 060825Z AUTO 21008KT 10SM SCT045 BKN065 24/16 A2996,,,,1981.2,,,,,,SSW,,,broken,,,,15.99,98835.41,101361.52
KMKE,08/06/2021 08:30 UTC,101456.16,24,,60.98,4.12,210,,,,,,,,,,,,476,653,,,10,,METAR KMKE 060830Z AUTO 21008KT 10SM FEW047 BKN065 24/16 A2996,,,,1981.2,,,,,,SSW,,,broken,,,,15.99,98835.41,101361.52
KMKE,08/06/2021 08:35 UTC,101456.16,24,,60.98,5.14,210,,,,,,,,,,,,496,652,,,10,,METAR KMKE 060835Z AUTO 21010KT 10SM FEW049 SCT065 24/16 A2996,,,,,,,,,,SSW,,,scattered,,,,15.99,98835.41,101361.52
KMKE,08/06/2021 08:40 UTC,101456.16,24,,60.98,5.66,220,,,,,,,,,,,,652,1202,,,10,,METAR KMKE 060840Z AUTO 22011KT 10SM SCT065 SCT120 24/16 A2996,,,,,,,,,,SW,,,scattered,,,,15.99,98835.41,101361.52
KMKE,08/06/2021 08:45 UTC,101456.16,23,,64.76,5.14,230,,,,,,,,,,,,706,1103,,,10,,METAR KMKE 060845Z AUTO 23010KT 10SM FEW070 BKN110 23/16 A2996,,,,3352.8,,,,,,SW,,,broken,,,,15.99,98835.41,101370.14
KMKE,08/06/2021 08:50 UTC,101456.16,23,,69.01,6.17,230,,,,,,,,,,,,706,1104,,,10,,METAR KMKE 060850Z AUTO 23012KT 10SM FEW070 OVC110 23/17 A2996,,,,3352.8,,,,,,SW,,,overcast,,,,16.99,98835.41,101370.12
KMKE,08/06/2021 08:52 UTC,101456.16,23.3,16.7,66.5,6.17,230,,,101400,13,,,,,6010,0.025,0.025,656,1104,,,10,,KMKE 060852Z 23012KT 10SM -RA FEW065 OVC110 23/17 A2996 RMK AO2  RAB51 SLP140 P0000 60000 T02330167 56010,,,,3352.8,,,,,,SW,,light rain,light rain,,,,16.69,98835.41,101367.53
KMKE,08/06/2021 08:55 UTC,101456.16,23,,69.01,7.2,240,9.77,,,13,,,,,,,,1103,,,,10,,METAR KMKE 060855Z AUTO 24014G19KT 10SM -RA BKN110 23/17 A2996,,,,3352.8,,,,,,WSW,,light rain,light rain,,,,16.99,98835.41,101370.12
KMKE,08/06/2021 09:00 UTC,101456.16,23,,69.01,6.69,230,,,,13,,,,,,,,376,1103,,,10,,METAR KMKE 060900Z AUTO 23013KT 10SM -RA FEW037 BKN110 23/17 A2996,,,,3352.8,,,,,,SW,,light rain,light rain,,,,16.99,98835.41,101370.12
KMKE,08/06/2021 09:05 UTC,101456.16,22,,78.09,7.2,220,9.77,,,13,1103,,,,,,,396,902,,,8,,METAR KMKE 060905Z AUTO 22014G19KT 8SM -RA FEW039 SCT090 BKN110 22/18 A2996,,,,3352.8,,,,,,SW,,light rain,light rain,,,,17.99,98835.41,101378.78
KMKE,08/06/2021 09:10 UTC,101456.16,22,,78.09,6.17,200,,,,13,1104,,,,,,,396,856,,,6,,METAR KMKE 060910Z AUTO 20012KT 6SM -RA FEW039 FEW085 OVC110 22/18 A2996,,,,3352.8,,,,,,SSW,,light rain,light rain,,,,17.99,98835.41,101378.78
KMKE,08/06/2021 09:15 UTC,101422.29,21,,83.01,6.69,200,,,,13,,,,,,0.254,,396,1103,,,7,,METAR KMKE 060915Z AUTO 20013KT 7SM -RA FEW039 BKN110 21/18 A2995 RMK P0001,,,,3352.8,,,,,,SSW,,light rain,light rain,,,,17.99,98802.42,101353.67
KMKE,08/06/2021 09:20 UTC,101422.29,21,,83.01,6.17,200,,,,13,1104,,,,,0.508,,396,806,,,9,,METAR KMKE 060920Z AUTO 20012KT 9SM -RA FEW039 FEW080 OVC110 21/18 A2995 RMK P0002,,,,3352.8,,,,,,SSW,,light rain,light rain,,,,17.99,98802.42,101353.67
KMKE,08/06/2021 09:25 UTC,101422.29,21,,88.37,6.17,210,9.26,,,13,1103,,,,,0.508,,396,806,,,9,,METAR KMKE 060925Z AUTO 21012G18KT 9SM -RA FEW039 FEW080 BKN110 21/19 A2995 RMK P0002,,,,3352.8,,,,,,SSW,,light rain,light rain,,,,18.99,98802.42,101353.65
KMKE,08/06/2021 09:30 UTC,101422.29,21,,88.37,5.66,200,,,,13,,,,,,0.762,,806,1103,,,9,,METAR KMKE 060930Z AUTO 20011KT 9SM -RA FEW080 BKN110 21/19 A2995 RMK P0003,,,,3352.8,,,,,,SSW,,light rain,light rain,,,,18.99,98802.42,101353.65
KMKE,08/06/2021 09:35 UTC,101422.29,21,,83.01,5.66,200,,,,13,,,,,,0.762,,1103,,,,9,,METAR KMKE 060935Z AUTO 20011KT 9SM -RA BKN110 21/18 A2995 RMK P0003,,,,3352.8,,,,,,SSW,,light rain,light rain,,,,17.99,98802.42,101353.67
KMKE,08/06/2021 09:40 UTC,101422.29,21,,83.01,6.17,210,,,,13,,,,,,0.762,,1002,1203,,,10,,METAR KMKE 060940Z AUTO 21012KT 10SM -RA SCT100 BKN120 21/18 A2995 RMK P0003,,,,3657.6,,,,,,SSW,,light rain,light rain,,,,17.99,98802.42,101353.67
KMKE,08/06/2021 09:45 UTC,101456.16,21,,83.01,6.17,210,,,,13,1203,,,,,0.762,,806,1003,,,10,,METAR KMKE 060945Z AUTO 21012KT 10SM -RA FEW080 BKN100 BKN120 21/18 A2996 RMK P0003,,,,3048,,,,,,SSW,,light rain,light rain,,,,17.99,98835.41,101387.51
KMKE,08/06/2021 09:50 UTC,101456.16,21,,83.01,5.66,210,,,,13,1203,,,,,0.762,,806,1003,,,10,,METAR KMKE 060950Z AUTO 21011KT 10SM -RA FEW080 BKN100 BKN120 21/18 A2996 RMK P0003,,,,3048,,,,,,SSW,,light rain,light rain,,,,17.99,98835.41,101387.51
KMKE,08/06/2021 09:52 UTC,101456.16,21.1,18.3,84.07,5.66,220,,,101400,13,1004,,,,,1.016,,436,806,,,10,,KMKE 060952Z 22011KT 10SM -RA FEW043 FEW080 OVC100 21/18 A2996 RMK AO2 SLP140 P0004 T02110183,,,,3048,,,,,,SW,,light rain,light rain,,,,18.29,98835.41,101386.63
KMKE,08/06/2021 09:55 UTC,101456.16,21,,83.01,5.66,230,,,,13,1203,,,,,,,366,1003,,,10,,METAR KMKE 060955Z AUTO 23011KT 10SM -RA FEW036 BKN100 BKN120 21/18 A2996,,,,3048,,,,,,SW,,light rain,light rain,,,,17.99,98835.41,101387.51
KMKE,08/06/2021 10:00 UTC,101456.16,21,,83.01,5.14,220,,,,13,1204,,,,,,,342,1003,,,10,,METAR KMKE 061000Z AUTO 22010KT 10SM -RA SCT034 BKN100 OVC120 21/18 A2996,,,,3048,,,,,,SW,,light rain,light rain,,,,17.99,98835.41,101387.51
KMKE,08/06/2021 10:05 UTC,101456.16,21,,83.01,5.14,220,,,,1,1004,,,,,0.254,,322,803,,,10,,METAR KMKE 061005Z AUTO 22010KT 10SM RA SCT032 BKN080 OVC100 21/18 A2996 RMK P0001,,,,2438.4,,,,,,SW,,rain,rain,,,,17.99,98835.41,101387.51
KMKE,08/06/2021 10:10 UTC,101456.16,21,,83.01,5.14,210,,,,13,1004,,,,,0.508,,323,803,,,10,,METAR KMKE 061010Z AUTO 21010KT 10SM -RA BKN032 BKN080 OVC100 21/18 A2996 RMK P0002,,,,975.36,,,,,,SSW,,light rain,light rain,,,,17.99,98835.41,101387.51
KMKE,08/06/2021 10:15 UTC,101456.16,21,,83.01,5.14,210,,,,13,804,,,,,0.508,,323,503,,,10,,METAR KMKE 061015Z AUTO 21010KT 10SM -RA BKN032 BKN050 OVC080 21/18 A2996 RMK P0002,,,,975.36,,,,,,SSW,,light rain,light rain,,,,17.99,98835.41,101387.51
KMKE,08/06/2021 10:20 UTC,101456.16,21,,83.01,4.63,210,,,,13,464,,,,,0.508,,266,343,,,10,,METAR KMKE 061020Z AUTO 21009KT 10SM -RA FEW026 BKN034 OVC046 21/18 A2996 RMK P0002,,,,1036.32,,,,,,SSW,,light rain,light rain,,,,17.99,98835.41,101387.51
KMKE,08/06/2021 10:25 UTC,101456.16,21,,83.01,5.66,210,,,,13,394,,,,,0.762,,266,323,,,10,,METAR KMKE 061025Z AUTO 21011KT 10SM -RA FEW026 BKN032 OVC039 21/18 A2996 RMK P0003,,,,975.36,,,,,,SSW,,light rain,light rain,,,,17.99,98835.41,101387.51
KMKE,08/06/2021 10:30 UTC,101456.16,21,,83.01,4.63,210,,,,13,,,,,,0.762,,282,354,,,10,,METAR KMKE 061030Z AUTO 21009KT 10SM -RA SCT028 OVC035 21/18 A2996 RMK P0003,,,,1066.8,,,,,,SSW,,light rain,light rain,,,,17.99,98835.41,101387.51
KMKE,08/06/2021 10:35 UTC,101422.29,21,,83.01,5.14,200,,,,,,,,,,0.762,,282,374,,,10,,METAR KMKE 061035Z AUTO 20010KT 10SM SCT028 OVC037 21/18 A2995 RMK P0003,,,,1127.76,,,,,,SSW,,,overcast,,,,17.99,98802.42,101353.67
KMKE,08/06/2021 10:40 UTC,101422.29,21,,83.01,6.17,200,,,,,1204,,,,,0.762,,276,373,,,10,,METAR KMKE 061040Z AUTO 20012KT 10SM FEW027 BKN037 OVC120 21/18 A2995 RMK P0003,,,,1127.76,,,,,,SSW,,,overcast,,,,17.99,98802.42,101353.67
KMKE,08/06/2021 10:45 UTC,101422.29,21,,83.01,6.69,200,,,,,1204,,,,,0.762,,276,393,,,10,,METAR KMKE 061045Z AUTO 20013KT 10SM FEW027 BKN039 OVC120 21/18 A2995 RMK P0003,,,,1188.72,,,,,,SSW,,,overcast,,,,17.99,98802.42,101353.67
KMKE,08/06/2021 10:50 UTC,101422.29,21,,83.01,6.69,200,9.26,,,,1204,,,,,0.762,,276,392,,,10,,METAR KMKE 061050Z AUTO 20013G18KT 10SM FEW027 SCT039 OVC120 21/18 A2995 RMK P0003,,,,3657.6,,,,,,SSW,,,overcast,,,,17.99,98802.42,101353.67
KMKE,08/06/2021 10:52 UTC,101422.29,20.6,18.3,86.69,6.17,200,,,101370,,1204,,,,,0.762,,276,392,,,10,,KMKE 061052Z 20012KT 10SM FEW027 SCT039 OVC120 21/18 A2995 RMK AO2  LTG DSNT S RAE31 SLP137 P0003 T02060183,,,,3657.6,,,,,,SSW,,,overcast,,,,18.29,98802.42,101357.18
KMKE,08/06/2021 10:55 UTC,101422.29,21,,83.01,6.17,200,8.75,,,13,1203,,,,,,,276,392,,,10,,METAR KMKE 061055Z AUTO 20012G17KT 10SM -RA FEW027 SCT039 BKN120 21/18 A2995,,,,3657.6,,,,,,SSW,,light rain,light rain,,,,17.99,98802.42,101353.67
KMKE,08/06/2021 11:00 UTC,101422.29,21,,83.01,5.14,210,,,,13,,,,,,,,396,1103,,,8,,METAR KMKE 061100Z AUTO 21010KT 8SM -RA FEW039 BKN110 21/18 A2995,,,,3352.8,,,,,,SSW,,light rain,light rain,,,,17.99,98802.42,101353.67
KMKE,08/06/2021 11:05 UTC,101422.29,21,,83.01,5.14,210,,,,2481,,,,,,,,1103,,,,6,,METAR KMKE 061105Z AUTO 21010KT 6SM RA BR BKN110 21/18 A2995,,,,3352.8,,,,,,SSW,,"rain,mist","rain,mist",,,,17.99,98802.42,101353.67
KMKE,08/06/2021 11:10 UTC,101422.29,21,,83.01,5.14,210,,,,2481,,,,,,0.254,,1104,,,,5,,METAR KMKE 061110Z AUTO 21010KT 5SM RA BR OVC110 21/18 A2995 RMK P0001,,,,3352.8,,,,,,SSW,,"rain,mist","rain,mist",,,,17.99,98802.42,101353.67
KMKE,08/06/2021 11:15 UTC,101422.29,21,,83.01,5.14,200,7.72,,,2481,,,,,,0.508,,1104,,,,6,,METAR KMKE 061115Z AUTO 20010G15KT 6SM RA BR OVC110 21/18 A2995 RMK P0002,,,,3352.8,,,,,,SSW,,"rain,mist","rain,mist",,,,17.99,98802.42,101353.67
KMKE,08/06/2021 11:20 UTC,101422.29,21,,83.01,5.14,200,,,,13,,,,,,0.508,,556,1104,,,10,,METAR KMKE 061120Z AUTO 20010KT 10SM -RA FEW055 OVC110 21/18 A2995 RMK P0002,,,,3352.8,,,,,,SSW,,light rain,light rain,,,,17.99,98802.42,101353.67
KMKE,08/06/2021 11:25 UTC,101422.29,21,,83.01,4.63,200,,,,13,,,,,,0.508,,556,1103,,,10,,METAR KMKE 061125Z AUTO 20009KT 10SM -RA FEW055 BKN110 21/18 A2995 RMK P0002,,,,3352.8,,,,,,SSW,,light rain,light rain,,,,17.99,98802.42,101353.67
KMKE,08/06/2021 11:30 UTC,101422.29,21,,88.37,4.63,190,,,,,1103,,,,,0.508,,556,906,,,10,,METAR KMKE 061130Z AUTO 19009KT 10SM FEW055 FEW090 BKN110 21/19 A2995 RMK P0002,,,,3352.8,,,,,,S,,,broken,,,,18.99,98802.42,101353.65
KMKE,08/06/2021 11:35 UTC,101422.29,21,,83.01,4.12,190,,,,,1103,,,,,0.508,,556,906,,,10,,METAR KMKE 061135Z AUTO 19008KT 10SM FEW055 FEW090 BKN110 21/18 A2995 RMK P0002,,,,3352.8,,,,,,S,,,broken,,,,17.99,98802.42,101353.67
KMKE,08/06/2021 11:40 UTC,101422.29,21,,83.01,4.12,200,,,,,,,,,,0.508,,556,1003,,,10,,METAR KMKE 061140Z AUTO 20008KT 10SM FEW055 BKN100 21/18 A2995 RMK P0002,,,,3048,,,,,,SSW,,,broken,,,,17.99,98802.42,101353.67
KMKE,08/06/2021 11:45 UTC,101422.29,21,,83.01,4.12,200,,,,,,,,,,0.508,,556,1003,,,10,,METAR KMKE 061145Z AUTO 20008KT 10SM FEW055 BKN100 21/18 A2995 RMK P0002,,,,3048,,,,,,SSW,,,broken,,,,17.99,98802.42,101353.67
KMKE,08/06/2021 11:50 UTC,101422.29,21,,83.01,4.12,190,,,,,,,,,,0.508,,506,1004,,,10,,METAR KMKE 061150Z AUTO 19008KT 10SM FEW050 OVC100 21/18 A2995 RMK P0002,,,,3048,,,,,,S,,,overcast,,,,17.99,98802.42,101353.67
KMKE,08/06/2021 11:52 UTC,101456.16,20.6,18.3,86.69,3.6,200,,,101390,,,,,,5001,0.508,,506,1004,2.286,2.286,10,,KMKE 061152Z 20007KT 10SM FEW050 OVC100 21/18 A2996 RMK AO2  RAB1053E26 SLP139 P0002 60009 70009 T02060183 10244 20206  55001,24.4,20.6,,3048,,,,,,SSW,,,overcast,,,,18.29,98835.41,101391.02
KMKE,08/06/2021 11:55 UTC,101456.16,21,,83.01,3.6,200,,,,,,,,,,,,1103,,,,10,,METAR KMKE 061155Z AUTO 20007KT 10SM BKN110 21/18 A2996,,,,3352.8,,,,,,SSW,,,broken,,,,17.99,98835.41,101387.51
KMKE,08/06/2021 12:00 UTC,101456.16,21,,83.01,4.12,200,,,,,,,,,,,,1103,,,,10,,METAR KMKE 061200Z AUTO 20008KT 10SM BKN110 21/18 A2996,,,,3352.8,,,,,,SSW,,,broken,,,,17.99,98835.41,101387.51
KMKE,08/06/2021 12:05 UTC,101490.02,21,,83.01,3.6,210,,,,,,,,,,,,1103,,,,10,,METAR KMKE 061205Z AUTO 21007KT 10SM BKN110 21/18 A2997,,,,3352.8,,,,,,SSW,,,broken,,,,17.99,98868.4,101421.36
KMKE,08/06/2021 12:10 UTC,101490.02,21,,83.01,4.12,200,,,,,,,,,,,,1103,,,,10,,METAR KMKE 061210Z AUTO 20008KT 10SM BKN110 21/18 A2997,,,,3352.8,,,,,,SSW,,,broken,,,,17.99,98868.4,101421.36
KMKE,08/06/2021 12:15 UTC,101490.02,21,,83.01,4.12,200,,,,,,,,,,,,1102,,,,10,,METAR KMKE 061215Z AUTO 20008KT 10SM SCT110 21/18 A2997,,,,,,,,,,SSW,,,scattered,,,,17.99,98868.4,101421.36
KMKE,08/06/2021 12:20 UTC,101490.02,21,,88.37,4.63,210,,,,,,,,,,,,1206,,,,10,,METAR KMKE 061220Z AUTO 21009KT 10SM FEW120 21/19 A2997,,,,,,,,,,SSW,,,thin scattered,,,,18.99,98868.4,101421.34
KMKE,08/06/2021 12:25 UTC,101490.02,21,,88.37,3.6,210,,,,,,,,,,,,256,1202,,,10,,METAR KMKE 061225Z AUTO 21007KT 10SM FEW025 SCT120 21/19 A2997,,,,,,,,,,SSW,,,scattered,,,,18.99,98868.4,101421.34
KMKE,08/06/2021 12:30 UTC,101490.02,21,,83.01,3.6,200,,,,,,,,,,,,256,1202,,,10,,METAR KMKE 061230Z AUTO 20007KT 10SM FEW025 SCT120 21/18 A2997,,,,,,,,,,SSW,,,scattered,,,,17.99,98868.4,101421.36
KMKE,08/06/2021 12:35 UTC,101523.88,21,,83.01,4.12,210,,,,,,,,,,,,186,276,,,10,,METAR KMKE 061235Z AUTO 21008KT 10SM FEW018 FEW027 21/18 A2998,,,,,,,,,,SSW,,,thin scattered,,,,17.99,98901.38,101455.19
KMKE,08/06/2021 12:40 UTC,101523.88,21,,83.01,3.09,200,,,,,,,,,,,,182,252,,,10,,METAR KMKE 061240Z AUTO 20006KT 10SM SCT018 SCT025 21/18 A2998,,,,,,,,,,SSW,,,scattered,,,,17.99,98901.38,101455.19
KMKE,08/06/2021 12:45 UTC,101490.02,21,,88.37,4.12,200,,,,,,,,,,,,186,252,,,10,,METAR KMKE 061245Z AUTO 20008KT 10SM FEW018 SCT025 21/19 A2997,,,,,,,,,,SSW,,,scattered,,,,18.99,98868.4,101421.34
KMKE,08/06/2021 12:50 UTC,101490.02,21,,88.37,3.6,200,,,,,,,,,,,,506,1002,,,10,,METAR KMKE 061250Z AUTO 20007KT 10SM FEW050 SCT100 21/19 A2997,,,,,,,,,,SSW,,,scattered,,,,18.99,98868.4,101421.34
KMKE,08/06/2021 12:52 UTC,101490.02,21.1,18.9,87.29,3.6,200,,,101450,,1504,,,,,,,506,1002,,,10,,KMKE 061252Z 20007KT 10SM FEW050 SCT100 OVC150 21/19 A2997 RMK AO2  SLP145 T02110189,,,,4572,,,,,,SSW,,,overcast,,,,18.89,98868.4,101420.46
KMKE,08/06/2021 12:55 UTC,101490.02,21,,83.01,4.12,200,,,,,,,,,,,,186,1002,,,10,,METAR KMKE 061255Z AUTO 20008KT 10SM FEW018 SCT100 21/18 A2997,,,,,,,,,,SSW,,,scattered,,,,17.99,98868.4,101421.36
KMKE,08/06/2021 13:00 UTC,101490.02,21,,83.01,4.63,200,,,,,,,,,,,,186,953,,,10,,METAR KMKE 061300Z AUTO 20009KT 10SM FEW018 BKN095 21/18 A2997,,,,2895.6,,,,,,SSW,,,broken,,,,17.99,98868.4,101421.36
KMKE,08/06/2021 13:05 UTC,101490.02,21,,88.37,3.09,210,,,,,,,,,,,,186,952,,,10,,METAR KMKE 061305Z AUTO 21006KT 10SM FEW018 SCT095 21/19 A2997,,,,,,,,,,SSW,,,scattered,,,,18.99,98868.4,101421.34
KMKE,08/06/2021 13:10 UTC,101456.16,21,,88.37,3.09,210,,,,,,,,,,,,956,,,,10,,METAR KMKE 061310Z AUTO 21006KT 10SM FEW095 21/19 A2996,,,,,,,,,,SSW,,,thin scattered,,,,18.99,98835.41,101387.5
KMKE,08/06/2021 13:15 UTC,101456.16,22,,83.13,3.6,200,,,,,,,,,,,,1006,,,,10,,METAR KMKE 061315Z AUTO 20007KT 10SM FEW100 22/19 A2996,,,,,,,,,,SSW,,,thin scattered,,,,18.99,98835.41,101378.76
KMKE,08/06/2021 13:20 UTC,101456.16,22,,83.13,4.12,210,,,,,,,,,,,,956,,,,10,,METAR KMKE 061320Z AUTO 21008KT 10SM FEW095 22/19 A2996,,,,,,,,,,SSW,,,thin scattered,,,,18.99,98835.41,101378.76
KMKE,08/06/2021 13:25 UTC,101456.16,22,,83.13,5.14,200,,,,,,,,,,,,956,,,,10,,METAR KMKE 061325Z AUTO 20010KT 10SM FEW095 22/19 A2996,,,,,,,,,,SSW,,,thin scattered,,,,18.99,98835.41,101378.76
KMKE,08/06/2021 13:30 UTC,101456.16,22,,83.13,4.63,200,,,,,,,,,,,,1,,,,10,,METAR KMKE 061330Z AUTO 20009KT 10SM CLR 22/19 A2996,,,,,,,,,,SSW,,,clear,,,,18.99,98835.41,101378.76
KMKE,08/06/2021 13:35 UTC,101456.16,22,,83.13,4.63,210,,,,,,,,,,,,1,,,,10,,METAR KMKE 061335Z AUTO 21009KT 10SM CLR 22/19 A2996,,,,,,,,,,SSW,,,clear,,,,18.99,98835.41,101378.76
KMKE,08/06/2021 13:40 UTC,101456.16,23,,78.24,3.09,210,,,,,,,,,,,,1,,,,10,,METAR KMKE 061340Z AUTO 21006KT 10SM CLR 23/19 A2996,,,,,,,,,,SSW,,,clear,,,,18.99,98835.41,101370.08
KMKE,08/06/2021 13:45 UTC,101456.16,23,,78.24,4.12,220,,,,,,,,,,,,1,,,,10,,METAR KMKE 061345Z AUTO 22008KT 10SM CLR 23/19 A2996,,,,,,,,,,SW,,,clear,,,,18.99,98835.41,101370.08
KMKE,08/06/2021 13:50 UTC,101456.16,23,,78.24,5.14,220,,,,,,,,,,,,,,,,10,,METAR KMKE 061350Z AUTO 22010KT 10SM 23/19 A2996,,,,,,,,,,SW,,,,,,,18.99,98835.41,101370.08
KMKE,08/06/2021 13:52 UTC,101456.16,22.8,18.9,78.7,4.63,220,,,101400,,,,,,,,,1803,,,,10,,KMKE 061352Z 22009KT 10SM BKN180 23/19 A2996 RMK AO2 SLP140  T02280189,,,,5486.4,,,,,,SW,,,broken,,,,18.89,98835.41,101371.82
KMKE,08/06/2021 13:55 UTC,101456.16,23,,78.24,5.14,220,,,,,,,,,,,,1,,,,10,,METAR KMKE 061355Z AUTO 22010KT 10SM CLR 23/19 A2996,,,,,,,,,,SW,,,clear,,,,18.99,98835.41,101370.08
KMKE,08/06/2021 14:00 UTC,101456.16,23,,78.24,5.66,230,,,,,,,,,,,,1,,,,10,,METAR KMKE 061400Z AUTO 23011KT 10SM CLR 23/19 A2996,,,,,,,,,,SW,,,clear,,,,18.99,98835.41,101370.08
KMKE,08/06/2021 14:05 UTC,101490.02,23,,78.24,4.63,230,,,,,,,,,,,,1,,,,10,,METAR KMKE 061405Z AUTO 23009KT 10SM CLR 23/19 A2997,,,,,,,,,,SW,,,clear,,,,18.99,98868.4,101403.92
KMKE,08/06/2021 14:10 UTC,101490.02,23,,78.24,5.14,220,,,,,,,,,,,,1,,,,10,,METAR KMKE 061410Z AUTO 22010KT 10SM CLR 23/19 A2997,,,,,,,,,,SW,,,clear,,,,18.99,98868.4,101403.92
KMKE,08/06/2021 14:15 UTC,101490.02,23,,78.24,5.14,230,,,,,,,,,,,,1,,,,10,,METAR KMKE 061415Z AUTO 23010KT 10SM CLR 23/19 A2997,,,,,,,,,,SW,,,clear,,,,18.99,98868.4,101403.92
KMKE,08/06/2021 14:20 UTC,101490.02,23,,78.24,5.66,220,,,,,,,,,,,,1,,,,10,,METAR KMKE 061420Z AUTO 22011KT 10SM CLR 23/19 A2997,,,,,,,,,,SW,,,clear,,,,18.99,98868.4,101403.92
KMKE,08/06/2021 14:25 UTC,101490.02,23,,78.24,5.14,230,,,,,,,,,,,,156,,,,10,,METAR KMKE 061425Z AUTO 23010KT 10SM FEW015 23/19 A2997,,,,,,,,,,SW,,,thin scattered,,,,18.99,98868.4,101403.92
KMKE,08/06/2021 14:30 UTC,101490.02,23,,73.5,5.14,220,,,,,,,,,,,,156,,,,10,,METAR KMKE 061430Z AUTO 22010KT 10SM FEW015 23/18 A2997,,,,,,,,,,SW,,,thin scattered,,,,17.99,98868.4,101403.94
KMKE,08/06/2021 14:35 UTC,101490.02,23,,78.24,5.14,220,,,,,,,,,,,,1,,,,10,,METAR KMKE 061435Z AUTO 22010KT 10SM CLR 23/19 A2997,,,,,,,,,,SW,,,clear,,,,18.99,98868.4,101403.92
KMKE,08/06/2021 14:40 UTC,101490.02,23,,78.24,4.12,220,,,,,,,,,,,,1,,,,10,,METAR KMKE 061440Z AUTO 22008KT 10SM CLR 23/19 A2997,,,,,,,,,,SW,,,clear,,,,18.99,98868.4,101403.92
KMKE,08/06/2021 14:45 UTC,101490.02,23,,78.24,5.14,210,,,,,,,,,,,,1,,,,10,,METAR KMKE 061445Z AUTO 21010KT 10SM CLR 23/19 A2997,,,,,,,,,,SSW,,,clear,,,,18.99,98868.4,101403.92
KMKE,08/06/2021 14:50 UTC,101490.02,23,,78.24,4.63,230,,,,,,,,,,,,156,,,,10,,METAR KMKE 061450Z AUTO 23009KT 10SM FEW015 23/19 A2997,,,,,,,,,,SW,,,thin scattered,,,,18.99,98868.4,101403.92
KMKE,08/06/2021 14:52 UTC,101490.02,23.3,18.9,76.36,4.12,240,,,101440,,,,,,1005,,,156,1803,,,10,,KMKE 061452Z 24008KT 10SM FEW015 BKN180 23/19 A2997 RMK AO2 SLP144  T02330189 51005,,,,5486.4,,,,,,WSW,,,broken,,,,18.89,98868.4,101401.33
KMKE,08/06/2021 14:55 UTC,101490.02,23,,78.24,4.63,230,7.2,,,,,,,,,,,1,,,,10,,METAR KMKE 061455Z AUTO 23009G14KT 10SM CLR 23/19 A2997,,,,,,,,,,SW,,,clear,,,,18.99,98868.4,101403.92
KMKE,08/06/2021 15:00 UTC,101490.02,23,,78.24,4.63,240,,,,,,,,,,,,1,,,,10,,METAR KMKE 061500Z AUTO 24009KT 10SM CLR 23/19 A2997,,,,,,,,,,WSW,,,clear,,,,18.99,98868.4,101403.92
KMKE,08/06/2021 15:05 UTC,101490.02,23,,78.24,4.12,250,,,,,,,,,,,,156,,,,10,,METAR KMKE 061505Z AUTO 25008KT 10SM FEW015 23/19 A2997,,,,,,,,,,WSW,,,thin scattered,,,,18.99,98868.4,101403.92
KMKE,08/06/2021 15:10 UTC,101490.02,23,,78.24,3.6,240,,,,,,,,,,,,156,,,,10,,METAR KMKE 061510Z AUTO 24007KT 10SM FEW015 23/19 A2997,,,,,,,,,,WSW,,,thin scattered,,,,18.99,98868.4,101403.92
KMKE,08/06/2021 15:15 UTC,101523.88,24,,73.67,3.6,240,,,,,,,,,,,,152,,,,10,,METAR KMKE 061515Z AUTO 24007KT 10SM SCT015 24/19 A2998,,,,,,,,,,WSW,,,scattered,,,,18.99,98901.38,101429.12
KMKE,08/06/2021 15:20 UTC,101523.88,24,,73.67,2.57,230,,,,,,,,,,,,152,,,,10,,METAR KMKE 061520Z AUTO 23005KT 10SM SCT015 24/19 A2998,,,,,,,,,,SW,,,scattered,,,,18.99,98901.38,101429.12
KMKE,08/06/2021 15:25 UTC,101523.88,24,,73.67,3.09,260,,,,,,,,,,,,156,,,,8,,METAR KMKE 061525Z AUTO 26006KT 8SM FEW015 24/19 A2998,,,,,,,,,,W,,,thin scattered,,,,18.99,98901.38,101429.12
KMKE,08/06/2021 15:30 UTC,101490.02,24,,73.67,3.09,230,,,,,,,,,,,,156,,,,8,,METAR KMKE 061530Z AUTO 23006KT 8SM FEW015 24/19 A2997,,,,,,,,,,SW,,,thin scattered,,,,18.99,98868.4,101395.3
KMKE,08/06/2021 15:35 UTC,101490.02,25,,69.4,4.63,240,,,,,,,,,,,,156,,,,10,,METAR KMKE 061535Z AUTO 24009KT 10SM FEW015 25/19 A2997,,,,,,,,,,WSW,,,thin scattered,,,,19,98868.4,101386.74
KMKE,08/06/2021 15:40 UTC,101490.02,24,,73.67,4.12,240,,,,,,,,,,,,176,,,,10,,METAR KMKE 061540Z AUTO 24008KT 10SM FEW017 24/19 A2997,,,,,,,,,,WSW,,,thin scattered,,,,18.99,98868.4,101395.3
KMKE,08/06/2021 15:45 UTC,101490.02,25,,69.4,4.63,250,,,,,,,,,,,,206,,,,10,,METAR KMKE 061545Z AUTO 25009KT 10SM FEW020 25/19 A2997,,,,,,,,,,WSW,,,thin scattered,,,,19,98868.4,101386.74
KMKE,08/06/2021 15:50 UTC,101490.02,25,,69.4,4.12,240,,,,,,,,,,,,206,,,,10,,METAR KMKE 061550Z AUTO 24008KT 10SM FEW020 25/19 A2997,,,,,,,,,,WSW,,,thin scattered,,,,19,98868.4,101386.74
KMKE,08/06/2021 15:52 UTC,101490.02,25,19.4,71.15,4.12,250,,,101440,,,,,,,,,206,2203,,,10,,KMKE 061552Z 25008KT 10SM FEW020 BKN220 25/19 A2997 RMK AO2 SLP144  T02500194,,,,6705.6,,,,,,WSW,,,broken,,,,19.4,98868.4,101386.73
KMKE,08/06/2021 15:55 UTC,101490.02,25,,69.4,3.09,270,,,,,,,,,,,,186,,,,10,,METAR KMKE 061555Z AUTO 27006KT 10SM FEW018 25/19 A2997,,,,,,,,,,W,,,thin scattered,,,,19,98868.4,101386.74
KMKE,08/06/2021 16:00 UTC,101490.02,26,,65.41,3.6,260,,,,,,,,,,,,182,,,,10,,METAR KMKE 061600Z AUTO 26007KT 10SM SCT018 26/19 A2997,,,,,,,,,,W,,,scattered,,,,19,98868.4,101378.23
KMKE,08/06/2021 16:05 UTC,101490.02,26,,65.41,4.12,220,,,,,,,,,,,,182,,,,10,,METAR KMKE 061605Z AUTO 22008KT 10SM SCT018 26/19 A2997,,,,,,,,,,SW,,,scattered,,,,19,98868.4,101378.23
KMKE,08/06/2021 16:10 UTC,101490.02,26,,65.41,3.09,200,,,,,,,,,,,,182,,,,10,,METAR KMKE 061610Z AUTO 20006KT 10SM SCT018 26/19 A2997,,,,,,,,,,SSW,,,scattered,,,,19,98868.4,101378.23
KMKE,08/06/2021 16:15 UTC,101490.02,26,,69.6,3.6,240,,,,,,,,,,,,182,,,,10,,METAR KMKE 061615Z AUTO 24007KT 10SM SCT018 26/20 A2997,,,,,,,,,,WSW,,,scattered,,,,20,98868.4,101378.22
KMKE,08/06/2021 16:20 UTC,101490.02,26,,69.6,2.57,220,,,,,,,,,,,,182,,,,10,,METAR KMKE 061620Z AUTO 22005KT 10SM SCT018 26/20 A2997,,,,,,,,,,SW,,,scattered,,,,20,98868.4,101378.22
KMKE,08/06/2021 16:25 UTC,101490.02,27,,65.62,2.57,210,,,,,,,,,,,,182,,,,10,,METAR KMKE 061625Z AUTO 21005KT 10SM SCT018 27/20 A2997,,,,,,,,,,SSW,28.5,,scattered,,,,20.01,98868.4,101369.77
KMKE,08/06/2021 16:30 UTC,101490.02,26,,69.6,3.09,180,,,,,,,,,,,,182,,,,10,,METAR KMKE 061630Z AUTO 18006KT 10SM SCT018 26/20 A2997,,,,,,,,,,S,,,scattered,,,,20,98868.4,101378.22
KMKE,08/06/2021 16:35 UTC,101490.02,26,,69.6,3.09,230,,,,,,,,,,,,202,,,,10,,METAR KMKE 061635Z AUTO 23006KT 10SM SCT020 26/20 A2997,,,,,,,,,,SW,,,scattered,,,,20,98868.4,101378.22
KMKE,08/06/2021 16:40 UTC,101456.16,26,,69.6,3.6,190,,,,,,,,,,,,206,,,,10,,METAR KMKE 061640Z AUTO 19007KT 10SM FEW020 26/20 A2996,,,,,,,,,,S,,,thin scattered,,,,20,98835.41,101344.39
KMKE,08/06/2021 16:45 UTC,101456.16,27,,65.62,3.6,210,,,,,,,,,,,,206,,,,10,,METAR KMKE 061645Z AUTO 21007KT 10SM FEW020 27/20 A2996,,,,,,,,,,SSW,28.5,,thin scattered,,,,20.01,98835.41,101335.94
KMKE,08/06/2021 16:50 UTC,101456.16,26,,69.6,2.06,170,,,,,,,,,,,,206,,,,10,,METAR KMKE 061650Z AUTO 17004KT 10SM FEW020 26/20 A2996,,,,,,,,,,S,,,thin scattered,,,,20,98835.41,101344.39
KMKE,08/06/2021 16:52 UTC,101456.16,26.1,20,69.19,3.09,,,,101400,,,,,,,,,206,2503,,,10,,KMKE 061652Z VRB06KT 10SM FEW020 BKN250 26/20 A2996 RMK AO2 SLP140  T02610200,,,,7620,,,,,,,,,broken,,,,20,98835.41,101343.54
KMKE,08/06/2021 16:55 UTC,101456.16,27,,69.79,2.57,190,,,,,,,,,,,,206,,,,10,,METAR KMKE 061655Z AUTO 19005KT 10SM FEW020 27/21 A2996,,,,,,,,,,S,28.84,,thin scattered,,,,21.01,98835.41,101335.92
KMKE,08/06/2021 17:00 UTC,101456.16,27,,65.62,3.6,180,,,,,,,,,,,,1,,,,10,,METAR KMKE 061700Z AUTO 18007KT 10SM CLR 27/20 A2996,,,,,,,,,,S,28.5,,clear,,,,20.01,98835.41,101335.94
KMKE,08/06/2021 17:05 UTC,101456.16,28,,65.83,5.14,200,,,,,,,,,,,,1,,,,10,,METAR KMKE 061705Z AUTO 20010KT 10SM CLR 28/21 A2996,,,,,,,,,,SSW,30.13,,clear,,,,21.01,98835.41,101327.54
KMKE,08/06/2021 17:10 UTC,101456.16,28,,65.83,3.6,220,,,,,,,,,,,,1,,,,10,,METAR KMKE 061710Z AUTO 22007KT 10SM CLR 28/21 A2996,,,,,,,,,,SW,30.13,,clear,,,,21.01,98835.41,101327.54
KMKE,08/06/2021 17:15 UTC,101422.29,28,,65.83,3.6,170,,,,,,,,,,,,236,,,,10,,METAR KMKE 061715Z AUTO 17007KT 10SM FEW023 28/21 A2995,,,,,,,,,,S,30.13,,thin scattered,,,,21.01,98802.42,101293.72
KMKE,08/06/2021 17:20 UTC,101456.16,28,,65.83,4.12,200,,,,,,,,,,,,232,,,,10,,METAR KMKE 061720Z AUTO 20008KT 10SM SCT023 28/21 A2996,,,,,,,,,,SSW,30.13,,scattered,,,,21.01,98835.41,101327.54
KMKE,08/06/2021 17:25 UTC,101456.16,28,,65.83,5.14,210,,,,,,,,,,,,232,,,,10,,METAR KMKE 061725Z AUTO 21010KT 10SM SCT023 28/21 A2996,,,,,,,,,,SSW,30.13,,scattered,,,,21.01,98835.41,101327.54
KMKE,08/06/2021 17:30 UTC,101422.29,28,,65.83,5.66,190,,,,,,,,,,,,252,312,,,10,,METAR KMKE 061730Z AUTO 19011KT 10SM SCT025 SCT031 28/21 A2995,,,,,,,,,,S,30.13,,scattered,,,,21.01,98802.42,101293.72
KMKE,08/06/2021 17:35 UTC,101422.29,28,,61.9,4.63,220,,,,,,,,,,,,252,312,,,10,,METAR KMKE 061735Z AUTO 22009KT 10SM SCT025 SCT031 28/20 A2995,,,,,,,,,,SW,29.66,,scattered,,,,20.02,98802.42,101293.74
KMKE,08/06/2021 17:40 UTC,101422.29,28,,61.9,3.6,200,,,,,,,,,,,,256,,,,10,,METAR KMKE 061740Z AUTO 20007KT 10SM FEW025 28/20 A2995,,,,,,,,,,SSW,29.66,,thin scattered,,,,20.02,98802.42,101293.74
KMKE,08/06/2021 17:45 UTC,101422.29,28,,61.9,4.12,210,,,,,,,,,,,,256,,,,10,,METAR KMKE 061745Z AUTO 21008KT 10SM FEW025 28/20 A2995,,,,,,,,,,SSW,29.66,,thin scattered,,,,20.02,98802.42,101293.74
KMKE,08/06/2021 17:50 UTC,101422.29,29,,62.13,4.63,200,,,,,,,,,,,,252,,,,10,,METAR KMKE 061750Z AUTO 20009KT 10SM SCT025 29/21 A2995,,,,,,,,,,SSW,31.37,,scattered,,,,21.02,98802.42,101285.39
KMKE,08/06/2021 17:52 UTC,101422.29,28.3,20.6,63.13,4.12,200,,,101340,,,,,,8009,,,252,2503,,,10,,KMKE 061752Z 20008KT 10SM SCT025 BKN250 28/21 A2995 RMK AO2 SLP134  T02830206 10289 20206 58009,28.9,20.6,,7620,,,,,,SSW,30.3,,broken,,,,20.62,98802.42,101291.22
KMKE,08/06/2021 17:55 UTC,101388.43,29,,62.13,3.6,200,,,,,,,,,,,,272,333,,,10,,METAR KMKE 061755Z AUTO 20007KT 10SM SCT027 BKN033 29/21 A2994,,,,1005.84,,,,,,SSW,31.37,,broken,,,,21.02,98769.43,101251.57
KMKE,08/06/2021 18:00 UTC,101388.43,29,,62.13,6.17,210,,,,,,,,,,,,292,,,,10,,METAR KMKE 061800Z AUTO 21012KT 10SM SCT029 29/21 A2994,,,,,,,,,,SSW,31.37,,scattered,,,,21.02,98769.43,101251.57
KMKE,08/06/2021 18:05 UTC,101388.43,29,,62.13,6.17,210,,,,,,,,,,,,303,,,,10,,METAR KMKE 061805Z AUTO 21012KT 10SM BKN030 29/21 A2994,,,,914.4,,,,,,SSW,31.37,,broken,,,,21.02,98769.43,101251.57
KMKE,08/06/2021 18:10 UTC,101388.43,29,,62.13,4.12,210,,,,,,,,,,,,303,,,,10,,METAR KMKE 061810Z AUTO 21008KT 10SM BKN030 29/21 A2994,,,,914.4,,,,,,SSW,31.37,,broken,,,,21.02,98769.43,101251.57
KMKE,08/06/2021 18:15 UTC,101388.43,29,,62.13,5.14,180,,,,,,,,,,,,303,,,,10,,METAR KMKE 061815Z AUTO 18010KT 10SM BKN030 29/21 A2994,,,,914.4,,,,,,S,31.37,,broken,,,,21.02,98769.43,101251.57
KMKE,08/06/2021 18:20 UTC,101388.43,29,,62.13,5.14,200,,,,,,,,,,,,303,,,,10,,METAR KMKE 061820Z AUTO 20010KT 10SM BKN030 29/21 A2994,,,,914.4,,,,,,SSW,31.37,,broken,,,,21.02,98769.43,101251.57
KMKE,08/06/2021 18:25 UTC,101388.43,29,,62.13,5.66,210,,,,,,,,,,,,302,413,,,10,,METAR KMKE 061825Z AUTO 21011KT 10SM SCT030 BKN041 29/21 A2994,,,,1249.68,,,,,,SSW,31.37,,broken,,,,21.02,98769.43,101251.57
KMKE,08/06/2021 18:30 UTC,101388.43,29,,62.13,5.66,220,,,,,,,,,,,,302,403,,,10,,METAR KMKE 061830Z AUTO 22011KT 10SM SCT030 BKN040 29/21 A2994,,,,1219.2,,,,,,SW,31.37,,broken,,,,21.02,98769.43,101251.57
KMKE,08/06/2021 18:35 UTC,101388.43,30,,58.66,5.66,210,9.26,,,,,,,,,,,353,443,,,10,,METAR KMKE 061835Z AUTO 21011G18KT 10SM BKN035 BKN044 30/21 A2994,,,,1066.8,,,,,,SSW,32.57,,broken,,,,21.03,98769.43,101243.3
KMKE,08/06/2021 18:40 UTC,101388.43,30,,58.66,5.66,210,,,,,,,,,,,,336,412,,,10,,METAR KMKE 061840Z AUTO 21011KT 10SM FEW033 SCT041 30/21 A2994,,,,,,,,,,SSW,32.57,,scattered,,,,21.03,98769.43,101243.3
KMKE,08/06/2021 18:45 UTC,101354.56,29,,62.13,5.66,220,,,,,,,,,,,,396,,,,10,,METAR KMKE 061845Z AUTO 22011KT 10SM FEW039 29/21 A2993,,,,,,,,,,SW,31.37,,thin scattered,,,,21.02,98736.44,101217.75
KMKE,08/06/2021 18:50 UTC,101354.56,30,,55.15,6.17,210,,,,,,,,,,,,376,,,,10,,METAR KMKE 061850Z AUTO 21012KT 10SM FEW037 30/20 A2993,,,,,,,,,,SSW,31.91,,thin scattered,,,,20.04,98736.44,101209.5
KMKE,08/06/2021 18:52 UTC,101354.56,30,20,55.15,4.63,220,8.75,,101290,,,,,,,,,302,2503,,,10,,KMKE 061852Z 22009G17KT 10SM SCT030 BKN250 30/20 A2993 RMK AO2  SLP129 T03000200,,,,7620,,,,,,SW,31.91,,broken,,,,20.04,98736.44,101209.5
KMKE,08/06/2021 18:55 UTC,101354.56,30,,55.15,5.66,210,,,,,,,,,,,,376,,,,10,,METAR KMKE 061855Z AUTO 21011KT 10SM FEW037 30/20 A2993,,,,,,,,,,SSW,31.91,,thin scattered,,,,20.04,98736.44,101209.5
KMKE,08/06/2021 19:00 UTC,101354.56,30,,55.15,6.17,210,,,,,,,,,,,,1,,,,10,,METAR KMKE 061900Z AUTO 21012KT 10SM CLR 30/20 A2993,,,,,,,,,,SSW,31.91,,clear,,,,20.04,98736.44,101209.5
KMKE,08/06/2021 19:05 UTC,101354.56,30,,55.15,6.69,230,,,,,,,,,,,,386,,,,10,,METAR KMKE 061905Z AUTO 23013KT 10SM FEW038 30/20 A2993,,,,,,,,,,SW,31.91,,thin scattered,,,,20.04,98736.44,101209.5
KMKE,08/06/2021 19:10 UTC,101354.56,31,,52.09,5.14,220,,,,,,,,,,,,382,,,,10,,METAR KMKE 061910Z AUTO 22010KT 10SM SCT038 31/20 A2993,,,,,,,,,,SW,33.04,,scattered,,,,20.05,98736.44,101201.29
KMKE,08/06/2021 19:15 UTC,101354.56,30,,55.15,5.66,220,,,,,,,,,,,,362,,,,10,,METAR KMKE 061915Z AUTO 22011KT 10SM SCT036 30/20 A2993,,,,,,,,,,SW,31.91,,scattered,,,,20.04,98736.44,101209.5
KMKE,08/06/2021 19:20 UTC,101354.56,30,,55.15,6.69,230,,,,,,,,,,,,382,,,,10,,METAR KMKE 061920Z AUTO 23013KT 10SM SCT038 30/20 A2993,,,,,,,,,,SW,31.91,,scattered,,,,20.04,98736.44,101209.5
KMKE,08/06/2021 19:25 UTC,101354.56,31,,52.09,6.69,220,,,,,,,,,,,,383,,,,10,,METAR KMKE 061925Z AUTO 22013KT 10SM BKN038 31/20 A2993,,,,1158.24,,,,,,SW,33.04,,broken,,,,20.05,98736.44,101201.29
KMKE,08/06/2021 19:30 UTC,101354.56,30,,55.15,5.14,220,,,,,,,,,,,,363,,,,10,,METAR KMKE 061930Z AUTO 22010KT 10SM BKN036 30/20 A2993,,,,1097.28,,,,,,SW,31.91,,broken,,,,20.04,98736.44,101209.5
KMKE,08/06/2021 19:35 UTC,101320.7,30,,55.15,7.2,210,,,,,,,,,,,,363,,,,10,,METAR KMKE 061935Z AUTO 21014KT 10SM BKN036 30/20 A2992,,,,1097.28,,,,,,SSW,31.91,,broken,,,,20.04,98703.45,101175.69
KMKE,08/06/2021 19:40 UTC,101320.7,31,,48.96,4.63,220,7.72,,,,,,,,,,,372,,,,10,,METAR KMKE 061940Z AUTO 22009G15KT 10SM SCT037 31/19 A2992,,,,,,,,,,SW,32.42,,scattered,,,,19.05,98703.45,101167.49
KMKE,08/06/2021 19:45 UTC,101354.56,30,,51.84,6.69,200,,,,,,,,,,,,373,,,,10,,METAR KMKE 061945Z AUTO 20013KT 10SM BKN037 30/19 A2993,,,,1127.76,,,,,,SSW,31.35,,broken,,,,19.04,98736.44,101209.52
KMKE,08/06/2021 19:50 UTC,101354.56,31,,48.96,5.14,240,,,,,,,,,,,,373,,,,10,,METAR KMKE 061950Z AUTO 24010KT 10SM BKN037 31/19 A2993,,,,1127.76,,,,,,WSW,32.42,,broken,,,,19.05,98736.44,101201.31
KMKE,08/06/2021 19:52 UTC,101320.7,30,19.4,53.14,5.14,220,9.26,,101270,,,,,,,,,373,2503,,,10,,KMKE 061952Z 22010G18KT 10SM BKN037 BKN250 30/19 A2992 RMK AO2 LTG  DSNT N SLP127 T03000194,,,,1127.76,,,,,,SW,31.56,,broken,,,,19.44,98703.45,101175.7
KMKE,08/06/2021 19:55 UTC,101354.56,30,,51.84,5.66,220,8.23,,,,,,,,,,,392,502,,,10,,METAR KMKE 061955Z AUTO 22011G16KT 10SM SCT039 SCT050 30/19 A2993,,,,,,,,,,SW,31.35,,scattered,,,,19.04,98736.44,101209.52
KMKE,08/06/2021 20:00 UTC,101354.56,30,,51.84,5.66,220,,,,,,,,,,,,392,502,,,10,,METAR KMKE 062000Z AUTO 22011KT 10SM SCT039 SCT050 30/19 A2993,,,,,,,,,,SW,31.35,,scattered,,,,19.04,98736.44,101209.52
KMKE,08/06/2021 20:05 UTC,101354.56,30,,51.84,6.17,210,,,,,,,,,,,,413,493,,,10,,METAR KMKE 062005Z AUTO 21012KT 10SM BKN041 BKN049 30/19 A2993,,,,1249.68,,,,,,SSW,31.35,,broken,,,,19.04,98736.44,101209.52
KMKE,08/06/2021 20:10 UTC,101354.56,31,,48.96,6.17,200,,,,,,,,,,,,413,503,,,10,,METAR KMKE 062010Z AUTO 20012KT 10SM BKN041 BKN050 31/19 A2993,,,,1249.68,,,,,,SSW,32.42,,broken,,,,19.05,98736.44,101201.31
KMKE,08/06/2021 20:15 UTC,101320.7,31,,48.96,6.17,220,,,,,,,,,,,,413,503,,,10,,METAR KMKE 062015Z AUTO 22012KT 10SM BKN041 BKN050 31/19 A2992,,,,1249.68,,,,,,SW,32.42,,broken,,,,19.05,98703.45,101167.49
KMKE,08/06/2021 20:20 UTC,101320.7,30,,51.84,6.17,190,,,,,,,,,,,,413,503,,,10,,METAR KMKE 062020Z AUTO 19012KT 10SM BKN041 BKN050 30/19 A2992,,,,1249.68,,,,,,S,31.35,,broken,,,,19.04,98703.45,101175.7
KMKE,08/06/2021 20:25 UTC,101320.7,30,,51.84,6.17,230,9.26,,,,,,,,,,,413,,,,10,,METAR KMKE 062025Z AUTO 23012G18KT 10SM BKN041 30/19 A2992,,,,1249.68,,,,,,SW,31.35,,broken,,,,19.04,98703.45,101175.7
KMKE,08/06/2021 20:30 UTC,101320.7,31,,48.96,6.69,230,,,,,,,,,,,,413,483,,,10,,METAR KMKE 062030Z AUTO 23013KT 10SM BKN041 BKN048 31/19 A2992,,,,1249.68,,,,,,SW,32.42,,broken,,,,19.05,98703.45,101167.49
KMKE,08/06/2021 20:35 UTC,101320.7,31,,48.96,5.66,230,8.23,,,,,,,,,,,402,493,,,10,,METAR KMKE 062035Z AUTO 23011G16KT 10SM SCT040 BKN049 31/19 A2992,,,,1493.52,,,,,,SW,32.42,,broken,,,,19.05,98703.45,101167.49
KMKE,08/06/2021 20:40 UTC,101320.7,31,,48.96,5.66,200,,,,,,,,,,,,402,493,,,10,,METAR KMKE 062040Z AUTO 20011KT 10SM SCT040 BKN049 31/19 A2992,,,,1493.52,,,,,,SSW,32.42,,broken,,,,19.05,98703.45,101167.49
KMKE,08/06/2021 20:45 UTC,101286.84,31,,52.09,6.69,230,,,,,,,,,,,,402,493,,,10,,METAR KMKE 062045Z AUTO 23013KT 10SM SCT040 BKN049 31/20 A2991,,,,1493.52,,,,,,SW,33.04,,broken,,,,20.05,98670.47,101133.66
KMKE,08/06/2021 20:50 UTC,101286.84,31,,48.96,6.17,210,,,,,,,,,,,,406,502,,,10,,METAR KMKE 062050Z AUTO 21012KT 10SM FEW040 SCT050 31/19 A2991,,,,,,,,,,SSW,32.42,,scattered,,,,19.05,98670.47,101133.68
KMKE,08/06/2021 20:52 UTC,101286.84,30.6,19.4,51.35,5.14,210,,,101220,,2503,,,,8012,,,402,503,,,10,,KMKE 062052Z 21010KT 10SM SCT040 BKN050 BKN250 31/19 A2991 RMK AO2  SLP122 T03060194 58012,,,,1524,,,,,,SSW,32.22,,broken,,,,19.45,98670.47,101136.95
KMKE,08/06/2021 20:55 UTC,101286.84,31,,52.09,6.17,210,,,,,,,,,,,,406,502,,,10,,METAR KMKE 062055Z AUTO 21012KT 10SM FEW040 SCT050 31/20 A2991,,,,,,,,,,SSW,33.04,,scattered,,,,20.05,98670.47,101133.66
KMKE,08/06/2021 21:00 UTC,101286.84,31,,52.09,6.17,220,,,,,,,,,,,,386,502,,,10,,METAR KMKE 062100Z AUTO 22012KT 10SM FEW038 SCT050 31/20 A2991,,,,,,,,,,SW,33.04,,scattered,,,,20.05,98670.47,101133.66
KMKE,08/06/2021 21:05 UTC,101286.84,31,,52.09,6.17,220,,,,,,,,,,,,386,502,,,10,,METAR KMKE 062105Z AUTO 22012KT 10SM FEW038 SCT050 31/20 A2991,,,,,,,,,,SW,33.04,,scattered,,,,20.05,98670.47,101133.66
KMKE,08/06/2021 21:10 UTC,101252.97,31,,52.09,5.14,210,8.23,,,,,,,,,,,366,,,,10,,METAR KMKE 062110Z AUTO 21010G16KT 10SM FEW036 31/20 A2990,,,,,,,,,,SSW,33.04,,thin scattered,,,,20.05,98637.47,101099.85
KMKE,08/06/2021 21:15 UTC,101252.97,30,,55.15,5.66,210,,,,,,,,,,,,366,,,,10,,METAR KMKE 062115Z AUTO 21011KT 10SM FEW036 30/20 A2990,,,,,,,,,,SSW,31.91,,thin scattered,,,,20.04,98637.47,101108.05
KMKE,08/06/2021 21:20 UTC,101252.97,31,,52.09,5.66,210,8.23,,,,,,,,,,,366,,,,10,,METAR KMKE 062120Z AUTO 21011G16KT 10SM FEW036 31/20 A2990,,,,,,,,,,SSW,33.04,,thin scattered,,,,20.05,98637.47,101099.85
KMKE,08/06/2021 21:25 UTC,101252.97,30,,55.15,6.69,220,,,,,,,,,,,,366,,,,10,,METAR KMKE 062125Z AUTO 22013KT 10SM FEW036 30/20 A2990,,,,,,,,,,SW,31.91,,thin scattered,,,,20.04,98637.47,101108.05
KMKE,08/06/2021 21:30 UTC,101252.97,29,,58.42,6.69,230,,,,,,,,,,,,366,,,,10,,METAR KMKE 062130Z AUTO 23013KT 10SM FEW036 29/20 A2990,,,,,,,,,,SW,30.8,,thin scattered,,,,20.03,98637.47,101116.31
KMKE,08/06/2021 21:35 UTC,101219.11,30,,55.15,5.66,210,,,,,,,,,,,,366,,,,10,,METAR KMKE 062135Z AUTO 21011KT 10SM FEW036 30/20 A2989,,,,,,,,,,SSW,31.91,,thin scattered,,,,20.04,98604.49,101074.24
KMKE,08/06/2021 21:40 UTC,101219.11,29,,58.42,6.69,210,,,,,,,,,,,,366,,,,10,,METAR KMKE 062140Z AUTO 21013KT 10SM FEW036 29/20 A2989,,,,,,,,,,SSW,30.8,,thin scattered,,,,20.03,98604.49,101082.49
KMKE,08/06/2021 21:45 UTC,101219.11,30,,55.15,7.72,220,,,,,,,,,,,,362,,,,10,,METAR KMKE 062145Z AUTO 22015KT 10SM SCT036 30/20 A2989,,,,,,,,,,SW,31.91,,scattered,,,,20.04,98604.49,101074.24
KMKE,08/06/2021 21:50 UTC,101185.24,30,,55.15,7.72,210,,,,,,,,,,,,362,,,,10,,METAR KMKE 062150Z AUTO 21015KT 10SM SCT036 30/20 A2988,,,,,,,,,,SSW,31.91,,scattered,,,,20.04,98571.49,101040.42
KMKE,08/06/2021 21:52 UTC,101185.24,30,20,55.15,7.2,210,10.8,,101140,,2503,,,,,,,362,502,,,10,,KMKE 062152Z 21014G21KT 10SM SCT036 SCT050 BKN250 30/20 A2988 RMK AO2 SLP114 T03000200,,,,7620,,,,,,SSW,31.91,,broken,,,,20.04,98571.49,101040.42
KMKE,08/06/2021 21:55 UTC,101185.24,30,,55.15,7.2,220,,,,,,,,,,,,366,,,,10,,METAR KMKE 062155Z AUTO 22014KT 10SM FEW036 30/20 A2988,,,,,,,,,,SW,31.91,,thin scattered,,,,20.04,98571.49,101040.42
KMKE,08/06/2021 22:00 UTC,101219.11,30,,55.15,7.2,210,,,,,,,,,,,,366,,,,10,,METAR KMKE 062200Z AUTO 21014KT 10SM FEW036 30/20 A2989,,,,,,,,,,SSW,31.91,,thin scattered,,,,20.04,98604.49,101074.24
KMKE,08/06/2021 22:05 UTC,101219.11,30,,51.84,7.2,220,,,,,,,,,,,,382,,,,10,,METAR KMKE 062205Z AUTO 22014KT 10SM SCT038 30/19 A2989,,,,,,,,,,SW,31.35,,scattered,,,,19.04,98604.49,101074.25
KMKE,08/06/2021 22:10 UTC,101252.97,30,,51.84,6.69,240,,,,,,,,,,,,382,,,,10,,METAR KMKE 062210Z AUTO 24013KT 10SM SCT038 30/19 A2990,,,,,,,,,,WSW,31.35,,scattered,,,,19.04,98637.47,101108.07
KMKE,08/06/2021 22:15 UTC,101252.97,30,,51.84,6.17,230,9.26,,,,,,,,,,,372,,,,10,,METAR KMKE 062215Z AUTO 23012G18KT 10SM SCT037 30/19 A2990,,,,,,,,,,SW,31.35,,scattered,,,,19.04,98637.47,101108.07
KMKE,08/06/2021 22:20 UTC,101252.97,30,,55.15,6.69,220,,,,,,,,,,,,373,,,,10,,METAR KMKE 062220Z AUTO 22013KT 10SM BKN037 30/20 A2990,,,,1127.76,,,,,,SW,31.91,,broken,,,,20.04,98637.47,101108.05
KMKE,08/06/2021 22:25 UTC,101252.97,29,,58.42,6.69,200,9.26,,,,,,,,,,,383,,,,10,,METAR KMKE 062225Z AUTO 20013G18KT 10SM BKN038 29/20 A2990,,,,1158.24,,,,,,SSW,30.8,,broken,,,,20.03,98637.47,101116.31
KMKE,08/06/2021 22:30 UTC,101252.97,30,,55.15,5.66,200,,,,,,,,,,,,383,,,,10,,METAR KMKE 062230Z AUTO 20011KT 10SM BKN038 30/20 A2990,,,,1158.24,,,,,,SSW,31.91,,broken,,,,20.04,98637.47,101108.05
KMKE,08/06/2021 22:35 UTC,101252.97,29,,58.42,7.2,220,,,,,,,,,,,,382,,,,10,,METAR KMKE 062235Z AUTO 22014KT 10SM SCT038 29/20 A2990,,,,,,,,,,SW,30.8,,scattered,,,,20.03,98637.47,101116.31
KMKE,08/06/2021 22:40 UTC,101252.97,29,,54.9,6.69,220,,,,,,,,,,,,382,,,,10,,METAR KMKE 062240Z AUTO 22013KT 10SM SCT038 29/19 A2990,,,,,,,,,,SW,30.29,,scattered,,,,19.03,98637.47,101116.33
KMKE,08/06/2021 22:45 UTC,101286.84,29,,54.9,6.69,210,,,,,,,,,,,,386,,,,10,,METAR KMKE 062245Z AUTO 21013KT 10SM FEW038 29/19 A2991,,,,,,,,,,SSW,30.29,,thin scattered,,,,19.03,98670.47,101150.15
KMKE,08/06/2021 22:50 UTC,101286.84,29,,54.9,4.63,190,,,,,,,,,,,,386,502,,,10,,METAR KMKE 062250Z AUTO 19009KT 10SM FEW038 SCT050 29/19 A2991,,,,,,,,,,S,30.29,,scattered,,,,19.03,98670.47,101150.15
KMKE,08/06/2021 22:52 UTC,101286.84,28.9,18.9,54.88,5.14,200,,,101240,,1502,,,,,,,386,506,,,10,,KMKE 062252Z 20010KT 10SM FEW038 FEW050 SCT150 BKN250 29/19 A2991 RMK AO2 LTG DSNT N AND NW SLP124 T02890189,,,,,,,,,,SSW,30.14,,scattered,,,,18.93,98670.47,101150.98
KMKE,08/06/2021 22:55 UTC,101286.84,29,,54.9,5.14,220,,,,,,,,,,,,1,,,,10,,METAR KMKE 062255Z AUTO 22010KT 10SM CLR 29/19 A2991,,,,,,,,,,SW,30.29,,clear,,,,19.03,98670.47,101150.15
KMKE,08/06/2021 23:00 UTC,101286.84,29,,54.9,6.69,230,,,,,,,,,,,,1,,,,10,,METAR KMKE 062300Z AUTO 23013KT 10SM CLR 29/19 A2991,,,,,,,,,,SW,30.29,,clear,,,,19.03,98670.47,101150.15
KMKE,08/06/2021 23:05 UTC,101286.84,28,,58.18,6.17,220,,,,,,,,,,,,386,,,,10,,METAR KMKE 062305Z AUTO 22012KT 10SM FEW038 28/19 A2991,,,,,,,,,,SW,29.25,,thin scattered,,,,19.02,98670.47,101158.47
KMKE,08/06/2021 23:10 UTC,101286.84,28,,58.18,5.14,220,,,,,,,,,,,,386,,,,10,,METAR KMKE 062310Z AUTO 22010KT 10SM FEW038 28/19 A2991,,,,,,,,,,SW,29.25,,thin scattered,,,,19.02,98670.47,101158.47
KMKE,08/06/2021 23:15 UTC,101320.7,28,,58.18,5.14,220,,,,,,,,,,,,386,,,,10,,METAR KMKE 062315Z AUTO 22010KT 10SM FEW038 28/19 A2992,,,,,,,,,,SW,29.25,,thin scattered,,,,19.02,98703.45,101192.29
KMKE,08/06/2021 23:20 UTC,101320.7,28,,58.18,5.14,230,,,,,,,,,,,,386,,,,10,,METAR KMKE 062320Z AUTO 23010KT 10SM FEW038 28/19 A2992,,,,,,,,,,SW,29.25,,thin scattered,,,,19.02,98703.45,101192.29
KMKE,08/06/2021 23:25 UTC,101354.56,28,,58.18,4.63,220,,,,,,,,,,,,386,,,,10,,METAR KMKE 062325Z AUTO 22009KT 10SM FEW038 28/19 A2993,,,,,,,,,,SW,29.25,,thin scattered,,,,19.02,98736.44,101226.11
KMKE,08/06/2021 23:30 UTC,101354.56,28,,58.18,2.57,230,,,,,,,,,,,,386,,,,10,,METAR KMKE 062330Z AUTO 23005KT 10SM FEW038 28/19 A2993,,,,,,,,,,SW,29.25,,thin scattered,,,,19.02,98736.44,101226.11
KMKE,08/06/2021 23:35 UTC,101422.29,28,,58.18,,,,,,,,,,,,,,386,,,,10,,METAR KMKE 062335Z AUTO 10SM FEW038 28/19 A2995,,,,,,,,,,,29.25,,thin scattered,,,,19.02,98802.42,101293.75
KMKE,08/06/2021 23:40 UTC,101422.29,23,,64.76,9.26,20,13.89,,,,,,,,,,,386,,,,10,,METAR KMKE 062340Z AUTO 02018G27KT 10SM FEW038 23/16 A2995,,,,,,,,,,NNE,,,thin scattered,,,,15.99,98802.42,101336.3
KMKE,08/06/2021 23:45 UTC,101422.29,22,,68.81,10.8,40,13.89,,,,,,,,,,,383,,,,10,,METAR KMKE 062345Z AUTO 04021G27KT 10SM BKN038 22/16 A2995,,,,1158.24,,,,,,NE,,,broken,,,,15.98,98802.42,101344.97
KMKE,08/06/2021 23:50 UTC,101490.02,22,,68.81,11.32,30,16.98,,,,,,,,,,,206,363,,,10,,METAR KMKE 062350Z AUTO 03022G33KT 10SM FEW020 BKN036 22/16 A2997,,,,1097.28,,,,,,NNE,,,broken,,,,15.98,98868.4,101412.65
KMKE,08/06/2021 23:52 UTC,101456.16,21.7,16.1,70.53,12.86,20,17.49,,101440,,2504,,,,3019,,,206,363,,,10,,KMKE 062352Z 02025G34KT 10SM FEW020 BKN036 OVC250 22/16 A2996 RMK AO2 PK WND 02034/2350 LTG DSNT W-NE SLP144 T02170161 10311  20217 53019,31.1,21.7,17.49,1097.28,,,,20,,NNE,,,overcast,,,,16.08,98835.41,101381.42
KMKE,08/06/2021 23:55 UTC,101456.16,21,,73.15,9.77,20,13.38,,,,,,,,,,,363,,,,10,,METAR KMKE 062355Z AUTO 02019G26KT 10SM BKN036 21/16 A2996,,,,1097.28,,,,,,NNE,,,broken,,,,15.98,98835.41,101387.55
KMKE,08/07/2021 00:00 UTC,101456.16,21,,77.94,8.23,40,,,,,,,,,,,,364,,,,10,,METAR KMKE 070000Z AUTO 04016KT 10SM OVC036 21/17 A2996,,,,1097.28,,,,,,NE,,,overcast,,,,16.98,98835.41,101387.53
KMKE,08/07/2021 00:02 UTC,101456.16,20.6,17.2,80.9,6.69,30,15.43,,,5,2504,,,,,,,206,363,,,10,,KMKE 070002Z 03013G30KT 10SM TS FEW020 BKN036CB OVC250 21/17 A2996 RMK AO2 PK WND 04030/2356 LTG DSNT W-NE TSB02 OCNL LTGCGIC  NW-NE TS NW-NE MOV E T02060172,,,15.43,1097.28,,,,40,,NNE,,thunder,thunder,,,,17.19,98835.41,101391.04
KMKE,08/07/2021 00:05 UTC,101456.16,21,,77.94,5.66,30,,,,,,,,,,,,206,383,,,10,,METAR KMKE 070005Z AUTO 03011KT 10SM FEW020 BKN038 21/17 A2996,,,,1158.24,,,,,,NNE,,,broken,,,,16.98,98835.41,101387.53
KMKE,08/07/2021 00:10 UTC,101456.16,21,,77.94,5.66,20,,,,,,,,,,,,206,383,,,10,,METAR KMKE 070010Z AUTO 02011KT 10SM FEW020 BKN038 21/17 A2996,,,,1158.24,,,,,,NNE,,,broken,,,,16.98,98835.41,101387.53
KMKE,08/07/2021 00:15 UTC,101490.02,21,,77.94,5.66,360,8.23,,,,,,,,,,,206,383,,,10,,METAR KMKE 070015Z AUTO 36011G16KT 10SM FEW020 BKN038 21/17 A2997,,,,1158.24,,,,,,N,,,broken,,,,16.98,98868.4,101421.37
KMKE,08/07/2021 00:20 UTC,101523.88,21,,77.94,7.2,350,,,,1,,,,,,,,206,383,,,7,,METAR KMKE 070020Z AUTO 35014KT 7SM RA FEW020 BKN038 21/17 A2998,,,,1158.24,,,,,,N,,rain,rain,,,,16.98,98901.38,101455.21
KMKE,08/07/2021 00:25 UTC,101557.75,20,,88.29,9.77,330,12.86,,,2494,,,,,,0.508,,266,414,,,2,,METAR KMKE 070025Z AUTO 33019G25KT 2SM +RA BR FEW026 OVC041 20/18 A2999 RMK P0002,,,,1249.68,,,,,,NNW,,"heavy rain,mist","heavy rain,mist",,,,17.99,98934.38,101497.84
KMKE,08/07/2021 00:26 UTC,101557.75,20,17.8,87.18,9.77,330,14.4,,,2558,,,,,,1.016,,266,414,,,2,,KMKE 070026Z 33019G28KT 2SM R01L/2800VP6000FT +TSRA BR FEW026  OVC041CB 20/18 A2999 RMK AO2 PK WND 04030/2356 WSHFT 0012 LTG  DSNT ALQDS RAB17 TSB02 PRESRR OCNL LTGCGIC NW-NE TS NW-NE MOV  E P0004 T02000178,,,15.43,1249.68,0,,,40,,NNW,,"heavy rain/thunderstorm,mist","heavy rain/thunderstorm,mist",,,,17.79,98934.38,101497.84
KMKE,08/07/2021 00:30 UTC,101557.75,20,,88.29,7.2,310,,,,2494,,,,,,3.81,,266,414,,,2,,METAR KMKE 070030Z AUTO 31014KT 2SM +RA BR FEW026 OVC041 20/18 A2999 RMK P0015,,,,1249.68,,,,,,NW,,"heavy rain,mist","heavy rain,mist",,,,17.99,98934.38,101497.84
KMKE,08/07/2021 00:35 UTC,101523.88,21,,83.01,4.63,330,,,,2494,,,,,,6.35,,266,414,,,2,,METAR KMKE 070035Z AUTO 33009KT 2SM +RA BR FEW026 OVC041 21/18 A2998 RMK P0025,,,,1249.68,,,,,,NNW,,"heavy rain,mist","heavy rain,mist",,,,17.99,98901.38,101455.19
KMKE,08/07/2021 00:40 UTC,101523.88,19,,88.2,4.12,30,,,,2494,,,,,,8.382,,266,414,,,2,,METAR KMKE 070040Z AUTO 03008KT 2SM +RA BR FEW026 OVC041 19/17 A2998 RMK P0033,,,,1249.68,,,,,,NNE,,"heavy rain,mist","heavy rain,mist",,,,16.99,98901.38,101472.87
KMKE,08/07/2021 00:45 UTC,101490.02,19,,88.2,4.12,50,,,,14,,,,,,11.43,,266,414,,,2,,METAR KMKE 070045Z AUTO 05008KT 2SM +RA FEW026 OVC041 19/17 A2997 RMK P0045,,,,1249.68,,,,,,NE,,heavy rain,heavy rain,,,,16.99,98868.4,101439.03
KMKE,08/07/2021 00:50 UTC,101490.02,19,,88.2,5.66,50,,,,2494,,,,,,13.97,,326,414,,,2,,METAR KMKE 070050Z AUTO 05011KT 2SM +RA BR FEW032 OVC041 19/17 A2997 RMK P0055,,,,1249.68,,,,,,NE,,"heavy rain,mist","heavy rain,mist",,,,16.99,98868.4,101439.03
KMKE,08/07/2021 00:52 UTC,101490.02,19.4,17.2,87.13,5.14,50,,,101460,2558,,,,,,14.732,,326,414,,,2,,KMKE 070052Z 05010KT 2SM +TSRA BR FEW032 OVC041CB 19/17 A2997 RMK AO2 PK WND 04030/2356 WSHFT 0012 LTG DSNT ALQDS RAB17 TSB02  SLP146 FRQ LTGCGIC SE-SW-N TS SE-SW-N MOV SE P0058  T01940172,,,15.43,1249.68,,,,40,,NE,,"heavy rain/thunderstorm,mist","heavy rain/thunderstorm,mist",,,,17.19,98868.4,101435.48
KMKE,08/07/2021 00:55 UTC,101523.88,19,,88.2,4.63,50,,,,2481,,,,,,0.762,,443,654,,,2,,METAR KMKE 070055Z AUTO 05009KT 2SM RA BR BKN044 OVC065 19/17 A2998 RMK P0003,,,,1341.12,,,,,,NE,,"rain,mist","rain,mist",,,,16.99,98901.38,101472.87
KMKE,08/07/2021 01:00 UTC,101557.75,20,,82.89,3.09,240,,,,14,654,,,,,,,326,443,,,2,,METAR KMKE 070100Z AUTO 24006KT 2SM +RA FEW032 BKN044 OVC065 20/17 A2999,,,,1341.12,,,,,,WSW,,heavy rain,heavy rain,,,,16.99,98934.38,101497.85