Station_ID,time,altimeter_set_1,air_temp,dew_point_temp,relative_humidity_set_1,wind_speed,wind_direction,wind_gust_set_1,snow_depth_set_1,sea_level_pressure_set_1,weather_cond_code_set_1,cloud_layer_3_code_set_1,cloud_low_symbol_set_1,cloud_mid_symbol_set_1,cloud_high_symbol_set_1,pressure_tendency_set_1,precip_accum_one_hour_set_1,precip_accum_three_hour_set_1,cloud_layer_1_code_set_1,cloud_layer_2_code_set_1,precip_accum_six_hour_set_1,precip_accum_24_hour_set_1,visibility_set_1,metar_remark_set_1,metar_set_1,air_temp_high_6_hour_set_1,air_temp_low_6_hour_set_1,peak_wind_speed_set_1,ceiling_set_1,pressure_change_code_set_1,air_temp_high_24_hour_set_1,air_temp_low_24_hour_set_1,peak_wind_direction_set_1,wind_chill_set_1d,wind_cardinal_direction_set_1d,heat_index_set_1d,weather_condition_set_1d,weather_summary_set_1d,cloud_layer_1_set_1d,cloud_layer_2_set_1d,cloud_layer_3_set_1d,dew_point_temperature_set_1d,pressure,sea_level_pressure_set_1d
KMKE,09/02/2018 13:00 UTC,101794.79,22,,83.13,4.12,190,,,,,,,,,,,,606,,,,10,,METAR KMKE 021300Z AUTO 19008KT 10SM FEW060 22/19 A3006,,,,,,,,,,S,,,thin scattered,,,,18.99,99165.29,101717.13
KMKE,09/02/2018 13:05 UTC,101794.79,22,,88.46,3.6,190,,,,,,,,,,,,606,,,,10,,METAR KMKE 021305Z AUTO 19007KT 10SM FEW060 22/20 A3006,,,,,,,,,,S,,,thin scattered,,,,20,99165.29,101717.11
KMKE,09/02/2018 13:10 UTC,101794.79,22,,88.46,4.12,180,,,,,,,,,,,,606,,,,10,,METAR KMKE 021310Z AUTO 18008KT 10SM FEW060 22/20 A3006,,,,,,,,,,S,,,thin scattered,,,,20,99165.29,101717.11
KMKE,09/02/2018 13:15 UTC,101794.79,23,,83.25,5.14,170,,,,,,,,,,,,606,,,,10,,METAR KMKE 021315Z AUTO 17010KT 10SM FEW060 23/20 A3006,,,,,,,,,,S,,,thin scattered,,,,19.99,99165.29,101708.41
KMKE,09/02/2018 13:20 UTC,101760.93,23,,83.25,4.63,170,,,,,,,,,,,,606,,,,10,,METAR KMKE 021320Z AUTO 17009KT 10SM FEW060 23/20 A3005,,,,,,,,,,S,,,thin scattered,,,,19.99,99132.31,101674.58
KMKE,09/02/2018 13:25 UTC,101794.79,23,,83.25,4.63,180,,,,,,,,,,,,606,,,,10,,METAR KMKE 021325Z AUTO 18009KT 10SM FEW060 23/20 A3006,,,,,,,,,,S,,,thin scattered,,,,19.99,99165.29,101708.41
KMKE,09/02/2018 13:30 UTC,101794.79,23,,83.25,3.6,190,,,,,,,,,,,,606,,,,10,,METAR KMKE 021330Z AUTO 19007KT 10SM FEW060 23/20 A3006,,,,,,,,,,S,,,thin scattered,,,,19.99,99165.29,101708.41
KMKE,09/02/2018 13:35 UTC,101794.79,23,,83.25,3.6,200,,,,,,,,,,,,606,,,,10,,METAR KMKE 021335Z AUTO 20007KT 10SM FEW060 23/20 A3006,,,,,,,,,,SSW,,,thin scattered,,,,19.99,99165.29,101708.41
KMKE,09/02/2018 13:40 UTC,101794.79,23,,78.24,4.12,210,,,,,,,,,,,,606,,,,10,,METAR KMKE 021340Z AUTO 21008KT 10SM FEW060 23/19 A3006,,,,,,,,,,SSW,,,thin scattered,,,,18.99,99165.29,101708.43
KMKE,09/02/2018 13:45 UTC,101794.79,23,,78.24,3.6,190,,,,,,,,,,,,606,,,,10,,METAR KMKE 021345Z AUTO 19007KT 10SM FEW060 23/19 A3006,,,,,,,,,,S,,,thin scattered,,,,18.99,99165.29,101708.43
KMKE,09/02/2018 13:50 UTC,101794.79,24,,78.39,3.6,180,,,,,,,,,,,,302,,,,10,,METAR KMKE 021350Z AUTO 18007KT 10SM SCT030 24/20 A3006,,,,,,,,,,S,,,scattered,,,,20,99165.29,101699.76
KMKE,09/02/2018 13:52 UTC,101794.79,23.9,20.6,81.83,4.12,190,,,101760,,2503,,,,,,,302,2003,,,10,,KMKE 021352Z 19008KT 10SM SCT030 BKN200 BKN250 24/21 A3006 RMK AO2  SLP176 T02390206,,,,6096,,,,,,S,,,broken,,,,20.6,99165.29,101700.61
KMKE,09/02/2018 13:55 UTC,101794.79,24,,78.39,4.12,180,,,,,,,,,,,,306,,,,10,,METAR KMKE 021355Z AUTO 18008KT 10SM FEW030 24/20 A3006,,,,,,,,,,S,,,thin scattered,,,,20,99165.29,101699.76
KMKE,09/02/2018 14:00 UTC,101794.79,24,,78.39,4.63,180,,,,,,,,,,,,1,,,,10,,METAR KMKE 021400Z AUTO 18009KT 10SM CLR 24/20 A3006,,,,,,,,,,S,,,clear,,,,20,99165.29,101699.76
KMKE,09/02/2018 14:05 UTC,101794.79,24,,78.39,5.14,180,,,,,,,,,,,,296,,,,10,,METAR KMKE 021405Z AUTO 18010KT 10SM FEW029 24/20 A3006,,,,,,,,,,S,,,thin scattered,,,,20,99165.29,101699.76
KMKE,09/02/2018 14:10 UTC,101794.79,24,,73.67,5.14,170,,,,,,,,,,,,236,,,,10,,METAR KMKE 021410Z AUTO 17010KT 10SM FEW023 24/19 A3006,,,,,,,,,,S,,,thin scattered,,,,18.99,99165.29,101699.78
KMKE,09/02/2018 14:15 UTC,101794.79,24,,78.39,3.09,180,,,,,,,,,,,,232,,,,10,,METAR KMKE 021415Z AUTO 18006KT 10SM SCT023 24/20 A3006,,,,,,,,,,S,,,scattered,,,,20,99165.29,101699.76
KMKE,09/02/2018 14:20 UTC,101794.79,24,,78.39,4.63,180,,,,,,,,,,,,233,,,,10,,METAR KMKE 021420Z AUTO 18009KT 10SM BKN023 24/20 A3006,,,,701.04,,,,,,S,,,broken,,,,20,99165.29,101699.76
KMKE,09/02/2018 14:25 UTC,101794.79,24,19.4,73.67,5.14,190,,,,,2503,,,,,,,233,2003,,,10,,METAR KMKE 021425Z AUTO 19010KT 10SM BKN023 24/19 A3006 RMK AO2  T02440194,,,,701.04,,,,,,S,,,broken,,,,18.99,99165.29,101699.78
KMKE,09/02/2018 14:30 UTC,101828.66,24,,73.67,3.6,180,,,,,,,,,,,,233,,,,10,,METAR KMKE 021430Z AUTO 18007KT 10SM BKN023 24/19 A3007,,,,701.04,,,,,,S,,,broken,,,,18.99,99198.29,101733.62
KMKE,09/02/2018 14:35 UTC,101828.66,24,,73.67,3.6,170,,,,,,,,,,,,233,,,,10,,METAR KMKE 021435Z AUTO 17007KT 10SM BKN023 24/19 A3007,,,,701.04,,,,,,S,,,broken,,,,18.99,99198.29,101733.62
KMKE,09/02/2018 14:40 UTC,101828.66,24,,73.67,4.12,170,,,,,,,,,,,,233,,,,10,,METAR KMKE 021440Z AUTO 17008KT 10SM BKN023 24/19 A3007,,,,701.04,,,,,,S,,,broken,,,,18.99,99198.29,101733.62
KMKE,09/02/2018 14:45 UTC,101828.66,24,,73.67,3.6,170,,,,,,,,,,,,233,,,,10,,METAR KMKE 021445Z AUTO 17007KT 10SM BKN023 24/19 A3007,,,,701.04,,,,,,S,,,broken,,,,18.99,99198.29,101733.62
KMKE,09/02/2018 14:50 UTC,101828.66,24,,73.67,4.63,180,,,,,,,,,,,,233,,,,10,,METAR KMKE 021450Z AUTO 18009KT 10SM BKN023 24/19 A3007,,,,701.04,,,,,,S,,,broken,,,,18.99,99198.29,101733.62
KMKE,09/02/2018 14:52 UTC,101828.66,24.4,19.4,73.74,3.6,180,,,101780,,,,,,3002,,,233,2404,,,10,,KMKE 021452Z 18007KT 10SM BKN023 OVC240 24/19 A3007 RMK AO2 SLP178  T02440194 53002,,,,701.04,,,,,,S,,,overcast,,,,19.39,99198.29,101730.17
KMKE,09/02/2018 14:55 UTC,101828.66,25,,69.4,4.63,190,,,,,,,,,,,,233,,,,10,,METAR KMKE 021455Z AUTO 19009KT 10SM BKN023 25/19 A3007,,,,701.04,,,,,,S,,,broken,,,,19,99198.29,101725.03
KMKE,09/02/2018 15:00 UTC,101828.66,25,,69.4,4.12,180,,,,,,,,,,,,233,,,,10,,METAR KMKE 021500Z AUTO 18008KT 10SM BKN023 25/19 A3007,,,,701.04,,,,,,S,,,broken,,,,19,99198.29,101725.03
KMKE,09/02/2018 15:05 UTC,101828.66,25,,69.4,6.69,170,,,,,,,,,,,,233,,,,10,,METAR KMKE 021505Z AUTO 17013KT 10SM BKN023 25/19 A3007,,,,701.04,,,,,,S,,,broken,,,,19,99198.29,101725.03
KMKE,09/02/2018 15:10 UTC,101794.79,26,,65.41,5.14,180,8.75,,,,,,,,,,,183,253,,,10,,METAR KMKE 021510Z AUTO 18010G17KT 10SM BKN018 BKN025 26/19 A3006,,,,548.64,,,,,,S,,,broken,,,,19,99165.29,101682.66
KMKE,09/02/2018 15:15 UTC,101794.79,26,,69.6,5.66,180,,,,,,,,,,,,183,253,,,10,,METAR KMKE 021515Z AUTO 18011KT 10SM BKN018 BKN025 26/20 A3006,,,,548.64,,,,,,S,,,broken,,,,20,99165.29,101682.64
KMKE,09/02/2018 15:20 UTC,101794.79,26,,69.6,5.14,180,,,,,,,,,,,,183,,,,10,,METAR KMKE 021520Z AUTO 18010KT 10SM BKN018 26/20 A3006,,,,548.64,,,,,,S,,,broken,,,,20,99165.29,101682.64
KMKE,09/02/2018 15:25 UTC,101794.79,26,,69.6,5.66,190,,,,,,,,,,,,174,,,,10,,METAR KMKE 021525Z AUTO 19011KT 10SM OVC017 26/20 A3006,,,,518.16,,,,,,S,,,overcast,,,,20,99165.29,101682.64
KMKE,09/02/2018 15:30 UTC,101794.79,26,,74.02,5.66,180,,,,,,,,,,,,174,,,,10,,METAR KMKE 021530Z AUTO 18011KT 10SM OVC017 26/21 A3006,,,,518.16,,,,,,S,,,overcast,,,,21,99165.29,101682.62
KMKE,09/02/2018 15:35 UTC,101794.79,26,,74.02,5.66,180,8.23,,,,,,,,,,,174,,,,10,,METAR KMKE 021535Z AUTO 18011G16KT 10SM OVC017 26/21 A3006,,,,518.16,,,,,,S,,,overcast,,,,21,99165.29,101682.62
KMKE,09/02/2018 15:40 UTC,101760.93,26,,74.02,6.69,170,,,,,,,,,,,,174,,,,10,,METAR KMKE 021540Z AUTO 17013KT 10SM OVC017 26/21 A3005,,,,518.16,,,,,,S,,,overcast,,,,21,99132.31,101648.81
KMKE,09/02/2018 15:45 UTC,101760.93,26,,74.02,5.14,180,,,,,,,,,,,,173,,,,10,,METAR KMKE 021545Z AUTO 18010KT 10SM BKN017 26/21 A3005,,,,518.16,,,,,,S,,,broken,,,,21,99132.31,101648.81
KMKE,09/02/2018 15:50 UTC,101760.93,26,,74.02,4.63,180,,,,,,,,,,,,172,253,,,10,,METAR KMKE 021550Z AUTO 18009KT 10SM SCT017 BKN025 26/21 A3005,,,,762,,,,,,S,,,broken,,,,21,99132.31,101648.81
KMKE,09/02/2018 15:52 UTC,101760.93,26.1,21.1,74.03,4.63,180,,,101710,,2403,,,,,,,172,253,,,10,,KMKE 021552Z 18009KT 10SM SCT017 BKN025 BKN240 26/21 A3005 RMK AO2  SLP171 T02610211,,,,762,,,,,,S,,,broken,,,,21.1,99132.31,101647.95
KMKE,09/02/2018 15:55 UTC,101760.93,26,,78.68,6.17,190,,,,,,,,,,,,172,253,,,10,,METAR KMKE 021555Z AUTO 19012KT 10SM SCT017 BKN025 26/22 A3005,,,,762,,,,,,S,,,broken,,,,22,99132.31,101648.79
KMKE,09/02/2018 16:00 UTC,101760.93,26,,78.68,5.66,190,,,,,,,,,,,,172,253,,,10,,METAR KMKE 021600Z AUTO 19011KT 10SM SCT017 BKN025 26/22 A3005,,,,762,,,,,,S,,,broken,,,,22,99132.31,101648.79
KMKE,09/02/2018 16:05 UTC,101760.93,27,,74.19,5.66,190,,,,,,,,,,,,172,252,,,10,,METAR KMKE 021605Z AUTO 19011KT 10SM SCT017 SCT025 27/22 A3005,,,,,,,,,,S,29.21,,scattered,,,,22.01,99132.31,101640.32
KMKE,09/02/2018 16:07 UTC,101760.93,26.1,21.7,76.8,5.14,200,,,,,2403,,,,,,,172,252,,,10,,KMKE 021607Z 20010KT 10SM SCT017 SCT025 BKN240 26/22 A3005 RMK AO2  T02610217,,,,7315.2,,,,,,SSW,,,broken,,,,21.7,99132.31,101647.94
KMKE,09/02/2018 16:10 UTC,101760.93,27,,74.19,5.14,200,,,,,,,,,,,,172,252,,,10,,METAR KMKE 021610Z AUTO 20010KT 10SM SCT017 SCT025 27/22 A3005,,,,,,,,,,SSW,29.21,,scattered,,,,22.01,99132.31,101640.32
KMKE,09/02/2018 16:15 UTC,101760.93,27,,74.19,5.66,200,,,,,,,,,,,,172,252,,,10,,METAR KMKE 021615Z AUTO 20011KT 10SM SCT017 SCT025 27/22 A3005,,,,,,,,,,SSW,29.21,,scattered,,,,22.01,99132.31,101640.32
KMKE,09/02/2018 16:20 UTC,101760.93,27,,74.19,4.63,180,,,,,,,,,,,,172,252,,,10,,METAR KMKE 021620Z AUTO 18009KT 10SM SCT017 SCT025 27/22 A3005,,,,,,,,,,S,29.21,,scattered,,,,22.01,99132.31,101640.32
KMKE,09/02/2018 16:25 UTC,101760.93,27,,78.82,4.63,200,,,,,,,,,,,,172,252,,,10,,METAR KMKE 021625Z AUTO 20009KT 10SM SCT017 SCT025 27/23 A3005,,,,,,,,,,SSW,29.63,,scattered,,,,23,99132.31,101640.29
KMKE,09/02/2018 16:30 UTC,101727.07,27,,78.82,5.66,190,,,,,,,,,,,,172,252,,,10,,METAR KMKE 021630Z AUTO 19011KT 10SM SCT017 SCT025 27/23 A3004,,,,,,,,,,S,29.63,,scattered,,,,23,99099.32,101606.47
KMKE,09/02/2018 16:35 UTC,101727.07,28,,74.36,4.63,210,,,,,,,,,,,,172,252,,,10,,METAR KMKE 021635Z AUTO 21009KT 10SM SCT017 SCT025 28/23 A3004,,,,,,,,,,SSW,31.26,,scattered,,,,23.01,99099.32,101598.06
KMKE,09/02/2018 16:40 UTC,101727.07,28,,74.36,7.2,220,,,,,,,,,,,,172,252,,,10,,METAR KMKE 021640Z AUTO 22014KT 10SM SCT017 SCT025 28/23 A3004,,,,,,,,,,SW,31.26,,scattered,,,,23.01,99099.32,101598.06
KMKE,09/02/2018 16:45 UTC,101727.07,28,,74.36,4.63,200,7.2,,,,,,,,,,,172,252,,,10,,METAR KMKE 021645Z AUTO 20009G14KT 10SM SCT017 SCT025 28/23 A3004,,,,,,,,,,SSW,31.26,,scattered,,,,23.01,99099.32,101598.06
KMKE,09/02/2018 16:50 UTC,101727.07,28,,74.36,5.66,200,,,,,,,,,,,,172,,,,10,,METAR KMKE 021650Z AUTO 20011KT 10SM SCT017 28/23 A3004,,,,,,,,,,SSW,31.26,,scattered,,,,23.01,99099.32,101598.06
KMKE,09/02/2018 16:52 UTC,101693.2,27.8,22.8,74.32,6.17,200,,,101650,,2503,,,,,,,192,2103,,,10,,KMKE 021652Z 20012KT 10SM SCT019 BKN210 BKN250 28/23 A3003 RMK AO2  SLP165 T02780228,,,,6400.8,,,,,,SSW,30.83,,broken,,,,22.81,99066.33,101565.92
KMKE,09/02/2018 16:55 UTC,101693.2,28,,74.36,5.14,200,,,,,,,,,,,,192,,,,10,,METAR KMKE 021655Z AUTO 20010KT 10SM SCT019 28/23 A3003,,,,,,,,,,SSW,31.26,,scattered,,,,23.01,99066.33,101564.24
KMKE,09/02/2018 17:00 UTC,101693.2,28,,74.36,6.69,200,,,,,,,,,,,,192,,,,10,,METAR KMKE 021700Z AUTO 20013KT 10SM SCT019 28/23 A3003,,,,,,,,,,SSW,31.26,,scattered,,,,23.01,99066.33,101564.24
KMKE,09/02/2018 17:05 UTC,101693.2,28,,74.36,6.17,200,,,,,,,,,,,,192,,,,10,,METAR KMKE 021705Z AUTO 20012KT 10SM SCT019 28/23 A3003,,,,,,,,,,SSW,31.26,,scattered,,,,23.01,99066.33,101564.24
KMKE,09/02/2018 17:10 UTC,101693.2,28,,74.36,5.14,200,,,,,,,,,,,,192,,,,10,,METAR KMKE 021710Z AUTO 20010KT 10SM SCT019 28/23 A3003,,,,,,,,,,SSW,31.26,,scattered,,,,23.01,99066.33,101564.24
KMKE,09/02/2018 17:15 UTC,101693.2,28,,74.36,6.17,210,,,,,,,,,,,,192,,,,10,,METAR KMKE 021715Z AUTO 21012KT 10SM SCT019 28/23 A3003,,,,,,,,,,SSW,31.26,,scattered,,,,23.01,99066.33,101564.24
KMKE,09/02/2018 17:20 UTC,101693.2,28,,74.36,5.66,200,8.23,,,,,,,,,,,192,,,,10,,METAR KMKE 021720Z AUTO 20011G16KT 10SM SCT019 28/23 A3003,,,,,,,,,,SSW,31.26,,scattered,,,,23.01,99066.33,101564.24
KMKE,09/02/2018 17:25 UTC,101693.2,28,,74.36,7.2,210,,,,,,,,,,,,212,,,,10,,METAR KMKE 021725Z AUTO 21014KT 10SM SCT021 28/23 A3003,,,,,,,,,,SSW,31.26,,scattered,,,,23.01,99066.33,101564.24
KMKE,09/02/2018 17:30 UTC,101693.2,28,,74.36,7.2,190,,,,,,,,,,,,212,,,,10,,METAR KMKE 021730Z AUTO 19014KT 10SM SCT021 28/23 A3003,,,,,,,,,,S,31.26,,scattered,,,,23.01,99066.33,101564.24
KMKE,09/02/2018 17:35 UTC,101693.2,28,,74.36,6.69,220,,,,,,,,,,,,212,,,,10,,METAR KMKE 021735Z AUTO 22013KT 10SM SCT021 28/23 A3003,,,,,,,,,,SW,31.26,,scattered,,,,23.01,99066.33,101564.24
KMKE,09/02/2018 17:40 UTC,101693.2,29,,70.17,5.66,210,8.23,,,,,,,,,,,216,,,,10,,METAR KMKE 021740Z AUTO 21011G16KT 10SM FEW021 29/23 A3003,,,,,,,,,,SSW,32.76,,thin scattered,,,,23.02,99066.33,101555.89
KMKE,09/02/2018 17:45 UTC,101659.34,29,,70.17,6.17,220,,,,,,,,,,,,216,,,,10,,METAR KMKE 021745Z AUTO 22012KT 10SM FEW021 29/23 A3002,,,,,,,,,,SW,32.76,,thin scattered,,,,23.02,99033.34,101522.07
KMKE,09/02/2018 17:50 UTC,101659.34,29,,70.17,5.66,210,8.23,,,,,,,,,,,212,,,,10,,METAR KMKE 021750Z AUTO 21011G16KT 10SM SCT021 29/23 A3002,,,,,,,,,,SSW,32.76,,scattered,,,,23.02,99033.34,101522.07
KMKE,09/02/2018 17:52 UTC,101659.34,28.9,23.3,71.87,6.69,210,,,101610,,,,,,6016,,,212,2503,,,10,,KMKE 021752Z 21013KT 10SM SCT021 BKN250 29/23 A3002 RMK AO2 SLP161  T02890233 10289 20206 56016,28.9,20.6,,7620,,,,,,SSW,32.85,,broken,,,,23.32,99033.34,101522.89
KMKE,09/02/2018 17:55 UTC,101659.34,29,,74.52,5.66,210,8.75,,,,,,,,,,,236,,,,10,,METAR KMKE 021755Z AUTO 21011G17KT 10SM FEW023 29/24 A3002,,,,,,,,,,SSW,33.6,,thin scattered,,,,24.02,99033.34,101522.05
KMKE,09/02/2018 18:00 UTC,101659.34,29,,70.17,7.72,220,,,,,,,,,,,,236,,,,10,,METAR KMKE 021800Z AUTO 22015KT 10SM FEW023 29/23 A3002,,,,,,,,,,SW,32.76,,thin scattered,,,,23.02,99033.34,101522.07
KMKE,09/02/2018 18:05 UTC,101659.34,29,,70.17,8.23,230,10.8,,,,,,,,,,,252,,,,10,,METAR KMKE 021805Z AUTO 23016G21KT 10SM SCT025 29/23 A3002,,,,,,,,,,SW,32.76,,scattered,,,,23.02,99033.34,101522.07
KMKE,09/02/2018 18:10 UTC,101659.34,29,,70.17,5.66,230,9.26,,,,,,,,,,,252,322,,,10,,METAR KMKE 021810Z AUTO 23011G18KT 10SM SCT025 SCT032 29/23 A3002,,,,,,,,,,SW,32.76,,scattered,,,,23.02,99033.34,101522.07
KMKE,09/02/2018 18:15 UTC,101659.34,29,,70.17,7.2,220,,,,,,,,,,,,256,322,,,10,,METAR KMKE 021815Z AUTO 22014KT 10SM FEW025 SCT032 29/23 A3002,,,,,,,,,,SW,32.76,,scattered,,,,23.02,99033.34,101522.07
KMKE,09/02/2018 18:20 UTC,101659.34,29,,70.17,6.69,220,,,,,,,,,,,,252,,,,10,,METAR KMKE 021820Z AUTO 22013KT 10SM SCT025 29/23 A3002,,,,,,,,,,SW,32.76,,scattered,,,,23.02,99033.34,101522.07
KMKE,09/02/2018 18:25 UTC,101659.34,29,,70.17,6.17,230,,,,,,,,,,,,252,333,,,10,,METAR KMKE 021825Z AUTO 23012KT 10SM SCT025 BKN033 29/23 A3002,,,,1005.84,,,,,,SW,32.76,,broken,,,,23.02,99033.34,101522.07
KMKE,09/02/2018 18:30 UTC,101659.34,29,,70.17,6.17,220,9.26,,,,,,,,,,,253,333,,,10,,METAR KMKE 021830Z AUTO 22012G18KT 10SM BKN025 BKN033 29/23 A3002,,,,762,,,,,,SW,32.76,,broken,,,,23.02,99033.34,101522.07
KMKE,09/02/2018 18:32 UTC,101625.47,28.9,22.8,69.73,6.17,220,,,,,2303,,,,,,,253,333,,,10,,KMKE 021832Z 22012KT 10SM BKN025 BKN033 BKN230 29/23 A3001 RMK AO2  T02890228,,,,762,,,,,,SW,32.46,,broken,,,,22.82,99000.35,101489.09
KMKE,09/02/2018 18:35 UTC,101625.47,29,,70.17,6.17,230,8.75,,,,,,,,,,,253,333,,,10,,METAR KMKE 021835Z AUTO 23012G17KT 10SM BKN025 BKN033 29/23 A3001,,,,762,,,,,,SW,32.76,,broken,,,,23.02,99000.35,101488.25
KMKE,09/02/2018 18:40 UTC,101625.47,29,,70.17,6.17,240,,,,,,,,,,,,253,333,,,10,,METAR KMKE 021840Z AUTO 24012KT 10SM BKN025 BKN033 29/23 A3001,,,,762,,,,,,WSW,32.76,,broken,,,,23.02,99000.35,101488.25
KMKE,09/02/2018 18:45 UTC,101625.47,29,,70.17,5.66,240,,,,,,,,,,,,253,333,,,10,,METAR KMKE 021845Z AUTO 24011KT 10SM BKN025 BKN033 29/23 A3001,,,,762,,,,,,WSW,32.76,,broken,,,,23.02,99000.35,101488.25
KMKE,09/02/2018 18:50 UTC,101625.47,29,,70.17,5.14,230,,,,,,,,,,,,253,333,,,10,,METAR KMKE 021850Z AUTO 23010KT 10SM BKN025 BKN033 29/23 A3001,,,,762,,,,,,SW,32.76,,broken,,,,23.02,99000.35,101488.25
KMKE,09/02/2018 18:52 UTC,101625.47,29.4,23.3,69.82,5.66,230,,,101570,,2303,,,,,,,272,333,,,10,,KMKE 021852Z 23011KT 10SM SCT027 BKN033 BKN230 29/23 A3001 RMK AO2  SLP157 T02940233,,,,1005.84,,,,,,SW,33.58,,broken,,,,23.32,99000.35,101484.92
KMKE,09/02/2018 18:55 UTC,101625.47,29,,70.17,5.66,220,,,,,,,,,,,,302,373,,,10,,METAR KMKE 021855Z AUTO 22011KT 10SM SCT030 BKN037 29/23 A3001,,,,1127.76,,,,,,SW,32.76,,broken,,,,23.02,99000.35,101488.25
KMKE,09/02/2018 19:00 UTC,101625.47,30,,66.25,6.17,220,,,,,,,,,,,,302,373,,,10,,METAR KMKE 021900Z AUTO 22012KT 10SM SCT030 BKN037 30/23 A3001,,,,1127.76,,,,,,SW,34.16,,broken,,,,23.03,99000.35,101479.96
KMKE,09/02/2018 19:05 UTC,101591.61,30,,70.36,5.14,220,,,,,,,,,,,,282,353,,,10,,METAR KMKE 021905Z AUTO 22010KT 10SM SCT028 BKN035 30/24 A3000,,,,1066.8,,,,,,SW,35.13,,broken,,,,24.02,98967.36,101446.12
KMKE,09/02/2018 19:10 UTC,101591.61,31,,62.58,6.17,220,,,,,,,,,,,,302,373,,,10,,METAR KMKE 021910Z AUTO 22012KT 10SM SCT030 BKN037 31/23 A3000,,,,1127.76,,,,,,SW,35.51,,broken,,,,23.04,98967.36,101437.91
KMKE,09/02/2018 19:15 UTC,101591.61,31,,62.58,6.17,220,9.26,,,,,,,,,,,332,,,,10,,METAR KMKE 021915Z AUTO 22012G18KT 10SM SCT033 31/23 A3000,,,,,,,,,,SW,35.51,,scattered,,,,23.04,98967.36,101437.91
KMKE,09/02/2018 19:20 UTC,101591.61,31,,62.58,5.66,210,8.23,,,,,,,,,,,332,,,,10,,METAR KMKE 021920Z AUTO 21011G16KT 10SM SCT033 31/23 A3000,,,,,,,,,,SSW,35.51,,scattered,,,,23.04,98967.36,101437.91
KMKE,09/02/2018 19:25 UTC,101591.61,30,,66.25,5.66,220,,,,,,,,,,,,332,,,,10,,METAR KMKE 021925Z AUTO 22011KT 10SM SCT033 30/23 A3000,,,,,,,,,,SW,34.16,,scattered,,,,23.03,98967.36,101446.14
KMKE,09/02/2018 19:30 UTC,101591.61,31,,62.58,6.17,220,,,,,,,,,,,,332,442,,,10,,METAR KMKE 021930Z AUTO 22012KT 10SM SCT033 SCT044 31/23 A3000,,,,,,,,,,SW,35.51,,scattered,,,,23.04,98967.36,101437.91
KMKE,09/02/2018 19:35 UTC,101591.61,31,,62.58,7.2,220,9.77,,,,,,,,,,,346,,,,10,,METAR KMKE 021935Z AUTO 22014G19KT 10SM FEW034 31/23 A3000,,,,,,,,,,SW,35.51,,thin scattered,,,,23.04,98967.36,101437.91
KMKE,09/02/2018 19:40 UTC,101591.61,31,,62.58,8.23,220,,,,,,,,,,,,346,,,,10,,METAR KMKE 021940Z AUTO 22016KT 10SM FEW034 31/23 A3000,,,,,,,,,,SW,35.51,,thin scattered,,,,23.04,98967.36,101437.91
KMKE,09/02/2018 19:45 UTC,101591.61,31,,62.58,6.69,210,,,,,,,,,,,,346,,,,10,,METAR KMKE 021945Z AUTO 21013KT 10SM FEW034 31/23 A3000,,,,,,,,,,SSW,35.51,,thin scattered,,,,23.04,98967.36,101437.91
KMKE,09/02/2018 19:50 UTC,101591.61,31,,62.58,7.72,220,,,,,,,,,,,,343,,,,10,,METAR KMKE 021950Z AUTO 22015KT 10SM BKN034 31/23 A3000,,,,1036.32,,,,,,SW,35.51,,broken,,,,23.04,98967.36,101437.91
KMKE,09/02/2018 19:52 UTC,101591.61,30.6,22.8,63.25,7.2,210,,,101520,,,,,,,,,343,2503,,,10,,KMKE 021952Z 21014KT 10SM BKN034TCU BKN250 31/23 A3000 RMK AO2  SLP152 TCU ALQDS T03060228,,,,1036.32,,,,,,SSW,34.78,,broken,,,,22.83,98967.36,101441.2
KMKE,09/02/2018 19:55 UTC,101591.61,30,,66.25,6.69,210,,,,,,,,,,,,366,482,,,10,,METAR KMKE 021955Z AUTO 21013KT 10SM FEW036 SCT048 30/23 A3000,,,,,,,,,,SSW,34.16,,scattered,,,,23.03,98967.36,101446.14
KMKE,09/02/2018 20:00 UTC,101591.61,30,,66.25,5.66,220,,,,,,,,,,,,386,482,,,10,,METAR KMKE 022000Z AUTO 22011KT 10SM FEW038 SCT048 30/23 A3000,,,,,,,,,,SW,34.16,,scattered,,,,23.03,98967.36,101446.14
KMKE,09/02/2018 20:05 UTC,101591.61,30,,66.25,6.69,220,,,,,,,,,,,,366,486,,,10,,METAR KMKE 022005Z AUTO 22013KT 10SM FEW036 FEW048 30/23 A3000,,,,,,,,,,SW,34.16,,thin scattered,,,,23.03,98967.36,101446.14
KMKE,09/02/2018 20:10 UTC,101557.75,30,,66.25,5.66,210,,,,,,,,,,,,366,482,,,10,,METAR KMKE 022010Z AUTO 21011KT 10SM FEW036 SCT048 30/23 A2999,,,,,,,,,,SSW,34.16,,scattered,,,,23.03,98934.38,101412.34
KMKE,09/02/2018 20:15 UTC,101557.75,30,,66.25,5.14,220,,,,,1002,,,,,,,366,482,,,10,,METAR KMKE 022015Z AUTO 22010KT 10SM FEW036 SCT048 SCT100 30/23 A2999,,,,,,,,,,SW,34.16,,scattered,,,,23.03,98934.38,101412.34
KMKE,09/02/2018 20:20 UTC,101557.75,30,,66.25,8.23,200,,,,,1002,,,,,,,356,482,,,10,,METAR KMKE 022020Z AUTO 20016KT 10SM FEW035 SCT048 SCT100 30/23 A2999,,,,,,,,,,SSW,34.16,,scattered,,,,23.03,98934.38,101412.34
KMKE,09/02/2018 20:25 UTC,101557.75,30,,66.25,7.2,210,,,,,1002,,,,,,,356,506,,,10,,METAR KMKE 022025Z AUTO 21014KT 10SM FEW035 FEW050 SCT100 30/23 A2999,,,,,,,,,,SSW,34.16,,scattered,,,,23.03,98934.38,101412.34
KMKE,09/02/2018 20:30 UTC,101557.75,31,,62.58,5.66,210,,,,,,,,,,,,346,506,,,10,,METAR KMKE 022030Z AUTO 21011KT 10SM FEW034 FEW050 31/23 A2999,,,,,,,,,,SSW,35.51,,thin scattered,,,,23.04,98934.38,101404.11
KMKE,09/02/2018 20:35 UTC,101557.75,31,,62.58,6.17,210,,,,,,,,,,,,346,506,,,10,,METAR KMKE 022035Z AUTO 21012KT 10SM FEW034 FEW050 31/23 A2999,,,,,,,,,,SSW,35.51,,thin scattered,,,,23.04,98934.38,101404.11
KMKE,09/02/2018 20:40 UTC,101523.88,31,,62.58,5.14,210,,,,,,,,,,,,506,,,,10,,METAR KMKE 022040Z AUTO 21010KT 10SM FEW050 31/23 A2998,,,,,,,,,,SSW,35.51,,thin scattered,,,,23.04,98901.38,101370.29
KMKE,09/02/2018 20:45 UTC,101523.88,31,,62.58,7.2,200,,,,,,,,,,,,556,,,,10,,METAR KMKE 022045Z AUTO 20014KT 10SM FEW055 31/23 A2998,,,,,,,,,,SSW,35.51,,thin scattered,,,,23.04,98901.38,101370.29
KMKE,09/02/2018 20:50 UTC,101523.88,31,,62.58,7.2,220,,,,,,,,,,,,552,,,,10,,METAR KMKE 022050Z AUTO 22014KT 10SM SCT055 31/23 A2998,,,,,,,,,,SW,35.51,,scattered,,,,23.04,98901.38,101370.29
KMKE,09/02/2018 20:52 UTC,101523.88,30.6,22.8,63.25,5.66,210,,,101470,,2503,,,,8014,,,552,702,,,10,,KMKE 022052Z 21011KT 10SM SCT055TCU SCT070 BKN250 31/23 A2998 RMK AO2 LTG DSNT NW SLP147 TCU ALQDS T03060228 58014,,,,7620,,,,,,SSW,34.78,,broken,,,,22.83,98901.38,101373.57
KMKE,09/02/2018 20:55 UTC,101523.88,31,,62.58,7.2,210,,,,,,,,,,,,652,,,,10,,METAR KMKE 022055Z AUTO 21014KT 10SM SCT065 31/23 A2998,,,,,,,,,,SSW,35.51,,scattered,,,,23.04,98901.38,101370.29
KMKE,09/02/2018 21:00 UTC,101490.02,31,,62.58,6.17,210,,,,,,,,,,,,606,706,,,10,,METAR KMKE 022100Z AUTO 21012KT 10SM FEW060 FEW070 31/23 A2997,,,,,,,,,,SSW,35.51,,thin scattered,,,,23.04,98868.4,101336.48
KMKE,09/02/2018 21:05 UTC,101490.02,31,,62.58,6.17,210,8.75,,,,,,,,,,,606,706,,,10,,METAR KMKE 022105Z AUTO 21012G17KT 10SM FEW060 FEW070 31/23 A2997,,,,,,,,,,SSW,35.51,,thin scattered,,,,23.04,98868.4,101336.48
KMKE,09/02/2018 21:10 UTC,101490.02,31,,58.89,8.75,210,11.32,,,,,,,,,,,606,706,,,10,,METAR KMKE 022110Z AUTO 21017G22KT 10SM FEW060 FEW070 31/22 A2997,,,,,,,,,,SSW,34.57,,thin scattered,,,,22.04,98868.4,101336.5
KMKE,09/02/2018 21:15 UTC,101490.02,30,,62.35,7.2,200,,,,,,,,,,,,706,,,,10,,METAR KMKE 022115Z AUTO 20014KT 10SM FEW070 30/22 A2997,,,,,,,,,,SSW,33.31,,thin scattered,,,,22.03,98868.4,101344.73
KMKE,09/02/2018 21:20 UTC,101490.02,31,,58.89,7.2,210,9.77,,,,,,,,,,,1,,,,10,,METAR KMKE 022120Z AUTO 21014G19KT 10SM CLR 31/22 A2997,,,,,,,,,,SSW,34.57,,clear,,,,22.04,98868.4,101336.5
KMKE,09/02/2018 21:25 UTC,101490.02,31,,58.89,5.66,210,,,,,,,,,,,,1,,,,10,,METAR KMKE 022125Z AUTO 21011KT 10SM CLR 31/22 A2997,,,,,,,,,,SSW,34.57,,clear,,,,22.04,98868.4,101336.5
KMKE,09/02/2018 21:30 UTC,101490.02,31,,62.58,6.69,220,,,,,,,,,,,,1,,,,10,,METAR KMKE 022130Z AUTO 22013KT 10SM CLR 31/23 A2997,,,,,,,,,,SW,35.51,,clear,,,,23.04,98868.4,101336.48
KMKE,09/02/2018 21:35 UTC,101490.02,31,,58.89,7.72,200,,,,,,,,,,,,1,,,,10,,METAR KMKE 022135Z AUTO 20015KT 10SM CLR 31/22 A2997,,,,,,,,,,SSW,34.57,,clear,,,,22.04,98868.4,101336.5
KMKE,09/02/2018 21:40 UTC,101490.02,31,,62.58,5.14,210,,,,,,,,,,,,1,,,,10,,METAR KMKE 022140Z AUTO 21010KT 10SM CLR 31/23 A2997,,,,,,,,,,SSW,35.51,,clear,,,,23.04,98868.4,101336.48
KMKE,09/02/2018 21:45 UTC,101490.02,31,,62.58,6.69,210,,,,,,,,,,,,1,,,,10,,METAR KMKE 022145Z AUTO 21013KT 10SM CLR 31/23 A2997,,,,,,,,,,SSW,35.51,,clear,,,,23.04,98868.4,101336.48
KMKE,09/02/2018 21:50 UTC,101490.02,31,,58.89,5.14,210,,,,,,,,,,,,352,,,,10,,METAR KMKE 022150Z AUTO 21010KT 10SM SCT035 31/22 A2997,,,,,,,,,,SSW,34.57,,scattered,,,,22.04,98868.4,101336.5
KMKE,09/02/2018 21:52 UTC,101490.02,30.6,22.8,63.25,6.17,210,,,101420,,,,,,,,,352,2503,,,10,,KMKE 022152Z 21012KT 10SM SCT035 BKN250 31/23 A2997 RMK AO2 LTG  DSNT N AND NE SLP142 TCU DSNT SE-SW AND NW-NE T03060228,,,,7620,,,,,,SSW,34.78,,broken,,,,22.83,98868.4,101339.77
KMKE,09/02/2018 21:55 UTC,101456.15,30,,62.35,6.17,220,8.75,,,,,,,,,,,1,,,,10,,METAR KMKE 022155Z AUTO 22012G17KT 10SM CLR 30/22 A2996,,,,,,,,,,SW,33.31,,clear,,,,22.03,98835.4,101310.9
KMKE,09/02/2018 22:00 UTC,101490.02,30,,62.35,6.69,210,,,,,,,,,,,,1,,,,10,,METAR KMKE 022200Z AUTO 21013KT 10SM CLR 30/22 A2997,,,,,,,,,,SSW,33.31,,clear,,,,22.03,98868.4,101344.73
KMKE,09/02/2018 22:05 UTC,101490.02,30,,62.35,6.17,210,,,,,,,,,,,,1,,,,10,,METAR KMKE 022205Z AUTO 21012KT 10SM CLR 30/22 A2997,,,,,,,,,,SSW,33.31,,clear,,,,22.03,98868.4,101344.73
KMKE,09/02/2018 22:10 UTC,101490.02,30,,62.35,5.14,220,,,,,,,,,,,,1,,,,10,,METAR KMKE 022210Z AUTO 22010KT 10SM CLR 30/22 A2997,,,,,,,,,,SW,33.31,,clear,,,,22.03,98868.4,101344.73
KMKE,09/02/2018 22:15 UTC,101490.02,30,,62.35,5.66,210,,,,,,,,,,,,1,,,,10,,METAR KMKE 022215Z AUTO 21011KT 10SM CLR 30/22 A2997,,,,,,,,,,SSW,33.31,,clear,,,,22.03,98868.4,101344.73
KMKE,09/02/2018 22:20 UTC,101523.88,30,,62.35,5.66,220,,,,,,,,,,,,1,,,,10,,METAR KMKE 022220Z AUTO 22011KT 10SM CLR 30/22 A2998,,,,,,,,,,SW,33.31,,clear,,,,22.03,98901.38,101378.53
KMKE,09/02/2018 22:25 UTC,101523.88,30,,62.35,6.17,220,,,,,,,,,,,,1,,,,10,,METAR KMKE 022225Z AUTO 22012KT 10SM CLR 30/22 A2998,,,,,,,,,,SW,33.31,,clear,,,,22.03,98901.38,101378.53
KMKE,09/02/2018 22:30 UTC,101523.88,30,,62.35,6.17,220,,,,,,,,,,,,1,,,,10,,METAR KMKE 022230Z AUTO 22012KT 10SM CLR 30/22 A2998,,,,,,,,,,SW,33.31,,clear,,,,22.03,98901.38,101378.53
KMKE,09/02/2018 22:35 UTC,101523.88,30,,62.35,6.17,220,,,,,,,,,,,,1,,,,10,,METAR KMKE 022235Z AUTO 22012KT 10SM CLR 30/22 A2998,,,,,,,,,,SW,33.31,,clear,,,,22.03,98901.38,101378.53
KMKE,09/02/2018 22:40 UTC,101523.88,30,,62.35,5.14,220,,,,,,,,,,,,1,,,,10,,METAR KMKE 022240Z AUTO 22010KT 10SM CLR 30/22 A2998,,,,,,,,,,SW,33.31,,clear,,,,22.03,98901.38,101378.53
KMKE,09/02/2018 22:45 UTC,101523.88,29,,66.04,5.14,220,,,,,,,,,,,,1,,,,10,,METAR KMKE 022245Z AUTO 22010KT 10SM CLR 29/22 A2998,,,,,,,,,,SW,32.02,,clear,,,,22.02,98901.38,101386.81
KMKE,09/02/2018 22:50 UTC,101523.88,30,,62.35,5.14,220,,,,,,,,,,,,1,,,,10,,METAR KMKE 022250Z AUTO 22010KT 10SM CLR 30/22 A2998,,,,,,,,,,SW,33.31,,clear,,,,22.03,98901.38,101378.53
KMKE,09/02/2018 22:52 UTC,101523.88,30,22.2,63.12,4.63,220,,,101470,,2503,,,,,,,332,1502,,,10,,KMKE 022252Z 22009KT 10SM SCT033 SCT150 BKN250 30/22 A2998 RMK AO2  LTG DSNT N SLP147 TCU DSNT W-NE T03000222,,,,7620,,,,,,SW,33.47,,broken,,,,22.23,98901.38,101378.53
KMKE,09/02/2018 22:55 UTC,101523.88,29,,66.04,4.63,220,,,,,,,,,,,,1,,,,10,,METAR KMKE 022255Z AUTO 22009KT 10SM CLR 29/22 A2998,,,,,,,,,,SW,32.02,,clear,,,,22.02,98901.38,101386.81
KMKE,09/02/2018 23:00 UTC,101557.75,29,,66.04,4.12,220,,,,,,,,,,,,1,,,,10,,METAR KMKE 022300Z AUTO 22008KT 10SM CLR 29/22 A2999,,,,,,,,,,SW,32.02,,clear,,,,22.02,98934.38,101420.64
KMKE,09/02/2018 23:05 UTC,101557.75,29,,66.04,3.6,230,,,,,,,,,,,,606,,,,10,,METAR KMKE 022305Z AUTO 23007KT 10SM FEW060 29/22 A2999,,,,,,,,,,SW,32.02,,thin scattered,,,,22.02,98934.38,101420.64
KMKE,09/02/2018 23:10 UTC,101557.75,29,,66.04,4.12,210,,,,,,,,,,,,476,602,,,10,,METAR KMKE 022310Z AUTO 21008KT 10SM FEW047 SCT060 29/22 A2999,,,,,,,,,,SSW,32.02,,scattered,,,,22.02,98934.38,101420.64
KMKE,09/02/2018 23:15 UTC,101557.75,29,,66.04,3.6,220,,,,,,,,,,,,476,606,,,10,,METAR KMKE 022315Z AUTO 22007KT 10SM FEW047 FEW060 29/22 A2999,,,,,,,,,,SW,32.02,,thin scattered,,,,22.02,98934.38,101420.64
KMKE,09/02/2018 23:20 UTC,101557.75,29,,66.04,4.12,230,,,,,,,,,,,,466,606,,,10,,METAR KMKE 022320Z AUTO 23008KT 10SM FEW046 FEW060 29/22 A2999,,,,,,,,,,SW,32.02,,thin scattered,,,,22.02,98934.38,101420.64
KMKE,09/02/2018 23:25 UTC,101557.75,29,,66.04,4.63,230,,,,,,,,,,,,466,606,,,10,,METAR KMKE 022325Z AUTO 23009KT 10SM FEW046 FEW060 29/22 A2999,,,,,,,,,,SW,32.02,,thin scattered,,,,22.02,98934.38,101420.64
KMKE,09/02/2018 23:30 UTC,101557.75,29,,66.04,3.6,230,,,,,902,,,,,,,466,606,,,10,,METAR KMKE 022330Z AUTO 23007KT 10SM FEW046 FEW060 SCT090 29/22 A2999,,,,,,,,,,SW,32.02,,scattered,,,,22.02,98934.38,101420.64
KMKE,09/02/2018 23:35 UTC,101557.75,29,,66.04,3.09,220,,,,,,,,,,,,466,956,,,10,,METAR KMKE 022335Z AUTO 22006KT 10SM FEW046 FEW095 29/22 A2999,,,,,,,,,,SW,32.02,,thin scattered,,,,22.02,98934.38,101420.64
KMKE,09/02/2018 23:40 UTC,101591.61,29,,66.04,3.6,230,,,,,,,,,,,,906,,,,10,,METAR KMKE 022340Z AUTO 23007KT 10SM FEW090 29/22 A3000,,,,,,,,,,SW,32.02,,thin scattered,,,,22.02,98967.36,101454.45
KMKE,09/02/2018 23:45 UTC,101591.61,29,,66.04,2.06,230,,,,,,,,,,,,906,,,,10,,METAR KMKE 022345Z AUTO 23004KT 10SM FEW090 29/22 A3000,,,,,,,,,,SW,32.02,,thin scattered,,,,22.02,98967.36,101454.45
KMKE,09/02/2018 23:50 UTC,101591.61,29,,66.04,2.06,210,,,,,,,,,,,,902,,,,10,,METAR KMKE 022350Z AUTO 21004KT 10SM SCT090 29/22 A3000,,,,,,,,,,SSW,32.02,,scattered,,,,22.02,98967.36,101454.45
KMKE,09/02/2018 23:52 UTC,101591.61,28.3,21.7,67.53,2.06,200,,,101520,,,,,,3005,,,802,2504,,,10,,KMKE 022352Z 20004KT 10SM SCT080 OVC250 28/22 A3000 RMK AO2 LTG  DSNT SW-N SLP152 T02830217 10311 20283 53005,31.1,28.3,,7620,,,,,,SSW,30.9,,overcast,,,,21.72,98967.36,101460.29
KMKE,09/02/2018 23:55 UTC,101591.61,28,,69.98,3.09,200,,,,,,,,,,,,462,,,,10,,METAR KMKE 022355Z AUTO 20006KT 10SM SCT046 28/22 A3000,,,,,,,,,,SSW,30.66,,scattered,,,,22.01,98967.36,101462.79
KMKE,09/03/2018 00:00 UTC,101591.61,29,21.7,66.04,3.09,230,,,,5,,,,,,,,442,553,,,10,,METAR KMKE 030000Z AUTO 23006KT 10SM SCT044 BKN055 29/22 A3000 RMK AO2  LTG DSNT SW-N TSB54 T02890217,,,,1676.4,,,,,,SW,32.02,thunder,thunder,,,,22.02,98967.36,101454.45
KMKE,09/03/2018 00:05 UTC,101625.47,29,,66.04,2.57,260,,,,,603,,,,,,,346,442,,,10,,METAR KMKE 030005Z AUTO 26005KT 10SM FEW034 SCT044 BKN060 29/22 A3001,,,,1828.8,,,,,,W,32.02,,broken,,,,22.02,99000.35,101488.27
KMKE,09/03/2018 00:10 UTC,101625.47,27,,69.79,4.63,180,,,,13,483,,,,,,,186,392,,,3.5,,METAR KMKE 030010Z AUTO 18009KT 3 1/2SM -RA FEW018 SCT039 BKN048 27/21 A3001,,,,1463.04,,,,,,S,28.84,light rain,light rain,,,,21.01,99000.35,101505.04
KMKE,09/03/2018 00:14 UTC,101659.34,25.6,21.7,79.1,0,0,,,,77,553,,,,,0.025,,186,442,,,3,,KMKE 030014Z COR 00000KT 3SM R01L/3000VP6000FT -TSRA FEW018  SCT044CB BKN055 26/22 A3002 RMK AO2 LTG DSNT ALQDS RAB09  TSE08B09 OCNL LTGIC S TS S MOV NE P0000 T02560217,,,,1676.4,,,,,,N,,light rain/thunderstorm,light rain/thunderstorm,,,,21.7,99033.34,101550.71
KMKE,09/03/2018 00:15 UTC,101659.34,26,,78.68,2.57,20,,,,13,704,,,,,,,216,503,,,3.5,,METAR KMKE 030015Z AUTO 02005KT 3 1/2SM -RA FEW021 BKN050 OVC070 26/22 A3002,,,,1524,,,,,,NNE,,light rain,light rain,,,,22,99033.34,101547.3
KMKE,09/03/2018 00:20 UTC,101659.34,24,,83.37,4.63,10,,,,13,554,,,,,0.508,,186,473,,,10,,METAR KMKE 030020Z AUTO 01009KT 10SM -RA FEW018 BKN047 OVC055 24/21 A3002 RMK P0002,,,,1432.56,,,,,,N,,light rain,light rain,,,,21,99033.34,101564.42
KMKE,09/03/2018 00:25 UTC,101760.93,24,,88.62,8.23,300,10.8,,,13,604,,,,,0.508,,176,473,,,10,,METAR KMKE 030025Z AUTO 30016G21KT 10SM -RA FEW017 BKN047 OVC060 24/22 A3005 RMK P0002,,,,1432.56,,,,,,WNW,,light rain,light rain,,,,22,99132.31,101665.9
KMKE,09/03/2018 00:30 UTC,101760.93,24,,88.62,6.69,310,,,,2481,604,,,,,3.048,,152,473,,,1.5,,METAR KMKE 030030Z AUTO 31013KT 1 1/2SM RA BR SCT015 BKN047 OVC060 24/22 A3005 RMK P0012,,,,1432.56,,,,,,NW,,"rain,mist","rain,mist",,,,22,99132.31,101665.9
KMKE,09/03/2018 00:34 UTC,101760.93,22.8,21.7,93.54,6.69,290,15.95,,,2558,604,,,,,7.366,,152,473,,,1.25,,KMKE 030034Z 29013G31KT 1 1/4SM R01L/2800VP6000FT +TSRA BR SCT015  BKN047CB OVC060 23/22 A3005 RMK AO2 PK WND 30031/0026 LTG  DSNT ALQDS RAB09 TSE2354B09 OCNL LTGIC OHD TS OHD MOV NE  P0029 T02280217,,,15.95,1432.56,,,,300,,WNW,,"heavy rain/thunderstorm,mist","heavy rain/thunderstorm,mist",,,,21.7,99132.31,101676.28
KMKE,09/03/2018 00:35 UTC,101794.79,23,,94.12,6.17,300,8.75,,,2494,604,,,,,7.366,,152,473,,,1.25,,METAR KMKE 030035Z AUTO 30012G17KT 1 1/4SM +RA BR SCT015 BKN047 OVC060 23/22 A3006 RMK P0029,,,,1432.56,,,,,,WNW,,"heavy rain,mist","heavy rain,mist",,,,22,99165.29,101708.36
KMKE,09/03/2018 00:37 UTC,101794.79,22.8,21.7,93.54,4.12,280,10.8,,,2546,604,,,,,7.366,,152,473,,,1.5,,KMKE 030037Z 28008G21KT 1 1/2SM R01L/2800VP6000FT TSRA BR SCT015  BKN047CB OVC060 23/22 A3006 RMK AO2 PK WND 30031/0026 WSHFT  0022 LTG DSNT ALQDS RAB09 TSE2354B09 OCNL LTGIC OHD TS OHD  MOV NE P0029 T02280217,,,15.95,1432.56,,,,300,,W,,"thunderstorm,mist","thunderstorm,mist",,,,21.7,99165.29,101710.11
KMKE,09/03/2018 00:39 UTC,101794.79,22.8,21.7,93.54,3.6,270,8.75,,,2546,604,,,,,7.62,,152,473,,,3,,KMKE 030039Z 27007G17KT 3SM TSRA BR SCT015 BKN047CB OVC060 23/22  A3006 RMK AO2 PK WND 30031/0026 WSHFT 0022 LTG DSNT ALQDS  RAB09 TSE2354B09 OCNL LTGIC OHD TS OHD MOV NE P0030 T02280217,,,15.95,1432.56,,,,300,,W,,"thunderstorm,mist","thunderstorm,mist",,,,21.7,99165.29,101710.11
KMKE,09/03/2018 00:40 UTC,101794.79,23,,94.12,3.6,260,,,,2481,604,,,,,7.62,,152,473,,,1.5,,METAR KMKE 030040Z AUTO 26007KT 1 1/2SM RA BR SCT015 BKN047 OVC060 23/22 A3006 RMK P0030,,,,1432.56,,,,,,W,,"rain,mist","rain,mist",,,,22,99165.29,101708.36
KMKE,09/03/2018 00:41 UTC,101794.79,22.8,21.7,93.54,3.6,260,8.75,,,2546,474,,,,,7.62,,103,303,,,3,,KMKE 030041Z 26007G17KT 3SM TSRA BR BKN010 BKN030 OVC047 23/22  A3006 RMK AO2 PK WND 30031/0026 WSHFT 0022 LTG DSNT ALQDS  RAB09 TSE2354B09 OCNL LTGIC OHD TS OHD MOV NE P0030 T02280217,,,15.95,304.8,,,,300,,W,,"thunderstorm,mist","thunderstorm,mist",,,,21.7,99165.29,101710.11
KMKE,09/03/2018 00:45 UTC,101760.93,23,,94.12,2.06,290,,,,2481,504,,,,,8.128,,72,373,,,3,,METAR KMKE 030045Z AUTO 29004KT 3SM RA BR SCT007 BKN037 OVC050 23/22 A3005 RMK P0032,,,,1127.76,,,,,,WNW,,"rain,mist","rain,mist",,,,22,99132.31,101674.54
KMKE,09/03/2018 00:48 UTC,101760.93,23,22,94.12,2.57,250,,,,2558,504,,,,,8.636,,72,373,,,4,,KMKE 030048Z 25005KT 4SM +TSRA BR SCT007 BKN037CB OVC050 23/22  A3005 RMK AO2 PK WND 30031/0026 WSHFT 0022 LTG DSNT ALQDS  RAB09 TSE2354B09 OCNL LTGIC OHD TS OHD MOV NE P0034,,,15.95,1127.76,,,,300,,WSW,,"heavy rain/thunderstorm,mist","heavy rain/thunderstorm,mist",,,,22,99132.31,101674.54
KMKE,09/03/2018 00:50 UTC,101794.79,23,,94.12,3.09,240,,,,2494,504,,,,,8.636,,72,373,,,4,,METAR KMKE 030050Z AUTO 24006KT 4SM +RA BR SCT007 BKN037 OVC050 23/22 A3006 RMK P0034,,,,1127.76,,,,,,WSW,,"heavy rain,mist","heavy rain,mist",,,,22,99165.29,101708.36
KMKE,09/03/2018 00:52 UTC,101794.79,22.8,21.7,93.54,3.09,230,,,101750,2557,484,,,,,8.636,,76,182,,,4,,KMKE 030052Z 23006KT 4SM -TSRA BR FEW007 SCT018CB OVC048 23/22  A3006 RMK AO2 PK WND 30031/0026 WSHFT 0022 LTG DSNT ALQDS  RAB09 TSE2354B09 SLP175 OCNL LTGIC OHD TS SE MOV E P0034  T02280217,,,15.95,1463.04,,,,300,,SW,,"light rain/thunderstorm,mist","light rain/thunderstorm,mist",,,,21.7,99165.29,101710.11
KMKE,09/03/2018 00:55 UTC,101794.79,23,,94.12,4.12,230,,,,2493,704,,,,,,,76,503,,,6,,METAR KMKE 030055Z AUTO 23008KT 6SM -RA BR FEW007 BKN050 OVC070 23/22 A3006,,,,1524,,,,,,SW,,"light rain,mist","light rain,mist",,,,22,99165.29,101708.36
KMKE,09/03/2018 01:00 UTC,101760.93,23,,88.54,3.09,220,,,,2493,804,,,,,,,96,603,,,6,,METAR KMKE 030100Z AUTO 22006KT 6SM -RA BR FEW009 BKN060 OVC080 23/21 A3005,,,,1828.8,,,,,,SW,,"light rain,mist","light rain,mist",,,,21,99132.31,101674.56
KMKE,09/03/2018 01:05 UTC,101794.79,23,,88.54,3.09,220,,,,2493,804,,,,,0.254,,96,603,,,6,,METAR KMKE 030105Z AUTO 22006KT 6SM -RA BR FEW009 BKN060 OVC080 23/21 A3006 RMK P0001,,,,1828.8,,,,,,SW,,"light rain,mist","light rain,mist",,,,21,99165.29,101708.39
KMKE,09/03/2018 01:10 UTC,101794.79,23,,88.54,2.57,250,,,,2493,,,,,,0.508,,602,854,,,4,,METAR KMKE 030110Z AUTO 25005KT 4SM -RA BR SCT060 OVC085 23/21 A3006 RMK P0002,,,,2590.8,,,,,,WSW,,"light rain,mist","light rain,mist",,,,21,99165.29,101708.39
KMKE,09/03/2018 01:15 UTC,101794.79,23,,88.54,2.57,280,,,,2481,1104,,,,,0.762,,602,853,,,4,,METAR KMKE 030115Z AUTO 28005KT 4SM RA BR SCT060 BKN085 OVC110 23/21 A3006 RMK P0003,,,,2590.8,,,,,,W,,"rain,mist","rain,mist",,,,21,99165.29,101708.39
KMKE,09/03/2018 01:20 UTC,101794.79,23,,88.54,3.09,270,,,,13,1104,,,,,1.016,,656,903,,,8,,METAR KMKE 030120Z AUTO 27006KT 8SM -RA FEW065 BKN090 OVC110 23/21 A3006 RMK P0004,,,,2743.2,,,,,,W,,light rain,light rain,,,,21,99165.29,101708.39
KMKE,09/03/2018 01:25 UTC,101794.79,23,,88.54,3.09,270,,,,13,,,,,,1.016,,903,1103,,,10,,METAR KMKE 030125Z AUTO 27006KT 10SM -RA BKN090 BKN110 23/21 A3006 RMK P0004,,,,2743.2,,,,,,W,,light rain,light rain,,,,21,99165.29,101708.39
KMKE,09/03/2018 01:30 UTC,101828.66,23,,88.54,3.09,250,,,,13,,,,,,1.016,,902,1104,,,10,,METAR KMKE 030130Z AUTO 25006KT 10SM -RA SCT090 OVC110 23/21 A3007 RMK P0004,,,,3352.8,,,,,,WSW,,light rain,light rain,,,,21,99198.29,101742.23
KMKE,09/03/2018 01:35 UTC,101828.66,23,,88.54,2.57,240,,,,13,,,,,,1.27,,853,1104,,,9,,METAR KMKE 030135Z AUTO 24005KT 9SM -RA BKN085 OVC110 23/21 A3007 RMK P0005,,,,2590.8,,,,,,WSW,,light rain,light rain,,,,21,99198.29,101742.23
KMKE,09/03/2018 01:40 UTC,101828.66,22,,94.07,2.57,230,,,,2493,1004,,,,,1.524,,506,802,,,5,,METAR KMKE 030140Z AUTO 23005KT 5SM -RA BR FEW050 SCT080 OVC100 22/21 A3007 RMK P0006,,,,3048,,,,,,SW,,"light rain,mist","light rain,mist",,,,21,99198.29,101750.94
KMKE,09/03/2018 01:45 UTC,101828.66,22,,94.07,2.57,230,,,,2481,1004,,,,,1.778,,506,803,,,4,,METAR KMKE 030145Z AUTO 23005KT 4SM RA BR FEW050 BKN080 OVC100 22/21 A3007 RMK P0007,,,,2438.4,,,,,,SW,,"rain,mist","rain,mist",,,,21,99198.29,101750.94
KMKE,09/03/2018 01:50 UTC,101828.66,22,,94.07,2.06,220,,,,2481,1104,,,,,2.032,,502,803,,,4,,METAR KMKE 030150Z AUTO 22004KT 4SM RA BR SCT050 BKN080 OVC110 22/21 A3007 RMK P0008,,,,2438.4,,,,,,SW,,"rain,mist","rain,mist",,,,21,99198.29,101750.94
KMKE,09/03/2018 01:52 UTC,101862.52,22.2,21.1,93.51,3.09,210,,,101820,2546,1104,,,,,2.032,,502,803,,,5,,KMKE 030152Z 21006KT 5SM TSRA BR SCT050CB BKN080 OVC110 22/21  A3008 RMK AO2 LTG DSNT E-SW SLP182 OCNL LTGICCG SW AND S TS  SW MOV NE P0008 T02220211,,,,2438.4,,,,,,SSW,,"thunderstorm,mist","thunderstorm,mist",,,,21.1,99231.27,101783.02
KMKE,09/03/2018 01:55 UTC,101862.52,22,,94.07,3.6,210,,,,13,1104,,,,,0.254,,706,903,,,7,,METAR KMKE 030155Z AUTO 21007KT 7SM -RA FEW070 BKN090 OVC110 22/21 A3008 RMK P0001,,,,2743.2,,,,,,SSW,,light rain,light rain,,,,21,99231.27,101784.77
KMKE,09/03/2018 02:00 UTC,101896.38,22,,94.07,4.63,220,,,,13,1204,,,,,,,706,903,,,7,,METAR KMKE 030200Z AUTO 22009KT 7SM -RA FEW070 BKN090 OVC120 22/21 A3009,,,,2743.2,,,,,,SW,,light rain,light rain,,,,21,99264.26,101818.61
KMKE,09/03/2018 02:05 UTC,101896.38,22,,94.07,4.63,220,,,,2493,1104,,,,,0.762,,496,953,,,5,,METAR KMKE 030205Z AUTO 22009KT 5SM -RA BR FEW049 BKN095 OVC110 22/21 A3009 RMK P0003,,,,2895.6,,,,,,SW,,"light rain,mist","light rain,mist",,,,21,99264.26,101818.61
KMKE,09/03/2018 02:10 UTC,101896.38,22,,94.07,3.6,210,,,,2493,1004,,,,,1.27,,496,803,,,4,,METAR KMKE 030210Z AUTO 21007KT 4SM -RA BR FEW049 BKN080 OVC100 22/21 A3009 RMK P0005,,,,2438.4,,,,,,SSW,,"light rain,mist","light rain,mist",,,,21,99264.26,101818.61
KMKE,09/03/2018 02:15 UTC,101862.52,22,,94.07,2.57,200,,,,13,953,,,,,1.27,,486,752,,,7,,METAR KMKE 030215Z AUTO 20005KT 7SM -RA FEW048 SCT075 BKN095 22/21 A3008 RMK P0005,,,,2895.6,,,,,,SSW,,light rain,light rain,,,,21,99231.27,101784.77
KMKE,09/03/2018 02:20 UTC,101862.52,22,,94.07,3.09,220,,,,13,1203,,,,,1.524,,486,1003,,,9,,METAR KMKE 030220Z AUTO 22006KT 9SM -RA FEW048 BKN100 BKN120 22/21 A3008 RMK P0006,,,,3048,,,,,,SW,,light rain,light rain,,,,21,99231.27,101784.77
KMKE,09/03/2018 02:25 UTC,101862.52,22,,94.07,3.6,230,,,,13,1103,,,,,1.524,,486,756,,,9,,METAR KMKE 030225Z AUTO 23007KT 9SM -RA FEW048 FEW075 BKN110 22/21 A3008 RMK P0006,,,,3352.8,,,,,,SW,,light rain,light rain,,,,21,99231.27,101784.77
KMKE,09/03/2018 02:30 UTC,101862.52,22,,94.07,3.09,250,,,,1,1103,,,,,1.778,,486,756,,,8,,METAR KMKE 030230Z AUTO 25006KT 8SM RA FEW048 FEW075 BKN110 22/21 A3008 RMK P0007,,,,3352.8,,,,,,WSW,,rain,rain,,,,21,99231.27,101784.77
KMKE,09/03/2018 02:35 UTC,101862.52,22,,94.07,3.6,240,,,,1,,,,,,2.032,,756,1003,,,7,,METAR KMKE 030235Z AUTO 24007KT 7SM RA FEW075 BKN100 22/21 A3008 RMK P0008,,,,3048,,,,,,WSW,,rain,rain,,,,21,99231.27,101784.77
KMKE,09/03/2018 02:40 UTC,101862.52,22,,94.07,4.12,230,,,,1,,,,,,2.286,,902,1103,,,7,,METAR KMKE 030240Z AUTO 23008KT 7SM RA SCT090 BKN110 22/21 A3008 RMK P0009,,,,3352.8,,,,,,SW,,rain,rain,,,,21,99231.27,101784.77
KMKE,09/03/2018 02:45 UTC,101828.66,22,,94.07,4.12,240,,,,1,,,,,,2.286,,806,1103,,,9,,METAR KMKE 030245Z AUTO 24008KT 9SM RA FEW080 BKN110 22/21 A3007 RMK P0009,,,,3352.8,,,,,,WSW,,rain,rain,,,,21,99198.29,101750.94
KMKE,09/03/2018 02:50 UTC,101828.66,22,,94.07,3.6,260,,,,13,1203,,,,,2.54,,506,1003,,,10,,METAR KMKE 030250Z AUTO 26007KT 10SM -RA FEW050 BKN100 BKN120 22/21 A3007 RMK P0010,,,,3048,,,,,,W,,light rain,light rain,,,,21,99198.29,101750.94
KMKE,09/03/2018 02:52 UTC,101828.66,22.2,21.1,93.51,4.12,260,,,101800,77,1203,,,,7,2.54,13.208,506,1003,,,10,,KMKE 030252Z 26008KT 10SM -TSRA FEW050CB BKN100 BKN120 22/21 A3007 RMK AO2 SLP180 OCNL LTGIC SE TS SE MOV NE P0010 60052  T02220211 50007,,,,3048,,,,,,W,,light rain/thunderstorm,light rain/thunderstorm,,,,21.1,99198.29,101749.19
KMKE,09/03/2018 02:55 UTC,101862.52,23,,88.54,4.12,250,,,,13,,,,,,,,856,1103,,,10,,METAR KMKE 030255Z AUTO 25008KT 10SM -RA FEW085 BKN110 23/21 A3008,,,,3352.8,,,,,,WSW,,light rain,light rain,,,,21,99231.27,101776.06
KMKE,09/03/2018 03:00 UTC,101862.52,23,,88.54,4.63,240,,,,13,1203,,,,,,,806,1003,,,7,,METAR KMKE 030300Z AUTO 24009KT 7SM -RA FEW080 BKN100 BKN120 23/21 A3008,,,,3048,,,,,,WSW,,light rain,light rain,,,,21,99231.27,101776.06
KMKE,09/03/2018 03:05 UTC,101862.52,23,,88.54,5.66,230,,,,2493,,,,,,1.016,,903,1103,,,5,,METAR KMKE 030305Z AUTO 23011KT 5SM -RA BR BKN090 BKN110 23/21 A3008 RMK P0004,,,,2743.2,,,,,,SW,,"light rain,mist","light rain,mist",,,,21,99231.27,101776.06
KMKE,09/03/2018 03:10 UTC,101896.38,22,,94.07,6.17,230,,,,2493,,,,,,1.27,,903,1103,,,6,,METAR KMKE 030310Z AUTO 23012KT 6SM -RA BR BKN090 BKN110 22/21 A3009 RMK P0005,,,,2743.2,,,,,,SW,,"light rain,mist","light rain,mist",,,,21,99264.26,101818.61
KMKE,09/03/2018 03:15 UTC,101896.38,22,,94.07,7.2,240,,,,13,1204,,,,,1.524,,506,903,,,8,,METAR KMKE 030315Z AUTO 24014KT 8SM -RA FEW050 BKN090 OVC120 22/21 A3009 RMK P0006,,,,2743.2,,,,,,WSW,,light rain,light rain,,,,21,99264.26,101818.61
KMKE,09/03/2018 03:20 UTC,101862.52,23,,88.54,6.69,250,9.26,,,13,1204,,,,,1.778,,506,903,,,10,,METAR KMKE 030320Z AUTO 25013G18KT 10SM -RA FEW050 BKN090 OVC120 23/21 A3008 RMK P0007,,,,2743.2,,,,,,WSW,,light rain,light rain,,,,21,99231.27,101776.06
KMKE,09/03/2018 03:25 UTC,101862.52,23,,88.54,6.17,250,8.75,,,13,,,,,,1.778,,952,1103,,,10,,METAR KMKE 030325Z AUTO 25012G17KT 10SM -RA SCT095 BKN110 23/21 A3008 RMK P0007,,,,3352.8,,,,,,WSW,,light rain,light rain,,,,21,99231.27,101776.06
KMKE,09/03/2018 03:30 UTC,101828.66,23,,88.54,4.63,260,,,,13,,,,,,2.032,,952,1103,,,10,,METAR KMKE 030330Z AUTO 26009KT 10SM -RA SCT095 BKN110 23/21 A3007 RMK P0008,,,,3352.8,,,,,,W,,light rain,light rain,,,,21,99198.29,101742.23
KMKE,09/03/2018 03:31 UTC,101828.66,22.8,20.6,87.44,4.63,260,,,,13,1304,,,,,2.032,,952,1103,,,10,,KMKE 030331Z 26009KT 10SM -RA SCT095 BKN110 OVC130 23/21 A3007 RMK AO2 TSE25 P0008 T02280206,,,,3352.8,,,,,,W,,light rain,light rain,,,,20.6,99198.29,101743.98
KMKE,09/03/2018 03:35 UTC,101828.66,23,,88.54,4.63,270,,,,13,,,,,,2.032,,952,1103,,,10,,METAR KMKE 030335Z AUTO 27009KT 10SM -RA SCT095 BKN110 23/21 A3007 RMK P0008,,,,3352.8,,,,,,W,,light rain,light rain,,,,21,99198.29,101742.23
KMKE,09/03/2018 03:40 UTC,101828.66,23,,88.54,4.12,260,,,,13,,,,,,2.032,,952,1103,,,10,,METAR KMKE 030340Z AUTO 26008KT 10SM -RA SCT095 BKN110 23/21 A3007 RMK P0008,,,,3352.8,,,,,,W,,light rain,light rain,,,,21,99198.29,101742.23
KMKE,09/03/2018 03:45 UTC,101828.66,23,,88.54,4.12,260,,,,13,,,,,,2.032,,952,1103,,,10,,METAR KMKE 030345Z AUTO 26008KT 10SM -RA SCT095 BKN110 23/21 A3007 RMK P0008,,,,3352.8,,,,,,W,,light rain,light rain,,,,21,99198.29,101742.23
KMKE,09/03/2018 03:50 UTC,101828.66,23,,88.54,3.09,240,,,,13,,,,,,2.032,,952,1103,,,10,,METAR KMKE 030350Z AUTO 24006KT 10SM -RA SCT095 BKN110 23/21 A3007 RMK P0008,,,,3352.8,,,,,,WSW,,light rain,light rain,,,,21,99198.29,101742.23
KMKE,09/03/2018 03:52 UTC,101828.66,22.8,20.6,87.44,3.6,230,,,101780,,1304,,,,,2.032,,956,1102,,,10,,KMKE 030352Z 23007KT 10SM FEW095 SCT110 OVC130 23/21 A3007 RMK AO2  RAE51 TSE25 SLP178 OCNL LTG DSNT SW CB DSNT SW P0008  T02280206,,,,3962.4,,,,,,SW,,,overcast,,,,20.6,99198.29,101743.98
KMKE,09/03/2018 03:55 UTC,101828.66,23,,88.54,3.09,230,,,,,,,,,,,,1006,,,,10,,METAR KMKE 030355Z AUTO 23006KT 10SM FEW100 23/21 A3007,,,,,,,,,,SW,,,thin scattered,,,,21,99198.29,101742.23
KMKE,09/03/2018 04:00 UTC,101828.66,23,,88.54,3.09,240,,,,,,,,,,,,1,,,,10,,METAR KMKE 030400Z AUTO 24006KT 10SM CLR 23/21 A3007,,,,,,,,,,WSW,,,clear,,,,21,99198.29,101742.23
KMKE,09/03/2018 04:05 UTC,101828.66,23,,88.54,3.09,220,,,,,,,,,,,,1,,,,10,,METAR KMKE 030405Z AUTO 22006KT 10SM CLR 23/21 A3007,,,,,,,,,,SW,,,clear,,,,21,99198.29,101742.23
KMKE,09/03/2018 04:10 UTC,101862.52,22,,94.07,2.57,230,,,,,,,,,,,,1,,,,10,,METAR KMKE 030410Z AUTO 23005KT 10SM CLR 22/21 A3008,,,,,,,,,,SW,,,clear,,,,21,99231.27,101784.77
KMKE,09/03/2018 04:15 UTC,101862.52,22,,94.07,3.09,220,,,,,,,,,,,,1,,,,10,,METAR KMKE 030415Z AUTO 22006KT 10SM CLR 22/21 A3008,,,,,,,,,,SW,,,clear,,,,21,99231.27,101784.77
KMKE,09/03/2018 04:20 UTC,101862.52,22,,94.07,2.06,260,,,,,,,,,,,,1,,,,10,,METAR KMKE 030420Z AUTO 26004KT 10SM CLR 22/21 A3008,,,,,,,,,,W,,,clear,,,,21,99231.27,101784.77
KMKE,09/03/2018 04:25 UTC,101862.52,23,,88.54,2.06,230,,,,,,,,,,,,1,,,,10,,METAR KMKE 030425Z AUTO 23004KT 10SM CLR 23/21 A3008,,,,,,,,,,SW,,,clear,,,,21,99231.27,101776.06
KMKE,09/03/2018 04:30 UTC,101862.52,22,,94.07,3.09,210,,,,,,,,,,,,1,,,,10,,METAR KMKE 030430Z AUTO 21006KT 10SM CLR 22/21 A3008,,,,,,,,,,SSW,,,clear,,,,21,99231.27,101784.77
KMKE,09/03/2018 04:35 UTC,101862.52,22,,94.07,2.06,200,,,,,,,,,,,,1,,,,10,,METAR KMKE 030435Z AUTO 20004KT 10SM CLR 22/21 A3008,,,,,,,,,,SSW,,,clear,,,,21,99231.27,101784.77
KMKE,09/03/2018 04:40 UTC,101896.38,22,,94.07,3.09,210,,,,,,,,,,,,1106,,,,10,,METAR KMKE 030440Z AUTO 21006KT 10SM FEW110 22/21 A3009,,,,,,,,,,SSW,,,thin scattered,,,,21,99264.26,101818.61
KMKE,09/03/2018 04:45 UTC,101896.38,22,,94.07,3.6,200,,,,,,,,,,,,1106,,,,10,,METAR KMKE 030445Z AUTO 20007KT 10SM FEW110 22/21 A3009,,,,,,,,,,SSW,,,thin scattered,,,,21,99264.26,101818.61
KMKE,09/03/2018 04:50 UTC,101930.25,22,,94.07,3.09,200,,,,,,,,,,,,1,,,,10,,METAR KMKE 030450Z AUTO 20006KT 10SM CLR 22/21 A3010,,,,,,,,,,SSW,,,clear,,,,21,99297.26,101852.46
KMKE,09/03/2018 04:52 UTC,101930.25,22.2,21.1,93.51,3.09,210,,,101870,13,,,,,,0.025,,1106,1404,,,10,,KMKE 030452Z 21006KT 10SM -RA FEW110 OVC140 22/21 A3010 RMK AO2  LTG DSNT S RAB52 SLP187 OCNL LTG DSNT S CB DSNT S MOV NE  P0000 T02220211,,,,4267.2,,,,,,SSW,,light rain,light rain,,,,21.1,99297.26,101850.71
KMKE,09/03/2018 04:55 UTC,101930.25,22,,94.07,3.6,210,,,,13,,,,,,,,1,,,,10,,METAR KMKE 030455Z AUTO 21007KT 10SM -RA CLR 22/21 A3010,,,,,,,,,,SSW,,light rain,light rain,,,,21,99297.26,101852.46
KMKE,09/03/2018 05:00 UTC,101930.25,22,,94.07,4.63,210,,,,13,,,,,,,,1106,,,,10,,METAR KMKE 030500Z AUTO 21009KT 10SM -RA FEW110 22/21 A3010,,,,,,,,,,SSW,,light rain,light rain,,,,21,99297.26,101852.46
KMKE,09/03/2018 05:05 UTC,101930.25,22,,94.07,4.63,220,,,,13,,,,,,,,1106,,,,10,,METAR KMKE 030505Z AUTO 22009KT 10SM -RA FEW110 22/21 A3010,,,,,,,,,,SW,,light rain,light rain,,,,21,99297.26,101852.46
KMKE,09/03/2018 05:10 UTC,101930.25,22,,94.07,5.66,220,,,,13,,,,,,,,1106,,,,10,,METAR KMKE 030510Z AUTO 22011KT 10SM -RA FEW110 22/21 A3010,,,,,,,,,,SW,,light rain,light rain,,,,21,99297.26,101852.46
KMKE,09/03/2018 05:15 UTC,101930.25,22,,94.07,4.63,230,,,,,,,,,,,,1106,,,,10,,METAR KMKE 030515Z AUTO 23009KT 10SM FEW110 22/21 A3010,,,,,,,,,,SW,,,thin scattered,,,,21,99297.26,101852.46
KMKE,09/03/2018 05:20 UTC,101964.11,22,,94.07,5.66,220,,,,,,,,,,,,1106,,,,10,,METAR KMKE 030520Z AUTO 22011KT 10SM FEW110 22/21 A3011,,,,,,,,,,SW,,,thin scattered,,,,21,99330.24,101886.29
KMKE,09/03/2018 05:25 UTC,101930.25,22,,94.07,5.66,230,,,,,,,,,,,,1106,,,,10,,METAR KMKE 030525Z AUTO 23011KT 10SM FEW110 22/21 A3010,,,,,,,,,,SW,,,thin scattered,,,,21,99297.26,101852.46
KMKE,09/03/2018 05:30 UTC,101930.25,22,,94.07,4.63,230,,,,,,,,,,,,1106,,,,10,,METAR KMKE 030530Z AUTO 23009KT 10SM FEW110 22/21 A3010,,,,,,,,,,SW,,,thin scattered,,,,21,99297.26,101852.46
KMKE,09/03/2018 05:35 UTC,101964.11,22,,94.07,5.66,220,,,,13,,,,,,,,1102,,,,10,,METAR KMKE 030535Z AUTO 22011KT 10SM -RA SCT110 22/21 A3011,,,,,,,,,,SW,,light rain,light rain,,,,21,99330.24,101886.29
KMKE,09/03/2018 05:40 UTC,101930.25,22,,94.07,4.63,230,,,,13,,,,,,,,506,1102,,,10,,METAR KMKE 030540Z AUTO 23009KT 10SM -RA FEW050 SCT110 22/21 A3010,,,,,,,,,,SW,,light rain,light rain,,,,21,99297.26,101852.46
KMKE,09/03/2018 05:45 UTC,101964.11,22,,94.07,5.14,230,,,,13,,,,,,,,506,1102,,,10,,METAR KMKE 030545Z AUTO 23010KT 10SM -RA FEW050 SCT110 22/21 A3011,,,,,,,,,,SW,,light rain,light rain,,,,21,99330.24,101886.29
KMKE,09/03/2018 05:50 UTC,101930.25,22,,94.07,4.63,220,,,,13,,,,,,,,506,1102,,,10,,METAR KMKE 030550Z AUTO 22009KT 10SM -RA FEW050 SCT110 22/21 A3010,,,,,,,,,,SW,,light rain,light rain,,,,21,99297.26,101852.46
KMKE,09/03/2018 05:52 UTC,101930.25,22.2,21.1,93.51,5.14,240,,,101890,13,1404,,,,3010,0.025,,506,1102,15.24,,10,,KMKE 030552Z 24010KT 10SM -RA FEW050 SCT110 OVC140 22/21 A3010 RMK AO2 LTG DSNT SE AND S RAE11B32 SLP189 OCNL LTG DSNT SE CB  DSNT SE MOV NE P0000 60060 T02220211 10289 20222 403110206  53010,28.9,22.2,,4267.2,,31.1,20.6,,,WSW,,light rain,light rain,,,,21.1,99297.26,101850.71
KMKE,09/03/2018 05:55 UTC,101930.25,22,,94.07,4.12,230,,,,13,,,,,,,,1006,,,,10,,METAR KMKE 030555Z AUTO 23008KT 10SM -RA FEW100 22/21 A3010,,,,,,,,,,SW,,light rain,light rain,,,,21,99297.26,101852.46
KMKE,09/03/2018 06:00 UTC,101930.25,22,,94.07,4.63,230,,,,13,,,,,,,,1006,,,,10,,METAR KMKE 030600Z AUTO 23009KT 10SM -RA FEW100 22/21 A3010,,,,,,,,,,SW,,light rain,light rain,,,,21,99297.26,101852.46
KMKE,09/03/2018 06:05 UTC,101930.25,23,,88.54,4.12,230,,,,13,,,,,,,,1206,,,,10,,METAR KMKE 030605Z AUTO 23008KT 10SM -RA FEW120 23/21 A3010,,,,,,,,,,SW,,light rain,light rain,,,,21,99297.26,101843.74
KMKE,09/03/2018 06:10 UTC,101930.25,22,,94.07,4.12,230,,,,13,,,,,,,,1102,,,,8,,METAR KMKE 030610Z AUTO 23008KT 8SM -RA SCT110 22/21 A3010,,,,,,,,,,SW,,light rain,light rain,,,,21,99297.26,101852.46
KMKE,09/03/2018 06:15 UTC,101930.25,22,,94.07,4.12,220,,,,2493,,,,,,0.254,,1102,,,,6,,METAR KMKE 030615Z AUTO 22008KT 6SM -RA BR SCT110 22/21 A3010 RMK P0001,,,,,,,,,,SW,,"light rain,mist","light rain,mist",,,,21,99297.26,101852.46
KMKE,09/03/2018 06:20 UTC,101930.25,22,,94.07,3.6,210,,,,2493,,,,,,0.762,,1102,,,,6,,METAR KMKE 030620Z AUTO 21007KT 6SM -RA BR SCT110 22/21 A3010 RMK P0003,,,,,,,,,,SSW,,"light rain,mist","light rain,mist",,,,21,99297.26,101852.46
KMKE,09/03/2018 06:25 UTC,101930.25,22,,94.07,3.6,200,,,,13,,,,,,0.762,,1102,,,,8,,METAR KMKE 030625Z AUTO 20007KT 8SM -RA SCT110 22/21 A3010 RMK P0003,,,,,,,,,,SSW,,light rain,light rain,,,,21,99297.26,101852.46
KMKE,09/03/2018 06:30 UTC,101930.25,22,,94.07,4.12,200,,,,13,,,,,,0.762,,1102,,,,10,,METAR KMKE 030630Z AUTO 20008KT 10SM -RA SCT110 22/21 A3010 RMK P0003,,,,,,,,,,SSW,,light rain,light rain,,,,21,99297.26,101852.46
KMKE,09/03/2018 06:35 UTC,101964.11,22,,94.07,5.66,210,8.23,,,13,,,,,,0.762,,1102,,,,10,,METAR KMKE 030635Z AUTO 21011G16KT 10SM -RA SCT110 22/21 A3011 RMK P0003,,,,,,,,,,SSW,,light rain,light rain,,,,21,99330.24,101886.29
KMKE,09/03/2018 06:40 UTC,101964.11,22,,94.07,5.14,210,,,,13,,,,,,0.762,,1102,,,,10,,METAR KMKE 030640Z AUTO 21010KT 10SM -RA SCT110 22/21 A3011 RMK P0003,,,,,,,,,,SSW,,light rain,light rain,,,,21,99330.24,101886.29
KMKE,09/03/2018 06:45 UTC,101964.11,22,,94.07,5.14,220,,,,13,,,,,,1.016,,1202,,,,10,,METAR KMKE 030645Z AUTO 22010KT 10SM -RA SCT120 22/21 A3011 RMK P0004,,,,,,,,,,SW,,light rain,light rain,,,,21,99330.24,101886.29
KMKE,09/03/2018 06:50 UTC,101964.11,22,,94.07,5.14,210,,,,13,,,,,,1.016,,1102,,,,10,,METAR KMKE 030650Z AUTO 21010KT 10SM -RA SCT110 22/21 A3011 RMK P0004,,,,,,,,,,SSW,,light rain,light rain,,,,21,99330.24,101886.29
KMKE,09/03/2018 06:52 UTC,101964.11,21.7,20.6,93.48,5.14,210,,,101900,13,1404,,,,,1.016,,506,1102,,,10,,KMKE 030652Z 21010KT 10SM -RA FEW050 SCT110 OVC140 22/21 A3011 RMK AO2 LTG DSNT SE AND S SLP190 P0004 T02170206,,,,4267.2,,,,,,SSW,,light rain,light rain,,,,20.6,99330.24,101888.92
KMKE,09/03/2018 06:55 UTC,101964.11,22,,94.07,5.14,210,,,,13,,,,,,,,1202,,,,10,,METAR KMKE 030655Z AUTO 21010KT 10SM -RA SCT120 22/21 A3011,,,,,,,,,,SSW,,light rain,light rain,,,,21,99330.24,101886.29
KMKE,09/03/2018 07:00 UTC,101930.25,22,,94.07,4.63,200,,,,13,,,,,,,,1202,,,,9,,METAR KMKE 030700Z AUTO 20009KT 9SM -RA SCT120 22/21 A3010,,,,,,,,,,SSW,,light rain,light rain,,,,21,99297.26,101852.46
KMKE,09/03/2018 07:05 UTC,101930.25,22,,94.07,3.6,210,,,,13,,,,,,0.254,,1103,,,,9,,METAR KMKE 030705Z AUTO 21007KT 9SM -RA BKN110 22/21 A3010 RMK P0001,,,,3352.8,,,,,,SSW,,light rain,light rain,,,,21,99297.26,101852.46
KMKE,09/03/2018 07:10 UTC,101930.25,22,,94.07,4.63,210,,,,13,,,,,,0.254,,1103,,,,10,,METAR KMKE 030710Z AUTO 21009KT 10SM -RA BKN110 22/21 A3010 RMK P0001,,,,3352.8,,,,,,SSW,,light rain,light rain,,,,21,99297.26,101852.46
KMKE,09/03/2018 07:15 UTC,101930.25,22,,94.07,4.12,210,,,,13,,,,,,0.254,,1103,,,,10,,METAR KMKE 030715Z AUTO 21008KT 10SM -RA BKN110 22/21 A3010 RMK P0001,,,,3352.8,,,,,,SSW,,light rain,light rain,,,,21,99297.26,101852.46
KMKE,09/03/2018 07:20 UTC,101964.11,22,,94.07,5.14,210,,,,13,,,,,,0.254,,1103,,,,10,,METAR KMKE 030720Z AUTO 21010KT 10SM -RA BKN110 22/21 A3011 RMK P0001,,,,3352.8,,,,,,SSW,,light rain,light rain,,,,21,99330.24,101886.29
KMKE,09/03/2018 07:25 UTC,101964.11,22,,88.46,4.63,210,,,,13,,,,,,0.254,,1103,,,,10,,METAR KMKE 030725Z AUTO 21009KT 10SM -RA BKN110 22/20 A3011 RMK P0001,,,,3352.8,,,,,,SSW,,light rain,light rain,,,,20,99330.24,101886.31
KMKE,09/03/2018 07:30 UTC,101964.11,22,,88.46,4.12,210,,,,13,,,,,,0.254,,1103,,,,10,,METAR KMKE 030730Z AUTO 21008KT 10SM -RA BKN110 22/20 A3011 RMK P0001,,,,3352.8,,,,,,SSW,,light rain,light rain,,,,20,99330.24,101886.31
KMKE,09/03/2018 07:35 UTC,101964.11,22,,88.46,3.6,210,,,,13,,,,,,0.254,,506,1103,,,10,,METAR KMKE 030735Z AUTO 21007KT 10SM -RA FEW050 BKN110 22/20 A3011 RMK P0001,,,,3352.8,,,,,,SSW,,light rain,light rain,,,,20,99330.24,101886.31
KMKE,09/03/2018 07:40 UTC,101964.11,22,,88.46,4.12,210,,,,13,,,,,,0.254,,506,1103,,,10,,METAR KMKE 030740Z AUTO 21008KT 10SM -RA FEW050 BKN110 22/20 A3011 RMK P0001,,,,3352.8,,,,,,SSW,,light rain,light rain,,,,20,99330.24,101886.31
KMKE,09/03/2018 07:45 UTC,101964.11,22,,88.46,3.09,220,,,,13,,,,,,0.254,,506,1103,,,10,,METAR KMKE 030745Z AUTO 22006KT 10SM -RA FEW050 BKN110 22/20 A3011 RMK P0001,,,,3352.8,,,,,,SW,,light rain,light rain,,,,20,99330.24,101886.31
KMKE,09/03/2018 07:50 UTC,101964.11,22,,88.46,3.6,220,,,,,,,,,,0.254,,506,1103,,,10,,METAR KMKE 030750Z AUTO 22007KT 10SM FEW050 BKN110 22/20 A3011 RMK P0001,,,,3352.8,,,,,,SW,,,broken,,,,20,99330.24,101886.31
KMKE,09/03/2018 07:52 UTC,101964.11,21.7,20,90.09,3.09,220,,,101900,,1404,,,,,0.254,,506,1103,,,10,,KMKE 030752Z 22006KT 10SM FEW050 BKN110 OVC140 22/20 A3011 RMK AO2  RAE49 SLP190 P0001 T02170200,,,,3352.8,,,,,,SW,,,overcast,,,,20,99330.24,101888.93
KMKE,09/03/2018 07:55 UTC,101964.11,22,,88.46,2.57,210,,,,,,,,,,,,506,1103,,,10,,METAR KMKE 030755Z AUTO 21005KT 10SM FEW050 BKN110 22/20 A3011,,,,3352.8,,,,,,SSW,,,broken,,,,20,99330.24,101886.31
KMKE,09/03/2018 08:00 UTC,101964.11,22,,88.46,2.57,200,,,,,,,,,,,,506,1102,,,10,,METAR KMKE 030800Z AUTO 20005KT 10SM FEW050 SCT110 22/20 A3011,,,,,,,,,,SSW,,,scattered,,,,20,99330.24,101886.31
KMKE,09/03/2018 08:05 UTC,101964.11,22,,88.46,2.06,190,,,,,,,,,,,,506,1103,,,10,,METAR KMKE 030805Z AUTO 19004KT 10SM FEW050 BKN110 22/20 A3011,,,,3352.8,,,,,,S,,,broken,,,,20,99330.24,101886.31
KMKE,09/03/2018 08:10 UTC,101964.11,21,,100,2.06,180,,,,,,,,,,,,1103,,,,10,,METAR KMKE 030810Z AUTO 18004KT 10SM BKN110 21/21 A3011,,,,3352.8,,,,,,S,,,broken,,,,21,99330.24,101895.07
KMKE,09/03/2018 08:15 UTC,101964.11,22,,94.07,2.06,190,,,,,,,,,,,,496,1102,,,10,,METAR KMKE 030815Z AUTO 19004KT 10SM FEW049 SCT110 22/21 A3011,,,,,,,,,,S,,,scattered,,,,21,99330.24,101886.29
KMKE,09/03/2018 08:20 UTC,101964.11,21,,100,2.06,180,,,,,1102,,,,,,,416,482,,,10,,METAR KMKE 030820Z AUTO 18004KT 10SM FEW041 SCT048 SCT110 21/21 A3011,,,,,,,,,,S,,,scattered,,,,21,99330.24,101895.07
KMKE,09/03/2018 08:25 UTC,101997.98,21,,94.03,2.57,190,,,,,1103,,,,,,,412,483,,,10,,METAR KMKE 030825Z AUTO 19005KT 10SM SCT041 BKN048 BKN110 21/20 A3012,,,,1463.04,,,,,,S,,,broken,,,,20,99363.24,101928.94
KMKE,09/03/2018 08:30 UTC,101997.98,21,,94.03,3.09,180,,,,,,,,,,,,433,1103,,,10,,METAR KMKE 030830Z AUTO 18006KT 10SM BKN043 BKN110 21/20 A3012,,,,1310.64,,,,,,S,,,broken,,,,20,99363.24,101928.94
KMKE,09/03/2018 08:35 UTC,101997.98,21,,94.03,2.57,200,,,,,,,,,,,,433,1103,,,10,,METAR KMKE 030835Z AUTO 20005KT 10SM BKN043 BKN110 21/20 A3012,,,,1310.64,,,,,,SSW,,,broken,,,,20,99363.24,101928.94
KMKE,09/03/2018 08:40 UTC,101997.98,21,,94.03,2.06,200,,,,,,,,,,,,433,1103,,,10,,METAR KMKE 030840Z AUTO 20004KT 10SM BKN043 BKN110 21/20 A3012,,,,1310.64,,,,,,SSW,,,broken,,,,20,99363.24,101928.94
KMKE,09/03/2018 08:45 UTC,101997.98,21,,94.03,1.54,200,,,,,,,,,,,,433,1103,,,10,,METAR KMKE 030845Z AUTO 20003KT 10SM BKN043 BKN110 21/20 A3012,,,,1310.64,,,,,,SSW,,,broken,,,,20,99363.24,101928.94
KMKE,09/03/2018 08:50 UTC,101997.98,21,,94.03,2.06,200,,,,,1104,,,,,,,433,953,,,10,,METAR KMKE 030850Z AUTO 20004KT 10SM BKN043 BKN095 OVC110 21/20 A3012,,,,1310.64,,,,,,SSW,,,overcast,,,,20,99363.24,101928.94
KMKE,09/03/2018 08:52 UTC,101997.98,21.1,20,93.45,2.57,200,,,101940,,1104,,,,3005,,1.27,433,953,,,10,,KMKE 030852Z 20005KT 10SM BKN043 BKN095 OVC110 21/20 A3012 RMK AO2  SLP194 60005 T02110200 53005,,,,1310.64,,,,,,SSW,,,overcast,,,,20,99363.24,101928.06
KMKE,09/03/2018 08:55 UTC,101997.98,21,,94.03,2.06,200,,,,,,,,,,,,452,1103,,,10,,METAR KMKE 030855Z AUTO 20004KT 10SM SCT045 BKN110 21/20 A3012,,,,3352.8,,,,,,SSW,,,broken,,,,20,99363.24,101928.94
KMKE,09/03/2018 09:00 UTC,101997.98,21,,94.03,2.06,200,,,,,,,,,,,,456,1102,,,10,,METAR KMKE 030900Z AUTO 20004KT 10SM FEW045 SCT110 21/20 A3012,,,,,,,,,,SSW,,,scattered,,,,20,99363.24,101928.94
KMKE,09/03/2018 09:05 UTC,101997.98,21,,94.03,2.06,210,,,,,,,,,,,,456,1106,,,10,,METAR KMKE 030905Z AUTO 21004KT 10SM FEW045 FEW110 21/20 A3012,,,,,,,,,,SSW,,,thin scattered,,,,20,99363.24,101928.94
KMKE,09/03/2018 09:10 UTC,101997.98,21,,94.03,1.54,200,,,,,,,,,,,,466,602,,,10,,METAR KMKE 030910Z AUTO 20003KT 10SM FEW046 SCT060 21/20 A3012,,,,,,,,,,SSW,,,scattered,,,,20,99363.24,101928.94
KMKE,09/03/2018 09:15 UTC,101997.98,21,,100,1.54,180,,,,,,,,,,,,602,,,,10,,METAR KMKE 030915Z AUTO 18003KT 10SM SCT060 21/21 A3012,,,,,,,,,,S,,,scattered,,,,21,99363.24,101928.92
KMKE,09/03/2018 09:20 UTC,101997.98,21,,94.03,2.06,190,,,,,,,,,,,,656,,,,10,,METAR KMKE 030920Z AUTO 19004KT 10SM FEW065 21/20 A3012,,,,,,,,,,S,,,thin scattered,,,,20,99363.24,101928.94
KMKE,09/03/2018 09:25 UTC,101997.98,21,,94.03,2.06,180,,,,,,,,,,,,606,,,,10,,METAR KMKE 030925Z AUTO 18004KT 10SM FEW060 21/20 A3012,,,,,,,,,,S,,,thin scattered,,,,20,99363.24,101928.94
KMKE,09/03/2018 09:30 UTC,101997.98,21,,94.03,2.57,170,,,,,,,,,,,,606,,,,10,,METAR KMKE 030930Z AUTO 17005KT 10SM FEW060 21/20 A3012,,,,,,,,,,S,,,thin scattered,,,,20,99363.24,101928.94
KMKE,09/03/2018 09:35 UTC,101997.98,21,,94.03,3.09,160,,,,,,,,,,,,656,,,,10,,METAR KMKE 030935Z AUTO 16006KT 10SM FEW065 21/20 A3012,,,,,,,,,,SSE,,,thin scattered,,,,20,99363.24,101928.94
KMKE,09/03/2018 09:40 UTC,101997.98,21,,94.03,3.09,170,,,,,,,,,,,,652,,,,10,,METAR KMKE 030940Z AUTO 17006KT 10SM SCT065 21/20 A3012,,,,,,,,,,S,,,scattered,,,,20,99363.24,101928.94
KMKE,09/03/2018 09:45 UTC,102031.84,21,,94.03,3.09,190,,,,,,,,,,,,656,,,,10,,METAR KMKE 030945Z AUTO 19006KT 10SM FEW065 21/20 A3013,,,,,,,,,,S,,,thin scattered,,,,20,99396.22,101962.77
KMKE,09/03/2018 09:50 UTC,102031.84,21,,94.03,3.09,200,,,,,,,,,,,,652,,,,10,,METAR KMKE 030950Z AUTO 20006KT 10SM SCT065 21/20 A3013,,,,,,,,,,SSW,,,scattered,,,,20,99396.22,101962.77
KMKE,09/03/2018 09:52 UTC,102031.84,21.1,20,93.45,3.09,200,,,101990,,1503,,,,,,,652,1102,,,10,,KMKE 030952Z 20006KT 10SM SCT065 SCT110 BKN150 21/20 A3013 RMK AO2  SLP199 T02110200,,,,4572,,,,,,SSW,,,broken,,,,20,99396.22,101961.89
KMKE,09/03/2018 09:55 UTC,102031.84,21,,94.03,3.09,200,,,,,,,,,,,,656,,,,10,,METAR KMKE 030955Z AUTO 20006KT 10SM FEW065 21/20 A3013,,,,,,,,,,SSW,,,thin scattered,,,,20,99396.22,101962.77
KMKE,09/03/2018 10:00 UTC,102031.84,21,,94.03,3.09,210,,,,,,,,,,,,656,1206,,,10,,METAR KMKE 031000Z AUTO 21006KT 10SM FEW065 FEW120 21/20 A3013,,,,,,,,,,SSW,,,thin scattered,,,,20,99396.22,101962.77
KMKE,09/03/2018 10:05 UTC,102031.84,21,,94.03,3.09,210,,,,,,,,,,,,656,1202,,,10,,METAR KMKE 031005Z AUTO 21006KT 10SM FEW065 SCT120 21/20 A3013,,,,,,,,,,SSW,,,scattered,,,,20,99396.22,101962.77
KMKE,09/03/2018 10:10 UTC,102031.84,21,,94.03,2.06,210,,,,,,,,,,,,1202,,,,10,,METAR KMKE 031010Z AUTO 21004KT 10SM SCT120 21/20 A3013,,,,,,,,,,SSW,,,scattered,,,,20,99396.22,101962.77
KMKE,09/03/2018 10:15 UTC,102031.84,21,,94.03,2.57,210,,,,,,,,,,,,1202,,,,10,,METAR KMKE 031015Z AUTO 21005KT 10SM SCT120 21/20 A3013,,,,,,,,,,SSW,,,scattered,,,,20,99396.22,101962.77
KMKE,09/03/2018 10:20 UTC,102031.84,21,,94.03,2.06,210,,,,,,,,,,,,1202,,,,10,,METAR KMKE 031020Z AUTO 21004KT 10SM SCT120 21/20 A3013,,,,,,,,,,SSW,,,scattered,,,,20,99396.22,101962.77
KMKE,09/03/2018 10:25 UTC,102031.84,21,,94.03,2.06,230,,,,,,,,,,,,1206,,,,10,,METAR KMKE 031025Z AUTO 23004KT 10SM FEW120 21/20 A3013,,,,,,,,,,SW,,,thin scattered,,,,20,99396.22,101962.77
KMKE,09/03/2018 10:30 UTC,102031.84,21,,94.03,1.54,240,,,,,,,,,,,,1206,,,,10,,METAR KMKE 031030Z AUTO 24003KT 10SM FEW120 21/20 A3013,,,,,,,,,,WSW,,,thin scattered,,,,20,99396.22,101962.77
KMKE,09/03/2018 10:35 UTC,102031.84,21,,94.03,0,0,,,,,,,,,,,,1206,,,,10,,METAR KMKE 031035Z AUTO 00000KT 10SM FEW120 21/20 A3013,,,,,,,,,,N,,,thin scattered,,,,20,99396.22,101962.77
KMKE,09/03/2018 10:40 UTC,102031.84,21,,100,1.54,220,,,,,,,,,,,,1206,,,,10,,METAR KMKE 031040Z AUTO 22003KT 10SM FEW120 21/21 A3013,,,,,,,,,,SW,,,thin scattered,,,,21,99396.22,101962.75
KMKE,09/03/2018 10:45 UTC,102031.84,21,,100,0,0,,,,,,,,,,,,1,,,,10,,METAR KMKE 031045Z AUTO 00000KT 10SM CLR 21/21 A3013,,,,,,,,,,N,,,clear,,,,21,99396.22,101962.75
KMKE,09/03/2018 10:50 UTC,102031.84,21,,100,0,0,,,,,,,,,,,,1,,,,10,,METAR KMKE 031050Z AUTO 00000KT 10SM CLR 21/21 A3013,,,,,,,,,,N,,,clear,,,,21,99396.22,101962.75
KMKE,09/03/2018 10:52 UTC,102031.84,21.1,20.6,96.98,0,0,,,101980,,1603,,,,,,,656,1102,,,10,,KMKE 031052Z 00000KT 10SM FEW065 SCT110 BKN160 21/21 A3013 RMK AO2  SLP198 T02110206,,,,4876.8,,,,,,N,,,broken,,,,20.6,99396.22,101961.88
KMKE,09/03/2018 10:55 UTC,102031.84,21,,100,1.54,190,,,,,,,,,,,,1,,,,10,,METAR KMKE 031055Z AUTO 19003KT 10SM CLR 21/21 A3013,,,,,,,,,,S,,,clear,,,,21,99396.22,101962.75
KMKE,09/03/2018 11:00 UTC,102031.84,21,,94.03,2.06,200,,,,,,,,,,,,1106,,,,10,,METAR KMKE 031100Z AUTO 20004KT 10SM FEW110 21/20 A3013,,,,,,,,,,SSW,,,thin scattered,,,,20,99396.22,101962.77
KMKE,09/03/2018 11:05 UTC,102065.7,21,,94.03,2.06,200,,,,,,,,,,,,1106,,,,10,,METAR KMKE 031105Z AUTO 20004KT 10SM FEW110 21/20 A3014,,,,,,,,,,SSW,,,thin scattered,,,,20,99429.21,101996.61
KMKE,09/03/2018 11:10 UTC,102065.7,21,,94.03,2.57,210,,,,,,,,,,,,1106,,,,10,,METAR KMKE 031110Z AUTO 21005KT 10SM FEW110 21/20 A3014,,,,,,,,,,SSW,,,thin scattered,,,,20,99429.21,101996.61
KMKE,09/03/2018 11:15 UTC,102065.7,21,,94.03,2.06,210,,,,,,,,,,,,1106,,,,10,,METAR KMKE 031115Z AUTO 21004KT 10SM FEW110 21/20 A3014,,,,,,,,,,SSW,,,thin scattered,,,,20,99429.21,101996.61
KMKE,09/03/2018 11:20 UTC,102065.7,21,,94.03,2.06,210,,,,,,,,,,,,1106,,,,10,,METAR KMKE 031120Z AUTO 21004KT 10SM FEW110 21/20 A3014,,,,,,,,,,SSW,,,thin scattered,,,,20,99429.21,101996.61
KMKE,09/03/2018 11:25 UTC,102065.7,21,,94.03,2.06,210,,,,,,,,,,,,1106,,,,10,,METAR KMKE 031125Z AUTO 21004KT 10SM FEW110 21/20 A3014,,,,,,,,,,SSW,,,thin scattered,,,,20,99429.21,101996.61
KMKE,09/03/2018 11:30 UTC,102065.7,21,,94.03,1.54,210,,,,,,,,,,,,1,,,,10,,METAR KMKE 031130Z AUTO 21003KT 10SM CLR 21/20 A3014,,,,,,,,,,SSW,,,clear,,,,20,99429.21,101996.61
KMKE,09/03/2018 11:35 UTC,102099.57,21,,94.03,1.54,200,,,,,,,,,,,,1,,,,10,,METAR KMKE 031135Z AUTO 20003KT 10SM CLR 21/20 A3015,,,,,,,,,,SSW,,,clear,,,,20,99462.2,102030.45
KMKE,09/03/2018 11:40 UTC,102099.57,21,,94.03,1.54,200,,,,,,,,,,,,1,,,,10,,METAR KMKE 031140Z AUTO 20003KT 10SM CLR 21/20 A3015,,,,,,,,,,SSW,,,clear,,,,20,99462.2,102030.45
KMKE,09/03/2018 11:45 UTC,102099.57,21,,94.03,2.06,200,,,,,,,,,,,,1,,,,10,,METAR KMKE 031145Z AUTO 20004KT 10SM CLR 21/20 A3015,,,,,,,,,,SSW,,,clear,,,,20,99462.2,102030.45
KMKE,09/03/2018 11:50 UTC,102133.43,21,,94.03,2.06,200,,,,,,,,,,,,1,,,,10,,METAR KMKE 031150Z AUTO 20004KT 10SM CLR 21/20 A3016,,,,,,,,,,SSW,,,clear,,,,20,99495.19,102064.3
KMKE,09/03/2018 11:52 UTC,102133.43,21.1,20,93.45,2.06,200,,,102080,,1503,,,,3014,,,406,802,1.27,16.51,10,,KMKE 031152Z 20004KT 10SM FEW040 SCT080 BKN150 BKN250 21/20 A3016 RMK AO2 SLP208 60005 70065 T02110200 10228 20206 53014,22.8,20.6,,4572,,,,,,SSW,,,broken,,,,20,99495.19,102063.41
KMKE,09/03/2018 11:55 UTC,102133.43,21,,94.03,2.06,200,,,,,,,,,,,,406,802,,,10,,METAR KMKE 031155Z AUTO 20004KT 10SM FEW040 SCT080 21/20 A3016,,,,,,,,,,SSW,,,scattered,,,,20,99495.19,102064.3
KMKE,09/03/2018 12:00 UTC,102133.43,21,,94.03,1.54,220,,,,,,,,,,,,406,802,,,10,,METAR KMKE 031200Z AUTO 22003KT 10SM FEW040 SCT080 21/20 A3016,,,,,,,,,,SW,,,scattered,,,,20,99495.19,102064.3
KMKE,09/03/2018 12:05 UTC,102133.43,21,,94.03,0,0,,,,,,,,,,,,406,802,,,10,,METAR KMKE 031205Z AUTO 00000KT 10SM FEW040 SCT080 21/20 A3016,,,,,,,,,,N,,,scattered,,,,20,99495.19,102064.3
KMKE,09/03/2018 12:10 UTC,102133.43,21,,94.03,1.54,220,,,,,,,,,,,,406,802,,,10,,METAR KMKE 031210Z AUTO 22003KT 10SM FEW040 SCT080 21/20 A3016,,,,,,,,,,SW,,,scattered,,,,20,99495.19,102064.3
KMKE,09/03/2018 12:15 UTC,102133.43,21,,94.03,2.06,220,,,,,,,,,,,,406,802,,,10,,METAR KMKE 031215Z AUTO 22004KT 10SM FEW040 SCT080 21/20 A3016,,,,,,,,,,SW,,,scattered,,,,20,99495.19,102064.3
KMKE,09/03/2018 12:20 UTC,102133.43,21,,100,1.54,230,,,,,,,,,,,,406,802,,,10,,METAR KMKE 031220Z AUTO 23003KT 10SM FEW040 SCT080 21/21 A3016,,,,,,,,,,SW,,,scattered,,,,21,99495.19,102064.28
KMKE,09/03/2018 12:25 UTC,102133.43,22,,94.07,0,0,,,,,,,,,,,,406,802,,,10,,METAR KMKE 031225Z AUTO 00000KT 10SM FEW040 SCT080 22/21 A3016,,,,,,,,,,N,,,scattered,,,,21,99495.19,102055.48
KMKE,09/03/2018 12:30 UTC,102167.3,22,,94.07,0,0,,,,,,,,,,,,406,802,,,10,,METAR KMKE 031230Z AUTO 00000KT 10SM FEW040 SCT080 22/21 A3017,,,,,,,,,,N,,,scattered,,,,21,99528.18,102089.32
KMKE,09/03/2018 12:35 UTC,102167.3,22,,94.07,0,0,,,,,,,,,,,,406,802,,,10,,METAR KMKE 031235Z AUTO 00000KT 10SM FEW040 SCT080 22/21 A3017,,,,,,,,,,N,,,scattered,,,,21,99528.18,102089.32
KMKE,09/03/2018 12:40 UTC,102167.3,22,,94.07,1.54,180,,,,,,,,,,,,406,802,,,10,,METAR KMKE 031240Z AUTO 18003KT 10SM FEW040 SCT080 22/21 A3017,,,,,,,,,,S,,,scattered,,,,21,99528.18,102089.32
KMKE,09/03/2018 12:45 UTC,102167.3,22,,94.07,2.06,180,,,,,,,,,,,,406,802,,,10,,METAR KMKE 031245Z AUTO 18004KT 10SM FEW040 SCT080 22/21 A3017,,,,,,,,,,S,,,scattered,,,,21,99528.18,102089.32
KMKE,09/03/2018 12:50 UTC,102167.3,22,,94.07,2.06,200,,,,,,,,,,,,206,1002,,,10,,METAR KMKE 031250Z AUTO 20004KT 10SM FEW020 SCT100 22/21 A3017,,,,,,,,,,SSW,,,scattered,,,,21,99528.18,102089.32
KMKE,09/03/2018 12:52 UTC,102167.3,21.7,20.6,93.48,2.06,200,,,102140,,1503,,,,,,,206,1002,,,10,,KMKE 031252Z 20004KT 10SM FEW020 SCT100 BKN150 BKN250 22/21 A3017 RMK AO2 SLP214 ACC SE-S T02170206,,,,4572,,,,,,SSW,,,broken,,,,20.6,99528.18,102091.96
KMKE,09/03/2018 12:55 UTC,102201.16,22,,94.07,2.06,190,,,,,,,,,,,,206,1002,,,10,,METAR KMKE 031255Z AUTO 19004KT 10SM FEW020 SCT100 22/21 A3018,,,,,,,,,,S,,,scattered,,,,21,99561.17,102123.16
KMKE,09/03/2018 13:00 UTC,102201.16,22,,94.07,2.06,210,,,,,,,,,,,,206,1002,,,10,,METAR KMKE 031300Z AUTO 21004KT 10SM FEW020 SCT100 22/21 A3018,,,,,,,,,,SSW,,,scattered,,,,21,99561.17,102123.16