Station_ID,time,pressure__D,air_temp,dew_point_temperature,relative_humidity_set_1,wind_speed,wind_direction,wind_gust_set_1,snow_depth_set_1,sea_level_pressure_set_1,weather_cond_code_set_1,cloud_layer_3_code_set_1,cloud_low_symbol_set_1,cloud_mid_symbol_set_1,cloud_high_symbol_set_1,pressure_tendency_set_1,precip_accum_one_hour_set_1,precip_accum_three_hour_set_1,cloud_layer_1_code_set_1,cloud_layer_2_code_set_1,precip_accum_six_hour_set_1,precip_accum_24_hour_set_1,visibility_set_1,metar_remark_set_1,metar_set_1,air_temp_high_6_hour_set_1,air_temp_low_6_hour_set_1,peak_wind_speed_set_1,ceiling_set_1,pressure_change_code_set_1,air_temp_high_24_hour_set_1,air_temp_low_24_hour_set_1,peak_wind_direction_set_1,wind_chill_set_1d,wind_cardinal_direction_set_1d,heat_index_set_1d,weather_condition_set_1d,weather_summary_set_1d,cloud_layer_1_set_1d,cloud_layer_2_set_1d,cloud_layer_3_set_1d,dew_point_temperature_set_1d,pressure,sea_level_pressure_set_1d
KMKE,09/10/2019 19:00 UTC,101591.61,23,,88.54,2.57,110,,,,2481,754,,,,,,,166,363,,,4,,METAR KMKE 101900Z AUTO 11005KT 4SM RA BR FEW016 BKN036 OVC075 23/21 A3000,,,,1097.28,,,,,,ESE,,"rain,mist","rain,mist",,,,21,98967.36,101505.38
KMKE,09/10/2019 19:05 UTC,101625.47,24,,88.62,2.06,130,,,,2493,754,,,,,9.144,,166,363,,,6,,METAR KMKE 101905Z AUTO 13004KT 6SM -RA BR FEW016 BKN036 OVC075 24/22 A3001 RMK P0036,,,,1097.28,,,,,,SE,,"light rain,mist","light rain,mist",,,,22,99000.35,101530.56
KMKE,09/10/2019 19:06 UTC,101625.47,23.9,21.7,87.54,1.54,130,,,,2557,754,,,,,9.144,,166,363,,,6,,KMKE 101906Z 13003KT 6SM -TSRA BR FEW016 BKN036CB OVC075 24/22  A3001 RMK AO2 OCNL LTGCGIC OHD TS OHD MOV NE P0036  T02390217,,,,1097.28,,,,,,SE,,"light rain/thunderstorm,mist","light rain/thunderstorm,mist",,,,21.7,99000.35,101531.43
KMKE,09/10/2019 19:10 UTC,101659.34,24,,88.62,0,0,,,,13,754,,,,,9.144,,166,363,,,10,,METAR KMKE 101910Z AUTO 00000KT 10SM -RA FEW016 BKN036 OVC075 24/22 A3002 RMK P0036,,,,1097.28,,,,,,N,,light rain,light rain,,,,22,99033.34,101564.4
KMKE,09/10/2019 19:15 UTC,101659.34,24,,88.62,0,0,,,,,754,,,,,9.144,,166,363,,,10,,METAR KMKE 101915Z AUTO 00000KT 10SM FEW016 BKN036 OVC075 24/22 A3002 RMK P0036,,,,1097.28,,,,,,N,,,overcast,,,,22,99033.34,101564.4
KMKE,09/10/2019 19:20 UTC,101625.47,24,,88.62,2.06,120,,,,,904,,,,,9.398,,186,272,,,9,,METAR KMKE 101920Z AUTO 12004KT 9SM FEW018 SCT027 OVC090 24/22 A3001 RMK P0037,,,,2743.2,,,,,,ESE,,,overcast,,,,22,99000.35,101530.56
KMKE,09/10/2019 19:22 UTC,101659.34,24.4,21.7,84.96,2.57,120,,,,,903,,,,,9.398,,186,272,,,9,,KMKE 101922Z 12005KT 9SM FEW018 SCT027 BKN090 BKN250 24/22 A3002 RMK AO2 LTG DSNT NE RAE11 TSE21 CB DSNT E MOV NE P0037  T02440217,,,,2743.2,,,,,,ESE,,,broken,,,,21.7,99033.34,101560.97
KMKE,09/10/2019 19:25 UTC,101625.47,24,,88.62,3.6,100,,,,,903,,,,,9.398,,186,272,,,9,,METAR KMKE 101925Z AUTO 10007KT 9SM FEW018 SCT027 BKN090 24/22 A3001 RMK P0037,,,,2743.2,,,,,,E,,,broken,,,,22,99000.35,101530.56
KMKE,09/10/2019 19:30 UTC,101625.47,24,,88.62,3.6,110,,,,,903,,,,,9.398,,186,272,,,9,,METAR KMKE 101930Z AUTO 11007KT 9SM FEW018 SCT027 BKN090 24/22 A3001 RMK P0037,,,,2743.2,,,,,,ESE,,,broken,,,,22,99000.35,101530.56
KMKE,09/10/2019 19:35 UTC,101625.47,25,,83.48,2.06,110,,,,,702,,,,,9.398,,276,372,,,8,,METAR KMKE 101935Z AUTO 11004KT 8SM FEW027 SCT037 SCT070 25/22 A3001 RMK P0037,,,,,,,,,,ESE,,,scattered,,,,22,99000.35,101521.99
KMKE,09/10/2019 19:40 UTC,101625.47,24,,88.62,1.54,120,,,,,702,,,,,9.398,,276,372,,,9,,METAR KMKE 101940Z AUTO 12003KT 9SM FEW027 SCT037 SCT070 24/22 A3001 RMK P0037,,,,,,,,,,ESE,,,scattered,,,,22,99000.35,101530.56
KMKE,09/10/2019 19:45 UTC,101625.47,25,,83.48,1.54,130,,,,,703,,,,,9.398,,266,426,,,8,,METAR KMKE 101945Z AUTO 13003KT 8SM FEW026 FEW042 BKN070 25/22 A3001 RMK P0037,,,,2133.6,,,,,,SE,,,broken,,,,22,99000.35,101521.99
KMKE,09/10/2019 19:50 UTC,101625.47,26,,78.68,1.54,160,,,,,703,,,,,9.398,,266,422,,,9,,METAR KMKE 101950Z AUTO 16003KT 9SM FEW026 SCT042 BKN070 26/22 A3001 RMK P0037,,,,2133.6,,,,,,SSE,,,broken,,,,22,99000.35,101513.48
KMKE,09/10/2019 19:52 UTC,101625.47,25.6,21.7,79.1,2.06,180,,,101580,5,703,,,,,9.398,,266,422,,,9,,KMKE 101952Z 18004KT 9SM VCTS FEW026 SCT042 BKN070 BKN150 BKN250  26/22 A3001 RMK AO2 LTG DSNT E RAE11 TSE21E49 SLP158 CB DSNT  E MOV NE P0037 T02560217,,,,2133.6,,,,,,S,,thunder,thunder,,,,21.7,99000.35,101516.88
KMKE,09/10/2019 19:55 UTC,101625.47,26,,78.68,2.57,190,,,,,,,,,,,,362,703,,,9,,METAR KMKE 101955Z AUTO 19005KT 9SM SCT036 BKN070 26/22 A3001,,,,2133.6,,,,,,S,,,broken,,,,22,99000.35,101513.48
KMKE,09/10/2019 20:00 UTC,101625.47,26,,78.68,2.57,150,,,,,,,,,,,,362,653,,,9,,METAR KMKE 102000Z AUTO 15005KT 9SM SCT036 BKN065 26/22 A3001,,,,1981.2,,,,,,SSE,,,broken,,,,22,99000.35,101513.48
KMKE,09/10/2019 20:05 UTC,101591.61,26,,78.68,2.06,200,,,,,703,,,,,,,366,602,,,9,,METAR KMKE 102005Z AUTO 20004KT 9SM FEW036 SCT060 BKN070 26/22 A3000,,,,2133.6,,,,,,SSW,,,broken,,,,22,98967.36,101479.65
KMKE,09/10/2019 20:10 UTC,101591.61,27,,78.82,2.57,240,,,,,702,,,,,,,366,556,,,10,,METAR KMKE 102010Z AUTO 24005KT 10SM FEW036 FEW055 SCT070 27/23 A3000,,,,,,,,,,WSW,29.63,,scattered,,,,23,98967.36,101471.17
KMKE,09/10/2019 20:15 UTC,101625.47,27,,78.82,2.57,240,,,,,,,,,,,,366,702,,,10,,METAR KMKE 102015Z AUTO 24005KT 10SM FEW036 SCT070 27/23 A3001,,,,,,,,,,WSW,29.63,,scattered,,,,23,99000.35,101505
KMKE,09/10/2019 20:20 UTC,101625.47,28,22.8,74.36,4.63,240,,,,,1302,,,,,,,346,656,,,10,,METAR KMKE 102020Z AUTO 24009KT 10SM FEW034 FEW065 28/23 A3001 RMK AO2 LTG DSNT E T02780228,,,,,,,,,,WSW,31.26,,scattered,,,,23.01,99000.35,101496.59
KMKE,09/10/2019 20:25 UTC,101625.47,28,,74.36,3.6,240,,,,,,,,,,,,346,656,,,10,,METAR KMKE 102025Z AUTO 24007KT 10SM FEW034 FEW065 28/23 A3001,,,,,,,,,,WSW,31.26,,thin scattered,,,,23.01,99000.35,101496.59
KMKE,09/10/2019 20:30 UTC,101591.61,28,,74.36,4.63,250,,,,,,,,,,,,346,656,,,10,,METAR KMKE 102030Z AUTO 25009KT 10SM FEW034 FEW065 28/23 A3000,,,,,,,,,,WSW,31.26,,thin scattered,,,,23.01,98967.36,101462.77
KMKE,09/10/2019 20:35 UTC,101591.61,28,,74.36,4.12,250,,,,,,,,,,,,346,656,,,10,,METAR KMKE 102035Z AUTO 25008KT 10SM FEW034 FEW065 28/23 A3000,,,,,,,,,,WSW,31.26,,thin scattered,,,,23.01,98967.36,101462.77
KMKE,09/10/2019 20:40 UTC,101591.61,28,,69.98,3.6,260,,,,,,,,,,,,346,656,,,10,,METAR KMKE 102040Z AUTO 26007KT 10SM FEW034 FEW065 28/22 A3000,,,,,,,,,,W,30.66,,thin scattered,,,,22.01,98967.36,101462.79
KMKE,09/10/2019 20:45 UTC,101591.61,29,,66.04,3.6,250,,,,,,,,,,,,346,656,,,10,,METAR KMKE 102045Z AUTO 25007KT 10SM FEW034 FEW065 29/22 A3000,,,,,,,,,,WSW,32.02,,thin scattered,,,,22.02,98967.36,101454.45
KMKE,09/10/2019 20:50 UTC,101591.61,29,,66.04,4.63,240,,,,,,,,,,,,346,656,,,10,,METAR KMKE 102050Z AUTO 24009KT 10SM FEW034 FEW065 29/22 A3000,,,,,,,,,,WSW,32.02,,thin scattered,,,,22.02,98967.36,101454.45
KMKE,09/10/2019 20:52 UTC,101591.61,28.9,21.1,62.87,4.63,250,,,101530,,1306,,,,8004,,10.414,346,656,,,10,,KMKE 102052Z 25009KT 10SM FEW034 FEW065 FEW130 BKN250 29/21 A3000 RMK AO2 SLP153 TCU DSNT SE 60041 T02890211 58004,,,,,,,,,,WSW,31.31,,thin scattered,,,,21.12,98967.36,101455.3
KMKE,09/10/2019 20:55 UTC,101591.61,29,,62.13,3.6,250,,,,,,,,,,,,346,656,,,10,,METAR KMKE 102055Z AUTO 25007KT 10SM FEW034 FEW065 29/21 A3000,,,,,,,,,,WSW,31.37,,thin scattered,,,,21.02,98967.36,101454.47
KMKE,09/10/2019 21:00 UTC,101591.61,29,,66.04,4.12,250,,,,,,,,,,,,346,656,,,10,,METAR KMKE 102100Z AUTO 25008KT 10SM FEW034 FEW065 29/22 A3000,,,,,,,,,,WSW,32.02,,thin scattered,,,,22.02,98967.36,101454.45
KMKE,09/10/2019 21:05 UTC,101591.61,29,,62.13,3.6,240,,,,,,,,,,,,346,656,,,10,,METAR KMKE 102105Z AUTO 24007KT 10SM FEW034 FEW065 29/21 A3000,,,,,,,,,,WSW,31.37,,thin scattered,,,,21.02,98967.36,101454.47
KMKE,09/10/2019 21:10 UTC,101591.61,29,,62.13,4.12,250,,,,,,,,,,,,346,656,,,10,,METAR KMKE 102110Z AUTO 25008KT 10SM FEW034 FEW065 29/21 A3000,,,,,,,,,,WSW,31.37,,thin scattered,,,,21.02,98967.36,101454.47
KMKE,09/10/2019 21:15 UTC,101591.61,29,,62.13,4.63,240,,,,,,,,,,,,346,656,,,10,,METAR KMKE 102115Z AUTO 24009KT 10SM FEW034 FEW065 29/21 A3000,,,,,,,,,,WSW,31.37,,thin scattered,,,,21.02,98967.36,101454.47
KMKE,09/10/2019 21:20 UTC,101591.61,29,,62.13,5.14,260,,,,,,,,,,,,356,,,,10,,METAR KMKE 102120Z AUTO 26010KT 10SM FEW035 29/21 A3000,,,,,,,,,,W,31.37,,thin scattered,,,,21.02,98967.36,101454.47
KMKE,09/10/2019 21:25 UTC,101591.61,29,,62.13,5.66,240,,,,,,,,,,,,356,,,,10,,METAR KMKE 102125Z AUTO 24011KT 10SM FEW035 29/21 A3000,,,,,,,,,,WSW,31.37,,thin scattered,,,,21.02,98967.36,101454.47
KMKE,09/10/2019 21:30 UTC,101625.47,29,,62.13,4.12,250,,,,,,,,,,,,356,,,,10,,METAR KMKE 102130Z AUTO 25008KT 10SM FEW035 29/21 A3001,,,,,,,,,,WSW,31.37,,thin scattered,,,,21.02,99000.35,101488.29
KMKE,09/10/2019 21:35 UTC,101625.47,29,,62.13,4.12,250,,,,,,,,,,,,356,,,,10,,METAR KMKE 102135Z AUTO 25008KT 10SM FEW035 29/21 A3001,,,,,,,,,,WSW,31.37,,thin scattered,,,,21.02,99000.35,101488.29
KMKE,09/10/2019 21:40 UTC,101625.47,29,,62.13,3.09,260,,,,,,,,,,,,356,,,,10,,METAR KMKE 102140Z AUTO 26006KT 10SM FEW035 29/21 A3001,,,,,,,,,,W,31.37,,thin scattered,,,,21.02,99000.35,101488.29
KMKE,09/10/2019 21:45 UTC,101625.47,29,,62.13,3.6,250,,,,,,,,,,,,356,,,,10,,METAR KMKE 102145Z AUTO 25007KT 10SM FEW035 29/21 A3001,,,,,,,,,,WSW,31.37,,thin scattered,,,,21.02,99000.35,101488.29
KMKE,09/10/2019 21:50 UTC,101625.47,29,,62.13,4.12,250,,,,,,,,,,,,356,,,,10,,METAR KMKE 102150Z AUTO 25008KT 10SM FEW035 29/21 A3001,,,,,,,,,,WSW,31.37,,thin scattered,,,,21.02,99000.35,101488.29
KMKE,09/10/2019 21:52 UTC,101625.47,28.9,20.6,60.97,4.63,260,,,101580,,2503,,,,,,,356,2006,,,10,,KMKE 102152Z 26009KT 10SM FEW035 FEW200 BKN250 29/21 A3001 RMK AO2  SLP158 CB DSNT E MOV E TCU DSNT S T02890206,,,,7620,,,,,,W,31.01,,broken,,,,20.62,99000.35,101489.13
KMKE,09/10/2019 21:55 UTC,101625.47,29,,62.13,4.12,260,,,,,,,,,,,,1,,,,10,,METAR KMKE 102155Z AUTO 26008KT 10SM CLR 29/21 A3001,,,,,,,,,,W,31.37,,clear,,,,21.02,99000.35,101488.29
KMKE,09/10/2019 22:00 UTC,101625.47,29,,62.13,3.6,270,,,,,,,,,,,,1,,,,10,,METAR KMKE 102200Z AUTO 27007KT 10SM CLR 29/21 A3001,,,,,,,,,,W,31.37,,clear,,,,21.02,99000.35,101488.29
KMKE,09/10/2019 22:05 UTC,101625.47,29,,62.13,3.6,270,,,,,,,,,,,,1,,,,10,,METAR KMKE 102205Z AUTO 27007KT 10SM CLR 29/21 A3001,,,,,,,,,,W,31.37,,clear,,,,21.02,99000.35,101488.29
KMKE,09/10/2019 22:10 UTC,101659.34,29,,62.13,3.6,260,,,,,,,,,,,,1,,,,10,,METAR KMKE 102210Z AUTO 26007KT 10SM CLR 29/21 A3002,,,,,,,,,,W,31.37,,clear,,,,21.02,99033.34,101522.11
KMKE,09/10/2019 22:15 UTC,101659.34,29,,62.13,4.12,270,,,,,,,,,,,,1,,,,10,,METAR KMKE 102215Z AUTO 27008KT 10SM CLR 29/21 A3002,,,,,,,,,,W,31.37,,clear,,,,21.02,99033.34,101522.11
KMKE,09/10/2019 22:20 UTC,101659.34,29,,62.13,4.63,260,,,,,,,,,,,,1,,,,10,,METAR KMKE 102220Z AUTO 26009KT 10SM CLR 29/21 A3002,,,,,,,,,,W,31.37,,clear,,,,21.02,99033.34,101522.11
KMKE,09/10/2019 22:25 UTC,101659.34,28,,65.83,5.14,250,,,,,,,,,,,,1,,,,10,,METAR KMKE 102225Z AUTO 25010KT 10SM CLR 28/21 A3002,,,,,,,,,,WSW,30.13,,clear,,,,21.01,99033.34,101530.46
KMKE,09/10/2019 22:30 UTC,101659.34,28,,65.83,3.09,250,,,,,,,,,,,,1,,,,10,,METAR KMKE 102230Z AUTO 25006KT 10SM CLR 28/21 A3002,,,,,,,,,,WSW,30.13,,clear,,,,21.01,99033.34,101530.46
KMKE,09/10/2019 22:35 UTC,101659.34,28,,65.83,3.6,240,,,,,,,,,,,,1,,,,10,,METAR KMKE 102235Z AUTO 24007KT 10SM CLR 28/21 A3002,,,,,,,,,,WSW,30.13,,clear,,,,21.01,99033.34,101530.46
KMKE,09/10/2019 22:40 UTC,101693.2,28,,65.83,3.6,250,,,,,,,,,,,,1,,,,10,,METAR KMKE 102240Z AUTO 25007KT 10SM CLR 28/21 A3003,,,,,,,,,,WSW,30.13,,clear,,,,21.01,99066.33,101564.28
KMKE,09/10/2019 22:45 UTC,101693.2,28,,65.83,5.66,250,,,,,,,,,,,,1,,,,10,,METAR KMKE 102245Z AUTO 25011KT 10SM CLR 28/21 A3003,,,,,,,,,,WSW,30.13,,clear,,,,21.01,99066.33,101564.28
KMKE,09/10/2019 22:50 UTC,101693.2,28,,65.83,4.12,250,,,,,,,,,,,,,,,,10,,METAR KMKE 102250Z AUTO 25008KT 10SM 28/21 A3003,,,,,,,,,,WSW,30.13,,,,,,21.01,99066.33,101564.28
KMKE,09/10/2019 22:52 UTC,101693.2,28.3,20.6,63.13,3.6,260,,,101630,,,,,,,,,2006,2503,,,10,,KMKE 102252Z 26007KT 10SM FEW200 BKN250 28/21 A3003 RMK AO2 SLP163  T02830206,,,,7620,,,,,,W,30.3,,broken,,,,20.62,99066.33,101561.78
KMKE,09/10/2019 22:55 UTC,101693.2,28,,65.83,3.6,240,,,,,,,,,,,,1,,,,10,,METAR KMKE 102255Z AUTO 24007KT 10SM CLR 28/21 A3003,,,,,,,,,,WSW,30.13,,clear,,,,21.01,99066.33,101564.28
KMKE,09/10/2019 23:00 UTC,101693.2,28,,65.83,3.09,250,,,,,,,,,,,,1,,,,10,,METAR KMKE 102300Z AUTO 25006KT 10SM CLR 28/21 A3003,,,,,,,,,,WSW,30.13,,clear,,,,21.01,99066.33,101564.28
KMKE,09/10/2019 23:05 UTC,101693.2,28,,65.83,3.09,240,,,,,,,,,,,,1,,,,10,,METAR KMKE 102305Z AUTO 24006KT 10SM CLR 28/21 A3003,,,,,,,,,,WSW,30.13,,clear,,,,21.01,99066.33,101564.28
KMKE,09/10/2019 23:10 UTC,101693.2,28,,65.83,2.06,260,,,,,,,,,,,,1,,,,10,,METAR KMKE 102310Z AUTO 26004KT 10SM CLR 28/21 A3003,,,,,,,,,,W,30.13,,clear,,,,21.01,99066.33,101564.28
KMKE,09/10/2019 23:15 UTC,101693.2,28,,65.83,3.09,240,,,,,,,,,,,,1,,,,10,,METAR KMKE 102315Z AUTO 24006KT 10SM CLR 28/21 A3003,,,,,,,,,,WSW,30.13,,clear,,,,21.01,99066.33,101564.28
KMKE,09/10/2019 23:20 UTC,101693.2,28,,65.83,3.09,250,,,,,,,,,,,,1,,,,10,,METAR KMKE 102320Z AUTO 25006KT 10SM CLR 28/21 A3003,,,,,,,,,,WSW,30.13,,clear,,,,21.01,99066.33,101564.28
KMKE,09/10/2019 23:25 UTC,101693.2,28,,65.83,3.09,240,,,,,,,,,,,,1,,,,10,,METAR KMKE 102325Z AUTO 24006KT 10SM CLR 28/21 A3003,,,,,,,,,,WSW,30.13,,clear,,,,21.01,99066.33,101564.28
KMKE,09/10/2019 23:30 UTC,101693.2,28,,65.83,2.57,250,,,,,,,,,,,,1,,,,10,,METAR KMKE 102330Z AUTO 25005KT 10SM CLR 28/21 A3003,,,,,,,,,,WSW,30.13,,clear,,,,21.01,99066.33,101564.28
KMKE,09/10/2019 23:35 UTC,101693.2,27,,69.79,3.09,240,,,,,,,,,,,,1,,,,10,,METAR KMKE 102335Z AUTO 24006KT 10SM CLR 27/21 A3003,,,,,,,,,,WSW,28.84,,clear,,,,21.01,99066.33,101572.69
KMKE,09/10/2019 23:40 UTC,101693.2,27,,69.79,3.6,240,,,,,,,,,,,,1,,,,10,,METAR KMKE 102340Z AUTO 24007KT 10SM CLR 27/21 A3003,,,,,,,,,,WSW,28.84,,clear,,,,21.01,99066.33,101572.69
KMKE,09/10/2019 23:45 UTC,101693.2,27,,69.79,4.12,250,,,,,,,,,,,,1,,,,10,,METAR KMKE 102345Z AUTO 25008KT 10SM CLR 27/21 A3003,,,,,,,,,,WSW,28.84,,clear,,,,21.01,99066.33,101572.69
KMKE,09/10/2019 23:50 UTC,101693.2,27,,69.79,3.09,240,,,,,,,,,,,,,,,,10,,METAR KMKE 102350Z AUTO 24006KT 10SM 27/21 A3003,,,,,,,,,,WSW,28.84,,,,,,21.01,99066.33,101572.69
KMKE,09/10/2019 23:52 UTC,101693.2,27.2,20.6,67.3,4.12,240,,,101650,,,,,,1011,,,2006,2503,10.414,,10,,KMKE 102352Z 24008KT 10SM FEW200 BKN250 27/21 A3003 RMK AO2 SLP165  60041 T02720206 10294 20233 51011,29.4,23.3,,7620,,,,,,WSW,28.95,,broken,,,,20.61,99066.33,101571.01
KMKE,09/10/2019 23:55 UTC,101693.2,27,,69.79,3.6,240,,,,,,,,,,,,1,,,,10,,METAR KMKE 102355Z AUTO 24007KT 10SM CLR 27/21 A3003,,,,,,,,,,WSW,28.84,,clear,,,,21.01,99066.33,101572.69
KMKE,09/11/2019 00:00 UTC,101693.2,27,,69.79,3.6,240,,,,,,,,,,,,1,,,,10,,METAR KMKE 110000Z AUTO 24007KT 10SM CLR 27/21 A3003,,,,,,,,,,WSW,28.84,,clear,,,,21.01,99066.33,101572.69
KMKE,09/11/2019 00:05 UTC,101693.2,27,,69.79,3.09,240,,,,,,,,,,,,1,,,,10,,METAR KMKE 110005Z AUTO 24006KT 10SM CLR 27/21 A3003,,,,,,,,,,WSW,28.84,,clear,,,,21.01,99066.33,101572.69
KMKE,09/11/2019 00:10 UTC,101727.07,27,,65.62,3.09,250,,,,,,,,,,,,1,,,,10,,METAR KMKE 110010Z AUTO 25006KT 10SM CLR 27/20 A3004,,,,,,,,,,WSW,28.5,,clear,,,,20.01,99099.32,101606.53
KMKE,09/11/2019 00:15 UTC,101693.2,27,,65.62,3.09,230,,,,,,,,,,,,1,,,,10,,METAR KMKE 110015Z AUTO 23006KT 10SM CLR 27/20 A3003,,,,,,,,,,SW,28.5,,clear,,,,20.01,99066.33,101572.71
KMKE,09/11/2019 00:20 UTC,101693.2,26,,69.6,2.06,240,,,,,,,,,,,,1,,,,10,,METAR KMKE 110020Z AUTO 24004KT 10SM CLR 26/20 A3003,,,,,,,,,,WSW,,,clear,,,,20,99066.33,101581.17
KMKE,09/11/2019 00:25 UTC,101727.07,26,,69.6,3.09,240,,,,,,,,,,,,1,,,,10,,METAR KMKE 110025Z AUTO 24006KT 10SM CLR 26/20 A3004,,,,,,,,,,WSW,,,clear,,,,20,99099.32,101615
KMKE,09/11/2019 00:30 UTC,101727.07,26,,69.6,2.57,240,,,,,,,,,,,,1,,,,10,,METAR KMKE 110030Z AUTO 24005KT 10SM CLR 26/20 A3004,,,,,,,,,,WSW,,,clear,,,,20,99099.32,101615
KMKE,09/11/2019 00:35 UTC,101727.07,26,,69.6,3.09,240,,,,,,,,,,,,1,,,,10,,METAR KMKE 110035Z AUTO 24006KT 10SM CLR 26/20 A3004,,,,,,,,,,WSW,,,clear,,,,20,99099.32,101615
KMKE,09/11/2019 00:40 UTC,101693.2,26,,69.6,2.57,250,,,,,,,,,,,,1,,,,10,,METAR KMKE 110040Z AUTO 25005KT 10SM CLR 26/20 A3003,,,,,,,,,,WSW,,,clear,,,,20,99066.33,101581.17
KMKE,09/11/2019 00:45 UTC,101693.2,26,,69.6,2.57,240,,,,,,,,,,,,1,,,,10,,METAR KMKE 110045Z AUTO 24005KT 10SM CLR 26/20 A3003,,,,,,,,,,WSW,,,clear,,,,20,99066.33,101581.17
KMKE,09/11/2019 00:50 UTC,101693.2,26,,69.6,2.57,240,,,,,,,,,,,,,,,,10,,METAR KMKE 110050Z AUTO 24005KT 10SM 26/20 A3003,,,,,,,,,,WSW,,,,,,,20,99066.33,101581.17
KMKE,09/11/2019 00:52 UTC,101693.2,25.6,20,71.26,2.57,240,,,101660,,,,,,,,,2503,,,,10,,KMKE 110052Z 24005KT 10SM BKN250 26/20 A3003 RMK AO2 SLP166  T02560200,,,,7620,,,,,,WSW,,,broken,,,,20,99066.33,101584.57
KMKE,09/11/2019 00:55 UTC,101727.07,26,,69.6,2.57,240,,,,,,,,,,,,1,,,,10,,METAR KMKE 110055Z AUTO 24005KT 10SM CLR 26/20 A3004,,,,,,,,,,WSW,,,clear,,,,20,99099.32,101615
KMKE,09/11/2019 01:00 UTC,101693.2,26,,69.6,2.57,240,,,,,,,,,,,,1,,,,10,,METAR KMKE 110100Z AUTO 24005KT 10SM CLR 26/20 A3003,,,,,,,,,,WSW,,,clear,,,,20,99066.33,101581.17
KMKE,09/11/2019 01:05 UTC,101693.2,26,,69.6,1.54,270,,,,,,,,,,,,1,,,,10,,METAR KMKE 110105Z AUTO 27003KT 10SM CLR 26/20 A3003,,,,,,,,,,W,,,clear,,,,20,99066.33,101581.17
KMKE,09/11/2019 01:10 UTC,101727.07,26,,65.41,2.06,260,,,,,,,,,,,,1,,,,10,,METAR KMKE 110110Z AUTO 26004KT 10SM CLR 26/19 A3004,,,,,,,,,,W,,,clear,,,,19,99099.32,101615.02
KMKE,09/11/2019 01:15 UTC,101727.07,26,,65.41,2.57,240,,,,,,,,,,,,1,,,,10,,METAR KMKE 110115Z AUTO 24005KT 10SM CLR 26/19 A3004,,,,,,,,,,WSW,,,clear,,,,19,99099.32,101615.02
KMKE,09/11/2019 01:20 UTC,101727.07,25,,69.4,2.06,250,,,,,,,,,,,,1,,,,10,,METAR KMKE 110120Z AUTO 25004KT 10SM CLR 25/19 A3004,,,,,,,,,,WSW,,,clear,,,,19,99099.32,101623.54
KMKE,09/11/2019 01:25 UTC,101727.07,26,,65.41,2.57,250,,,,,,,,,,,,1,,,,10,,METAR KMKE 110125Z AUTO 25005KT 10SM CLR 26/19 A3004,,,,,,,,,,WSW,,,clear,,,,19,99099.32,101615.02
KMKE,09/11/2019 01:30 UTC,101727.07,25,,69.4,2.06,240,,,,,,,,,,,,1,,,,10,,METAR KMKE 110130Z AUTO 24004KT 10SM CLR 25/19 A3004,,,,,,,,,,WSW,,,clear,,,,19,99099.32,101623.54
KMKE,09/11/2019 01:35 UTC,101727.07,25,,69.4,2.57,240,,,,,,,,,,,,1,,,,10,,METAR KMKE 110135Z AUTO 24005KT 10SM CLR 25/19 A3004,,,,,,,,,,WSW,,,clear,,,,19,99099.32,101623.54
KMKE,09/11/2019 01:40 UTC,101727.07,25,,69.4,3.09,250,,,,,,,,,,,,1,,,,10,,METAR KMKE 110140Z AUTO 25006KT 10SM CLR 25/19 A3004,,,,,,,,,,WSW,,,clear,,,,19,99099.32,101623.54
KMKE,09/11/2019 01:45 UTC,101727.07,25,,69.4,3.09,240,,,,,,,,,,,,1,,,,10,,METAR KMKE 110145Z AUTO 24006KT 10SM CLR 25/19 A3004,,,,,,,,,,WSW,,,clear,,,,19,99099.32,101623.54
KMKE,09/11/2019 01:50 UTC,101727.07,25,,69.4,3.09,240,,,,,,,,,,,,,,,,10,,METAR KMKE 110150Z AUTO 24006KT 10SM 25/19 A3004,,,,,,,,,,WSW,,,,,,,19,99099.32,101623.54
KMKE,09/11/2019 01:52 UTC,101727.07,25,18.9,68.97,3.6,240,,,101700,,,,,,,,,2503,,,,10,,KMKE 110152Z 24007KT 10SM BKN250 25/19 A3004 RMK AO2 SLP170  T02500189,,,,7620,,,,,,WSW,,,broken,,,,18.9,99099.32,101623.54
KMKE,09/11/2019 01:55 UTC,101760.93,25,,69.4,3.09,240,,,,,,,,,,,,1,,,,10,,METAR KMKE 110155Z AUTO 24006KT 10SM CLR 25/19 A3005,,,,,,,,,,WSW,,,clear,,,,19,99132.31,101657.37
KMKE,09/11/2019 02:00 UTC,101760.93,25,,69.4,3.09,240,,,,,,,,,,,,1,,,,10,,METAR KMKE 110200Z AUTO 24006KT 10SM CLR 25/19 A3005,,,,,,,,,,WSW,,,clear,,,,19,99132.31,101657.37
KMKE,09/11/2019 02:05 UTC,101760.93,25,,69.4,3.09,240,,,,,,,,,,,,1,,,,10,,METAR KMKE 110205Z AUTO 24006KT 10SM CLR 25/19 A3005,,,,,,,,,,WSW,,,clear,,,,19,99132.31,101657.37
KMKE,09/11/2019 02:10 UTC,101760.93,24,,73.67,3.6,240,,,,,,,,,,,,1,,,,10,,METAR KMKE 110210Z AUTO 24007KT 10SM CLR 24/19 A3005,,,,,,,,,,WSW,,,clear,,,,18.99,99132.31,101665.96
KMKE,09/11/2019 02:15 UTC,101760.93,25,,69.4,3.6,240,,,,,,,,,,,,1,,,,10,,METAR KMKE 110215Z AUTO 24007KT 10SM CLR 25/19 A3005,,,,,,,,,,WSW,,,clear,,,,19,99132.31,101657.37
KMKE,09/11/2019 02:20 UTC,101760.93,24,,73.67,3.09,240,,,,,,,,,,,,1,,,,10,,METAR KMKE 110220Z AUTO 24006KT 10SM CLR 24/19 A3005,,,,,,,,,,WSW,,,clear,,,,18.99,99132.31,101665.96
KMKE,09/11/2019 02:25 UTC,101760.93,24,,73.67,3.09,240,,,,,,,,,,,,1,,,,10,,METAR KMKE 110225Z AUTO 24006KT 10SM CLR 24/19 A3005,,,,,,,,,,WSW,,,clear,,,,18.99,99132.31,101665.96
KMKE,09/11/2019 02:30 UTC,101760.93,25,,69.4,3.6,250,,,,,,,,,,,,1,,,,10,,METAR KMKE 110230Z AUTO 25007KT 10SM CLR 25/19 A3005,,,,,,,,,,WSW,,,clear,,,,19,99132.31,101657.37
KMKE,09/11/2019 02:35 UTC,101760.93,25,,69.4,3.09,240,,,,,,,,,,,,1,,,,10,,METAR KMKE 110235Z AUTO 24006KT 10SM CLR 25/19 A3005,,,,,,,,,,WSW,,,clear,,,,19,99132.31,101657.37
KMKE,09/11/2019 02:40 UTC,101760.93,24,,73.67,3.09,240,,,,,,,,,,,,1,,,,10,,METAR KMKE 110240Z AUTO 24006KT 10SM CLR 24/19 A3005,,,,,,,,,,WSW,,,clear,,,,18.99,99132.31,101665.96
KMKE,09/11/2019 02:45 UTC,101794.79,24,,73.67,3.6,240,,,,,,,,,,,,1,,,,10,,METAR KMKE 110245Z AUTO 24007KT 10SM CLR 24/19 A3006,,,,,,,,,,WSW,,,clear,,,,18.99,99165.29,101699.78
KMKE,09/11/2019 02:50 UTC,101794.79,24,,73.67,3.09,240,,,,,,,,,,,,,,,,10,,METAR KMKE 110250Z AUTO 24006KT 10SM 24/19 A3006,,,,,,,,,,WSW,,,,,,,18.99,99165.29,101699.78
KMKE,09/11/2019 02:52 UTC,101794.79,24.4,18.9,71.48,3.09,240,,,101740,,,,,,3008,,,2502,,,,10,,KMKE 110252Z 24006KT 10SM SCT250 24/19 A3006 RMK AO2 SLP174  T02440189 53008,,,,,,,,,,WSW,,,scattered,,,,18.89,99165.29,101696.34
KMKE,09/11/2019 02:55 UTC,101794.79,24,,73.67,3.6,240,,,,,,,,,,,,1,,,,10,,METAR KMKE 110255Z AUTO 24007KT 10SM CLR 24/19 A3006,,,,,,,,,,WSW,,,clear,,,,18.99,99165.29,101699.78
KMKE,09/11/2019 03:00 UTC,101794.79,24,,73.67,3.09,240,,,,,,,,,,,,1,,,,10,,METAR KMKE 110300Z AUTO 24006KT 10SM CLR 24/19 A3006,,,,,,,,,,WSW,,,clear,,,,18.99,99165.29,101699.78
KMKE,09/11/2019 03:05 UTC,101794.79,24,,73.67,3.09,240,,,,,,,,,,,,1,,,,10,,METAR KMKE 110305Z AUTO 24006KT 10SM CLR 24/19 A3006,,,,,,,,,,WSW,,,clear,,,,18.99,99165.29,101699.78
KMKE,09/11/2019 03:10 UTC,101794.79,24,,73.67,2.57,250,,,,,,,,,,,,1,,,,10,,METAR KMKE 110310Z AUTO 25005KT 10SM CLR 24/19 A3006,,,,,,,,,,WSW,,,clear,,,,18.99,99165.29,101699.78
KMKE,09/11/2019 03:15 UTC,101794.79,24,,73.67,2.57,240,,,,,,,,,,,,1,,,,10,,METAR KMKE 110315Z AUTO 24005KT 10SM CLR 24/19 A3006,,,,,,,,,,WSW,,,clear,,,,18.99,99165.29,101699.78
KMKE,09/11/2019 03:20 UTC,101794.79,24,,73.67,2.06,240,,,,,,,,,,,,1,,,,10,,METAR KMKE 110320Z AUTO 24004KT 10SM CLR 24/19 A3006,,,,,,,,,,WSW,,,clear,,,,18.99,99165.29,101699.78
KMKE,09/11/2019 03:25 UTC,101794.79,24,,73.67,2.06,230,,,,,,,,,,,,1,,,,10,,METAR KMKE 110325Z AUTO 23004KT 10SM CLR 24/19 A3006,,,,,,,,,,SW,,,clear,,,,18.99,99165.29,101699.78
KMKE,09/11/2019 03:30 UTC,101794.79,23,,78.24,2.06,210,,,,,,,,,,,,1,,,,10,,METAR KMKE 110330Z AUTO 21004KT 10SM CLR 23/19 A3006,,,,,,,,,,SSW,,,clear,,,,18.99,99165.29,101708.43
KMKE,09/11/2019 03:35 UTC,101794.79,23,,78.24,2.06,220,,,,,,,,,,,,1,,,,10,,METAR KMKE 110335Z AUTO 22004KT 10SM CLR 23/19 A3006,,,,,,,,,,SW,,,clear,,,,18.99,99165.29,101708.43
KMKE,09/11/2019 03:40 UTC,101794.79,23,,78.24,2.06,220,,,,,,,,,,,,1,,,,10,,METAR KMKE 110340Z AUTO 22004KT 10SM CLR 23/19 A3006,,,,,,,,,,SW,,,clear,,,,18.99,99165.29,101708.43
KMKE,09/11/2019 03:45 UTC,101828.66,23,,78.24,2.57,230,,,,,,,,,,,,1,,,,10,,METAR KMKE 110345Z AUTO 23005KT 10SM CLR 23/19 A3007,,,,,,,,,,SW,,,clear,,,,18.99,99198.29,101742.27
KMKE,09/11/2019 03:50 UTC,101828.66,23,,78.24,2.06,240,,,,,,,,,,,,,,,,10,,METAR KMKE 110350Z AUTO 24004KT 10SM 23/19 A3007,,,,,,,,,,WSW,,,,,,,18.99,99198.29,101742.27
KMKE,09/11/2019 03:52 UTC,101828.66,23.3,18.9,76.36,2.57,240,,,101760,,,,,,,,,2502,,,,10,,KMKE 110352Z 24005KT 10SM SCT250 23/19 A3007 RMK AO2 SLP176  T02330189,,,,,,,,,,WSW,,,scattered,,,,18.89,99198.29,101739.67
KMKE,09/11/2019 03:55 UTC,101828.66,23,,78.24,2.57,230,,,,,,,,,,,,1,,,,10,,METAR KMKE 110355Z AUTO 23005KT 10SM CLR 23/19 A3007,,,,,,,,,,SW,,,clear,,,,18.99,99198.29,101742.27
KMKE,09/11/2019 04:00 UTC,101828.66,23,,73.5,2.06,230,,,,,,,,,,,,1,,,,10,,METAR KMKE 110400Z AUTO 23004KT 10SM CLR 23/18 A3007,,,,,,,,,,SW,,,clear,,,,17.99,99198.29,101742.29
KMKE,09/11/2019 04:05 UTC,101828.66,23,,73.5,2.57,230,,,,,,,,,,,,1,,,,10,,METAR KMKE 110405Z AUTO 23005KT 10SM CLR 23/18 A3007,,,,,,,,,,SW,,,clear,,,,17.99,99198.29,101742.29
KMKE,09/11/2019 04:10 UTC,101828.66,23,,73.5,2.06,240,,,,,,,,,,,,1,,,,10,,METAR KMKE 110410Z AUTO 24004KT 10SM CLR 23/18 A3007,,,,,,,,,,WSW,,,clear,,,,17.99,99198.29,101742.29
KMKE,09/11/2019 04:15 UTC,101828.66,23,,73.5,2.57,240,,,,,,,,,,,,1,,,,10,,METAR KMKE 110415Z AUTO 24005KT 10SM CLR 23/18 A3007,,,,,,,,,,WSW,,,clear,,,,17.99,99198.29,101742.29
KMKE,09/11/2019 04:20 UTC,101828.66,23,,73.5,2.57,240,,,,,,,,,,,,1,,,,10,,METAR KMKE 110420Z AUTO 24005KT 10SM CLR 23/18 A3007,,,,,,,,,,WSW,,,clear,,,,17.99,99198.29,101742.29
KMKE,09/11/2019 04:25 UTC,101828.66,23,,73.5,2.57,250,,,,,,,,,,,,1,,,,10,,METAR KMKE 110425Z AUTO 25005KT 10SM CLR 23/18 A3007,,,,,,,,,,WSW,,,clear,,,,17.99,99198.29,101742.29
KMKE,09/11/2019 04:30 UTC,101828.66,23,,73.5,1.54,250,,,,,,,,,,,,1,,,,10,,METAR KMKE 110430Z AUTO 25003KT 10SM CLR 23/18 A3007,,,,,,,,,,WSW,,,clear,,,,17.99,99198.29,101742.29
KMKE,09/11/2019 04:35 UTC,101828.66,23,,73.5,0,0,,,,,,,,,,,,1,,,,10,,METAR KMKE 110435Z AUTO 00000KT 10SM CLR 23/18 A3007,,,,,,,,,,N,,,clear,,,,17.99,99198.29,101742.29
KMKE,09/11/2019 04:40 UTC,101828.66,23,,73.5,1.54,290,,,,,,,,,,,,1,,,,10,,METAR KMKE 110440Z AUTO 29003KT 10SM CLR 23/18 A3007,,,,,,,,,,WNW,,,clear,,,,17.99,99198.29,101742.29
KMKE,09/11/2019 04:45 UTC,101862.52,23,,73.5,1.54,290,,,,,,,,,,,,1,,,,10,,METAR KMKE 110445Z AUTO 29003KT 10SM CLR 23/18 A3008,,,,,,,,,,WNW,,,clear,,,,17.99,99231.27,101776.12
KMKE,09/11/2019 04:50 UTC,101862.52,23,,73.5,1.54,240,,,,,,,,,,,,,,,,10,,METAR KMKE 110450Z AUTO 24003KT 10SM 23/18 A3008,,,,,,,,,,WSW,,,,,,,17.99,99231.27,101776.12
KMKE,09/11/2019 04:52 UTC,101862.52,23.3,17.8,71.28,1.54,240,,,101800,,,,,,,,,2502,,,,10,,KMKE 110452Z 24003KT 10SM SCT250 23/18 A3008 RMK AO2 SLP180  T02330178,,,,,,,,,,WSW,,,scattered,,,,17.79,99231.27,101773.52
KMKE,09/11/2019 04:55 UTC,101862.52,23,,73.5,1.54,220,,,,,,,,,,,,1,,,,10,,METAR KMKE 110455Z AUTO 22003KT 10SM CLR 23/18 A3008,,,,,,,,,,SW,,,clear,,,,17.99,99231.27,101776.12
KMKE,09/11/2019 05:00 UTC,101862.52,23,,73.5,1.54,230,,,,,,,,,,,,1,,,,10,,METAR KMKE 110500Z AUTO 23003KT 10SM CLR 23/18 A3008,,,,,,,,,,SW,,,clear,,,,17.99,99231.27,101776.12
KMKE,09/11/2019 05:05 UTC,101862.52,22,,78.09,1.54,220,,,,,,,,,,,,1,,,,10,,METAR KMKE 110505Z AUTO 22003KT 10SM CLR 22/18 A3008,,,,,,,,,,SW,,,clear,,,,17.99,99231.27,101784.83
KMKE,09/11/2019 05:10 UTC,101862.52,22,,78.09,1.54,200,,,,,,,,,,,,1,,,,10,,METAR KMKE 110510Z AUTO 20003KT 10SM CLR 22/18 A3008,,,,,,,,,,SSW,,,clear,,,,17.99,99231.27,101784.83
KMKE,09/11/2019 05:15 UTC,101862.52,22,,78.09,0,0,,,,,,,,,,,,1,,,,10,,METAR KMKE 110515Z AUTO 00000KT 10SM CLR 22/18 A3008,,,,,,,,,,N,,,clear,,,,17.99,99231.27,101784.83
KMKE,09/11/2019 05:20 UTC,101896.38,22,,78.09,1.54,220,,,,,,,,,,,,1,,,,10,,METAR KMKE 110520Z AUTO 22003KT 10SM CLR 22/18 A3009,,,,,,,,,,SW,,,clear,,,,17.99,99264.26,101818.67
KMKE,09/11/2019 05:25 UTC,101896.38,22,,78.09,0,0,,,,,,,,,,,,1,,,,10,,METAR KMKE 110525Z AUTO 00000KT 10SM CLR 22/18 A3009,,,,,,,,,,N,,,clear,,,,17.99,99264.26,101818.67
KMKE,09/11/2019 05:30 UTC,101896.38,22,,78.09,0,0,,,,,,,,,,,,1,,,,10,,METAR KMKE 110530Z AUTO 00000KT 10SM CLR 22/18 A3009,,,,,,,,,,N,,,clear,,,,17.99,99264.26,101818.67
KMKE,09/11/2019 05:35 UTC,101896.38,22,,78.09,0,0,,,,,,,,,,,,1,,,,10,,METAR KMKE 110535Z AUTO 00000KT 10SM CLR 22/18 A3009,,,,,,,,,,N,,,clear,,,,17.99,99264.26,101818.67
KMKE,09/11/2019 05:40 UTC,101896.38,21,,83.01,0,0,,,,,,,,,,,,1,,,,10,,METAR KMKE 110540Z AUTO 00000KT 10SM CLR 21/18 A3009,,,,,,,,,,N,,,clear,,,,17.99,99264.26,101827.44
KMKE,09/11/2019 05:45 UTC,101896.38,21,,83.01,0,0,,,,,,,,,,,,1,,,,10,,METAR KMKE 110545Z AUTO 00000KT 10SM CLR 21/18 A3009,,,,,,,,,,N,,,clear,,,,17.99,99264.26,101827.44
KMKE,09/11/2019 05:50 UTC,101896.38,21,,83.01,0,0,,,,,,,,,,,,,,,,10,,METAR KMKE 110550Z AUTO 00000KT 10SM 21/18 A3009,,,,,,,,,,N,,,,,,,17.99,99264.26,101827.44
KMKE,09/11/2019 05:52 UTC,101896.38,21.7,17.8,78.54,0,0,,,101870,,,,,,3012,,,2502,,,,10,,KMKE 110552Z 00000KT 10SM SCT250 22/18 A3009 RMK AO2 SLP187  T02170178 10272 20211 402940200 53012,27.2,21.1,,,,29.4,20,,,N,,,scattered,,,,17.79,99264.26,101821.29
KMKE,09/11/2019 05:55 UTC,101930.25,22,,78.09,0,0,,,,,,,,,,,,1,,,,10,,METAR KMKE 110555Z AUTO 00000KT 10SM CLR 22/18 A3010,,,,,,,,,,N,,,clear,,,,17.99,99297.26,101852.51
KMKE,09/11/2019 06:00 UTC,101930.25,21,,83.01,0,0,,,,,,,,,,,,1,,,,10,,METAR KMKE 110600Z AUTO 00000KT 10SM CLR 21/18 A3010,,,,,,,,,,N,,,clear,,,,17.99,99297.26,101861.29
KMKE,09/11/2019 06:05 UTC,101930.25,21,,83.01,0,0,,,,,,,,,,,,1,,,,10,,METAR KMKE 110605Z AUTO 00000KT 10SM CLR 21/18 A3010,,,,,,,,,,N,,,clear,,,,17.99,99297.26,101861.29
KMKE,09/11/2019 06:10 UTC,101930.25,22,,78.09,0,0,,,,,,,,,,,,1,,,,10,,METAR KMKE 110610Z AUTO 00000KT 10SM CLR 22/18 A3010,,,,,,,,,,N,,,clear,,,,17.99,99297.26,101852.51
KMKE,09/11/2019 06:15 UTC,101930.25,22,,78.09,0,0,,,,,,,,,,,,1,,,,10,,METAR KMKE 110615Z AUTO 00000KT 10SM CLR 22/18 A3010,,,,,,,,,,N,,,clear,,,,17.99,99297.26,101852.51
KMKE,09/11/2019 06:20 UTC,101930.25,22,,78.09,1.54,190,,,,,,,,,,,,1,,,,10,,METAR KMKE 110620Z AUTO 19003KT 10SM CLR 22/18 A3010,,,,,,,,,,S,,,clear,,,,17.99,99297.26,101852.51
KMKE,09/11/2019 06:25 UTC,101930.25,22,,78.09,1.54,200,,,,,,,,,,,,1,,,,10,,METAR KMKE 110625Z AUTO 20003KT 10SM CLR 22/18 A3010,,,,,,,,,,SSW,,,clear,,,,17.99,99297.26,101852.51
KMKE,09/11/2019 06:30 UTC,101930.25,22,,78.09,0,0,,,,,,,,,,,,1,,,,10,,METAR KMKE 110630Z AUTO 00000KT 10SM CLR 22/18 A3010,,,,,,,,,,N,,,clear,,,,17.99,99297.26,101852.51
KMKE,09/11/2019 06:35 UTC,101930.25,21,,83.01,0,0,,,,,,,,,,,,1,,,,10,,METAR KMKE 110635Z AUTO 00000KT 10SM CLR 21/18 A3010,,,,,,,,,,N,,,clear,,,,17.99,99297.26,101861.29
KMKE,09/11/2019 06:40 UTC,101896.38,21,,83.01,0,0,,,,,,,,,,,,1,,,,10,,METAR KMKE 110640Z AUTO 00000KT 10SM CLR 21/18 A3009,,,,,,,,,,N,,,clear,,,,17.99,99264.26,101827.44
KMKE,09/11/2019 06:45 UTC,101930.25,21,,83.01,0,0,,,,,,,,,,,,1,,,,10,,METAR KMKE 110645Z AUTO 00000KT 10SM CLR 21/18 A3010,,,,,,,,,,N,,,clear,,,,17.99,99297.26,101861.29
KMKE,09/11/2019 06:50 UTC,101930.25,21,,83.01,0,0,,,,,,,,,,,,,,,,10,,METAR KMKE 110650Z AUTO 00000KT 10SM 21/18 A3010,,,,,,,,,,N,,,,,,,17.99,99297.26,101861.29
KMKE,09/11/2019 06:52 UTC,101930.25,20.6,17.8,84.02,0,0,,,101880,,,,,,,,,2502,,,,10,,KMKE 110652Z 00000KT 10SM SCT250 21/18 A3010 RMK AO2 SLP188  T02060178,,,,,,,,,,N,,,scattered,,,,17.79,99297.26,101864.82
KMKE,09/11/2019 06:55 UTC,101930.25,21,,83.01,1.54,200,,,,,,,,,,,,1,,,,10,,METAR KMKE 110655Z AUTO 20003KT 10SM CLR 21/18 A3010,,,,,,,,,,SSW,,,clear,,,,17.99,99297.26,101861.29
KMKE,09/11/2019 07:00 UTC,101896.38,21,,83.01,0,0,,,,,,,,,,,,1,,,,10,,METAR KMKE 110700Z AUTO 00000KT 10SM CLR 21/18 A3009,,,,,,,,,,N,,,clear,,,,17.99,99264.26,101827.44
KMKE,09/11/2019 07:05 UTC,101896.38,21,,83.01,0,0,,,,,,,,,,,,1,,,,10,,METAR KMKE 110705Z AUTO 00000KT 10SM CLR 21/18 A3009,,,,,,,,,,N,,,clear,,,,17.99,99264.26,101827.44
KMKE,09/11/2019 07:10 UTC,101896.38,21,,83.01,0,0,,,,,,,,,,,,1,,,,10,,METAR KMKE 110710Z AUTO 00000KT 10SM CLR 21/18 A3009,,,,,,,,,,N,,,clear,,,,17.99,99264.26,101827.44
KMKE,09/11/2019 07:15 UTC,101896.38,21,,83.01,0,0,,,,,,,,,,,,1,,,,10,,METAR KMKE 110715Z AUTO 00000KT 10SM CLR 21/18 A3009,,,,,,,,,,N,,,clear,,,,17.99,99264.26,101827.44
KMKE,09/11/2019 07:20 UTC,101896.38,21,,77.94,0,0,,,,,,,,,,,,1,,,,10,,METAR KMKE 110720Z AUTO 00000KT 10SM CLR 21/17 A3009,,,,,,,,,,N,,,clear,,,,16.98,99264.26,101827.46
KMKE,09/11/2019 07:25 UTC,101896.38,21,,77.94,0,0,,,,,,,,,,,,1,,,,10,,METAR KMKE 110725Z AUTO 00000KT 10SM CLR 21/17 A3009,,,,,,,,,,N,,,clear,,,,16.98,99264.26,101827.46
KMKE,09/11/2019 07:30 UTC,101896.38,21,,83.01,0,0,,,,,,,,,,,,1,,,,10,,METAR KMKE 110730Z AUTO 00000KT 10SM CLR 21/18 A3009,,,,,,,,,,N,,,clear,,,,17.99,99264.26,101827.44
KMKE,09/11/2019 07:35 UTC,101896.38,21,,77.94,0,0,,,,,,,,,,,,1,,,,10,,METAR KMKE 110735Z AUTO 00000KT 10SM CLR 21/17 A3009,,,,,,,,,,N,,,clear,,,,16.98,99264.26,101827.46
KMKE,09/11/2019 07:40 UTC,101862.52,21,,83.01,0,0,,,,,,,,,,,,1,,,,10,,METAR KMKE 110740Z AUTO 00000KT 10SM CLR 21/18 A3008,,,,,,,,,,N,,,clear,,,,17.99,99231.27,101793.6
KMKE,09/11/2019 07:45 UTC,101862.52,21,,77.94,0,0,,,,,,,,,,,,1,,,,10,,METAR KMKE 110745Z AUTO 00000KT 10SM CLR 21/17 A3008,,,,,,,,,,N,,,clear,,,,16.98,99231.27,101793.61
KMKE,09/11/2019 07:50 UTC,101896.38,20,,82.89,0,0,,,,,,,,,,,,,,,,10,,METAR KMKE 110750Z AUTO 00000KT 10SM 20/17 A3009,,,,,,,,,,N,,,,,,,16.99,99264.26,101836.29
KMKE,09/11/2019 07:52 UTC,101862.52,20,17.2,83.95,0,0,,,101840,,,,,,,,,1506,2502,,,10,,KMKE 110752Z 00000KT 10SM FEW150 SCT250 20/17 A3008 RMK AO2 SLP184  T02000172,,,,,,,,,,N,,,scattered,,,,17.19,99231.27,101802.44
KMKE,09/11/2019 07:55 UTC,101862.52,20,,82.89,0,0,,,,,,,,,,,,1,,,,10,,METAR KMKE 110755Z AUTO 00000KT 10SM CLR 20/17 A3008,,,,,,,,,,N,,,clear,,,,16.99,99231.27,101802.45
KMKE,09/11/2019 08:00 UTC,101896.38,19,,88.2,0,0,,,,,,,,,,,,1,,,,10,,METAR KMKE 110800Z AUTO 00000KT 10SM CLR 19/17 A3009,,,,,,,,,,N,,,clear,,,,16.99,99264.26,101845.19
KMKE,09/11/2019 08:05 UTC,101896.38,20,,88.29,0,0,,,,,,,,,,,,1006,,,,10,,METAR KMKE 110805Z AUTO 00000KT 10SM FEW100 20/18 A3009,,,,,,,,,,N,,,thin scattered,,,,17.99,99264.26,101836.27
KMKE,09/11/2019 08:10 UTC,101862.52,20,,82.89,0,0,,,,,,,,,,,,1006,,,,10,,METAR KMKE 110810Z AUTO 00000KT 10SM FEW100 20/17 A3008,,,,,,,,,,N,,,thin scattered,,,,16.99,99231.27,101802.45
KMKE,09/11/2019 08:15 UTC,101862.52,20,,88.29,0,0,,,,,,,,,,,,1006,,,,10,,METAR KMKE 110815Z AUTO 00000KT 10SM FEW100 20/18 A3008,,,,,,,,,,N,,,thin scattered,,,,17.99,99231.27,101802.43
KMKE,09/11/2019 08:20 UTC,101896.38,20,,88.29,0,0,,,,,,,,,,,,1006,,,,10,,METAR KMKE 110820Z AUTO 00000KT 10SM FEW100 20/18 A3009,,,,,,,,,,N,,,thin scattered,,,,17.99,99264.26,101836.27
KMKE,09/11/2019 08:25 UTC,101896.38,20,,82.89,0,0,,,,,,,,,,,,1002,,,,10,,METAR KMKE 110825Z AUTO 00000KT 10SM SCT100 20/17 A3009,,,,,,,,,,N,,,scattered,,,,16.99,99264.26,101836.29
KMKE,09/11/2019 08:30 UTC,101896.38,21,,83.01,0,0,,,,,,,,,,,,346,1003,,,10,,METAR KMKE 110830Z AUTO 00000KT 10SM FEW034 BKN100 21/18 A3009,,,,3048,,,,,,N,,,broken,,,,17.99,99264.26,101827.44
KMKE,09/11/2019 08:35 UTC,101896.38,20,,88.29,0,0,,,,,,,,,,,,346,1002,,,10,,METAR KMKE 110835Z AUTO 00000KT 10SM FEW034 SCT100 20/18 A3009,,,,,,,,,,N,,,scattered,,,,17.99,99264.26,101836.27
KMKE,09/11/2019 08:40 UTC,101862.52,21,,83.01,0,0,,,,,,,,,,,,342,1002,,,10,,METAR KMKE 110840Z AUTO 00000KT 10SM SCT034 SCT100 21/18 A3008,,,,,,,,,,N,,,scattered,,,,17.99,99231.27,101793.6
KMKE,09/11/2019 08:45 UTC,101896.38,20,,82.89,0,0,,,,,,,,,,,,342,1003,,,10,,METAR KMKE 110845Z AUTO 00000KT 10SM SCT034 BKN100 20/17 A3009,,,,3048,,,,,,N,,,broken,,,,16.99,99264.26,101836.29
KMKE,09/11/2019 08:50 UTC,101862.52,20,,82.89,0,0,,,,,,,,,,,,342,1002,,,10,,METAR KMKE 110850Z AUTO 00000KT 10SM SCT034 SCT100 20/17 A3008,,,,,,,,,,N,,,scattered,,,,16.99,99231.27,101802.45
KMKE,09/11/2019 08:52 UTC,101862.52,20,17.2,83.95,0,0,,,101830,,2503,,,,8003,,,342,1002,,,10,,KMKE 110852Z 00000KT 10SM SCT034 SCT100 BKN250 20/17 A3008 RMK AO2  SLP183 T02000172 58003,,,,7620,,,,,,N,,,broken,,,,17.19,99231.27,101802.44
KMKE,09/11/2019 08:55 UTC,101862.52,20,,82.89,0,0,,,,,,,,,,,,346,,,,10,,METAR KMKE 110855Z AUTO 00000KT 10SM FEW034 20/17 A3008,,,,,,,,,,N,,,thin scattered,,,,16.99,99231.27,101802.45
KMKE,09/11/2019 09:00 UTC,101862.52,20,,88.29,0,0,,,,,,,,,,,,346,952,,,10,,METAR KMKE 110900Z AUTO 00000KT 10SM FEW034 SCT095 20/18 A3008,,,,,,,,,,N,,,scattered,,,,17.99,99231.27,101802.43
KMKE,09/11/2019 09:05 UTC,101862.52,19,,93.94,0,0,,,,,,,,,,,,346,902,,,10,,METAR KMKE 110905Z AUTO 00000KT 10SM FEW034 SCT090 19/18 A3008,,,,,,,,,,N,,,scattered,,,,18,99231.27,101811.32
KMKE,09/11/2019 09:10 UTC,101862.52,19,,88.2,0,0,,,,,,,,,,,,906,,,,10,,METAR KMKE 110910Z AUTO 00000KT 10SM FEW090 19/17 A3008,,,,,,,,,,N,,,thin scattered,,,,16.99,99231.27,101811.34
KMKE,09/11/2019 09:15 UTC,101862.52,20,,82.89,0,0,,,,,,,,,,,,806,,,,10,,METAR KMKE 110915Z AUTO 00000KT 10SM FEW080 20/17 A3008,,,,,,,,,,N,,,thin scattered,,,,16.99,99231.27,101802.45
KMKE,09/11/2019 09:20 UTC,101862.52,20,,82.89,0,0,,,,,,,,,,,,803,,,,10,,METAR KMKE 110920Z AUTO 00000KT 10SM BKN080 20/17 A3008,,,,2438.4,,,,,,N,,,broken,,,,16.99,99231.27,101802.45
KMKE,09/11/2019 09:25 UTC,101862.52,20,,82.89,0,0,,,,,,,,,,,,853,,,,10,,METAR KMKE 110925Z AUTO 00000KT 10SM BKN085 20/17 A3008,,,,2590.8,,,,,,N,,,broken,,,,16.99,99231.27,101802.45
KMKE,09/11/2019 09:30 UTC,101862.52,20,,88.29,0,0,,,,,,,,,,,,903,,,,10,,METAR KMKE 110930Z AUTO 00000KT 10SM BKN090 20/18 A3008,,,,2743.2,,,,,,N,,,broken,,,,17.99,99231.27,101802.43
KMKE,09/11/2019 09:35 UTC,101862.52,20,,88.29,0,0,,,,,,,,,,,,903,1003,,,10,,METAR KMKE 110935Z AUTO 00000KT 10SM BKN090 BKN100 20/18 A3008,,,,2743.2,,,,,,N,,,broken,,,,17.99,99231.27,101802.43
KMKE,09/11/2019 09:40 UTC,101862.52,20,,88.29,0,0,,,,,,,,,,,,853,,,,10,,METAR KMKE 110940Z AUTO 00000KT 10SM BKN085 20/18 A3008,,,,2590.8,,,,,,N,,,broken,,,,17.99,99231.27,101802.43
KMKE,09/11/2019 09:45 UTC,101862.52,20,,88.29,0,0,,,,,,,,,,,,853,,,,10,,METAR KMKE 110945Z AUTO 00000KT 10SM BKN085 20/18 A3008,,,,2590.8,,,,,,N,,,broken,,,,17.99,99231.27,101802.43
KMKE,09/11/2019 09:50 UTC,101828.66,20,,88.29,1.54,140,,,,,,,,,,,,852,,,,10,,METAR KMKE 110950Z AUTO 14003KT 10SM SCT085 20/18 A3007,,,,,,,,,,SE,,,scattered,,,,17.99,99198.29,101768.59
KMKE,09/11/2019 09:52 UTC,101828.66,20,17.8,87.18,2.06,140,,,101790,,,,,,,,,852,2503,,,10,,KMKE 110952Z 14004KT 10SM SCT085 BKN250 20/18 A3007 RMK AO2 SLP179  T02000178,,,,7620,,,,,,SE,,,broken,,,,17.79,99198.29,101768.6
KMKE,09/11/2019 09:55 UTC,101828.66,20,,88.29,2.57,140,,,,,,,,,,,,852,,,,10,,METAR KMKE 110955Z AUTO 14005KT 10SM SCT085 20/18 A3007,,,,,,,,,,SE,,,scattered,,,,17.99,99198.29,101768.59
KMKE,09/11/2019 10:00 UTC,101828.66,20,,88.29,2.57,160,,,,,,,,,,,,856,,,,10,,METAR KMKE 111000Z AUTO 16005KT 10SM FEW085 20/18 A3007,,,,,,,,,,SSE,,,thin scattered,,,,17.99,99198.29,101768.59
KMKE,09/11/2019 10:05 UTC,101828.66,21,,83.01,2.06,170,,,,,,,,,,,,806,,,,10,,METAR KMKE 111005Z AUTO 17004KT 10SM FEW080 21/18 A3007,,,,,,,,,,S,,,thin scattered,,,,17.99,99198.29,101759.77
KMKE,09/11/2019 10:10 UTC,101862.52,21,,83.01,0,0,,,,,,,,,,,,1,,,,10,,METAR KMKE 111010Z AUTO 00000KT 10SM CLR 21/18 A3008,,,,,,,,,,N,,,clear,,,,17.99,99231.27,101793.6
KMKE,09/11/2019 10:15 UTC,101862.52,21,,83.01,0,0,,,,,,,,,,,,1,,,,10,,METAR KMKE 111015Z AUTO 00000KT 10SM CLR 21/18 A3008,,,,,,,,,,N,,,clear,,,,17.99,99231.27,101793.6
KMKE,09/11/2019 10:20 UTC,101862.52,21,,77.94,0,0,,,,,,,,,,,,1,,,,10,,METAR KMKE 111020Z AUTO 00000KT 10SM CLR 21/17 A3008,,,,,,,,,,N,,,clear,,,,16.98,99231.27,101793.61
KMKE,09/11/2019 10:25 UTC,101862.52,21,,77.94,0,0,,,,,,,,,,,,1,,,,10,,METAR KMKE 111025Z AUTO 00000KT 10SM CLR 21/17 A3008,,,,,,,,,,N,,,clear,,,,16.98,99231.27,101793.61
KMKE,09/11/2019 10:30 UTC,101862.52,20,,82.89,0,0,,,,,,,,,,,,1,,,,10,,METAR KMKE 111030Z AUTO 00000KT 10SM CLR 20/17 A3008,,,,,,,,,,N,,,clear,,,,16.99,99231.27,101802.45
KMKE,09/11/2019 10:35 UTC,101862.52,20,,82.89,0,0,,,,,,,,,,,,1,,,,10,,METAR KMKE 111035Z AUTO 00000KT 10SM CLR 20/17 A3008,,,,,,,,,,N,,,clear,,,,16.99,99231.27,101802.45
KMKE,09/11/2019 10:40 UTC,101862.52,19,,88.2,0,0,,,,,,,,,,,,1,,,,10,,METAR KMKE 111040Z AUTO 00000KT 10SM CLR 19/17 A3008,,,,,,,,,,N,,,clear,,,,16.99,99231.27,101811.34
KMKE,09/11/2019 10:45 UTC,101862.52,19,,88.2,0,0,,,,,,,,,,,,1,,,,10,,METAR KMKE 111045Z AUTO 00000KT 10SM CLR 19/17 A3008,,,,,,,,,,N,,,clear,,,,16.99,99231.27,101811.34
KMKE,09/11/2019 10:50 UTC,101862.52,19,,88.2,0,0,,,,,,,,,,,,,,,,10,,METAR KMKE 111050Z AUTO 00000KT 10SM 19/17 A3008,,,,,,,,,,N,,,,,,,16.99,99231.27,101811.34
KMKE,09/11/2019 10:52 UTC,101862.52,20,17.2,83.95,0,0,,,101830,,,,,,,,,1302,2503,,,10,,KMKE 111052Z 00000KT 10SM SCT130 BKN250 20/17 A3008 RMK AO2 SLP183  T02000172,,,,7620,,,,,,N,,,broken,,,,17.19,99231.27,101802.44
KMKE,09/11/2019 10:55 UTC,101896.38,19,,88.2,0,0,,,,,,,,,,,,,,,,10,,METAR KMKE 111055Z AUTO 00000KT 10SM 19/17 A3009,,,,,,,,,,N,,,,,,,16.99,99264.26,101845.19
KMKE,09/11/2019 11:00 UTC,101896.38,19,,88.2,0,0,,,,,,,,,,,,,,,,10,,METAR KMKE 111100Z AUTO 00000KT 10SM 19/17 A3009,,,,,,,,,,N,,,,,,,16.99,99264.26,101845.19
KMKE,09/11/2019 11:05 UTC,101896.38,20,,88.29,0,0,,,,,,,,,,,,,,,,10,,METAR KMKE 111105Z AUTO 00000KT 10SM 20/18 A3009,,,,,,,,,,N,,,,,,,17.99,99264.26,101836.27
KMKE,09/11/2019 11:10 UTC,101896.38,20,,88.29,0,0,,,,,,,,,,,,,,,,10,,METAR KMKE 111110Z AUTO 00000KT 10SM 20/18 A3009,,,,,,,,,,N,,,,,,,17.99,99264.26,101836.27
KMKE,09/11/2019 11:15 UTC,101896.38,21,,83.01,1.54,190,,,,,,,,,,,,803,,,,10,,METAR KMKE 111115Z AUTO 19003KT 10SM BKN080 21/18 A3009,,,,2438.4,,,,,,S,,,broken,,,,17.99,99264.26,101827.44
KMKE,09/11/2019 11:20 UTC,101896.38,21,,83.01,1.54,210,,,,,,,,,,,,753,,,,10,,METAR KMKE 111120Z AUTO 21003KT 10SM BKN075 21/18 A3009,,,,2286,,,,,,SSW,,,broken,,,,17.99,99264.26,101827.44
KMKE,09/11/2019 11:25 UTC,101896.38,21,,83.01,0,0,,,,,,,,,,,,754,,,,10,,METAR KMKE 111125Z AUTO 00000KT 10SM OVC075 21/18 A3009,,,,2286,,,,,,N,,,overcast,,,,17.99,99264.26,101827.44
KMKE,09/11/2019 11:30 UTC,101896.38,21,,83.01,0,0,,,,,,,,,,,,803,,,,10,,METAR KMKE 111130Z AUTO 00000KT 10SM BKN080 21/18 A3009,,,,2438.4,,,,,,N,,,broken,,,,17.99,99264.26,101827.44
KMKE,09/11/2019 11:35 UTC,101896.38,21,,83.01,0,0,,,,,,,,,,,,753,,,,10,,METAR KMKE 111135Z AUTO 00000KT 10SM BKN075 21/18 A3009,,,,2286,,,,,,N,,,broken,,,,17.99,99264.26,101827.44
KMKE,09/11/2019 11:40 UTC,101896.38,21,,83.01,1.54,160,,,,,,,,,,,,802,,,,10,,METAR KMKE 111140Z AUTO 16003KT 10SM SCT080 21/18 A3009,,,,,,,,,,SSE,,,scattered,,,,17.99,99264.26,101827.44
KMKE,09/11/2019 11:45 UTC,101896.38,21,,83.01,1.54,160,,,,,,,,,,,,802,,,,10,,METAR KMKE 111145Z AUTO 16003KT 10SM SCT080 21/18 A3009,,,,,,,,,,SSE,,,scattered,,,,17.99,99264.26,101827.44
KMKE,09/11/2019 11:50 UTC,101896.38,21,,83.01,0,0,,,,,,,,,,,,802,,,,10,,METAR KMKE 111150Z AUTO 00000KT 10SM SCT080 21/18 A3009,,,,,,,,,,N,,,scattered,,,,17.99,99264.26,101827.44
KMKE,09/11/2019 11:52 UTC,101930.25,21.1,18.9,87.29,0,0,,,101870,,1803,,,,3004,,,802,1303,,13.97,10,,KMKE 111152Z 00000KT 10SM SCT080 BKN130 BKN180 BKN250 21/19 A3010 RMK AO2 SLP187 70055 T02110189 10222 20194 53004,22.2,19.4,,3962.4,,,,,,N,,,broken,,,,18.89,99297.26,101860.39
KMKE,09/11/2019 11:55 UTC,101930.25,22,,83.13,2.06,200,,,,,,,,,,,,376,802,,,10,,METAR KMKE 111155Z AUTO 20004KT 10SM FEW037 SCT080 22/19 A3010,,,,,,,,,,SSW,,,scattered,,,,18.99,99297.26,101852.5
KMKE,09/11/2019 12:00 UTC,101930.25,22,,83.13,2.06,210,,,,,,,,,,,,372,803,,,10,,METAR KMKE 111200Z AUTO 21004KT 10SM SCT037 BKN080 22/19 A3010,,,,2438.4,,,,,,SSW,,,broken,,,,18.99,99297.26,101852.5
KMKE,09/11/2019 12:05 UTC,101930.25,22,,83.13,0,0,,,,,,,,,,,,383,803,,,10,,METAR KMKE 111205Z AUTO 00000KT 10SM BKN038 BKN080 22/19 A3010,,,,1158.24,,,,,,N,,,broken,,,,18.99,99297.26,101852.5
KMKE,09/11/2019 12:10 UTC,101930.25,22,,83.13,0,0,,,,,803,,,,,,,383,443,,,10,,METAR KMKE 111210Z AUTO 00000KT 10SM BKN038 BKN044 BKN080 22/19 A3010,,,,1158.24,,,,,,N,,,broken,,,,18.99,99297.26,101852.5
KMKE,09/11/2019 12:15 UTC,101896.38,22,,83.13,0,0,,,,,803,,,,,,,382,443,,,10,,METAR KMKE 111215Z AUTO 00000KT 10SM SCT038 BKN044 BKN080 22/19 A3009,,,,1341.12,,,,,,N,,,broken,,,,18.99,99264.26,101818.65
KMKE,09/11/2019 12:20 UTC,101896.38,22,,83.13,0,0,,,,,,,,,,,,382,453,,,10,,METAR KMKE 111220Z AUTO 00000KT 10SM SCT038 BKN045 22/19 A3009,,,,1371.6,,,,,,N,,,broken,,,,18.99,99264.26,101818.65
KMKE,09/11/2019 12:25 UTC,101896.38,22,,83.13,0,0,,,,,,,,,,,,392,,,,10,,METAR KMKE 111225Z AUTO 00000KT 10SM SCT039 22/19 A3009,,,,,,,,,,N,,,scattered,,,,18.99,99264.26,101818.65
KMKE,09/11/2019 12:30 UTC,101896.38,23,,83.25,0,0,,,,,,,,,,,,416,,,,10,,METAR KMKE 111230Z AUTO 00000KT 10SM FEW041 23/20 A3009,,,,,,,,,,N,,,thin scattered,,,,19.99,99264.26,101809.91
KMKE,09/11/2019 12:35 UTC,101896.38,22,,88.46,0,0,,,,,,,,,,,,436,1106,,,10,,METAR KMKE 111235Z AUTO 00000KT 10SM FEW043 FEW110 22/20 A3009,,,,,,,,,,N,,,thin scattered,,,,20,99264.26,101818.63
KMKE,09/11/2019 12:40 UTC,101896.38,22,,88.46,1.54,190,,,,,,,,,,,,1106,,,,10,,METAR KMKE 111240Z AUTO 19003KT 10SM FEW110 22/20 A3009,,,,,,,,,,S,,,thin scattered,,,,20,99264.26,101818.63
KMKE,09/11/2019 12:45 UTC,101896.38,23,,83.25,2.06,160,,,,,,,,,,,,806,1202,,,10,,METAR KMKE 111245Z AUTO 16004KT 10SM FEW080 SCT120 23/20 A3009,,,,,,,,,,SSE,,,scattered,,,,19.99,99264.26,101809.91
KMKE,09/11/2019 12:50 UTC,101896.38,22,,88.46,2.06,180,,,,,,,,,,,,806,1202,,,10,,METAR KMKE 111250Z AUTO 18004KT 10SM FEW080 SCT120 22/20 A3009,,,,,,,,,,S,,,scattered,,,,20,99264.26,101818.63
KMKE,09/11/2019 12:52 UTC,101896.38,22.8,20,84.26,1.54,200,,,101840,,1403,,,,,,,806,1202,,,10,,KMKE 111252Z 20003KT 10SM FEW080 SCT120 BKN140 BKN250 23/20 A3009 RMK AO2 SLP184 T02280200,,,,4267.2,,,,,,SSW,,,broken,,,,19.99,99264.26,101811.65
KMKE,09/11/2019 12:55 UTC,101896.38,23,,83.25,0,0,,,,,,,,,,,,1106,,,,10,,METAR KMKE 111255Z AUTO 00000KT 10SM FEW110 23/20 A3009,,,,,,,,,,N,,,thin scattered,,,,19.99,99264.26,101809.91
KMKE,09/11/2019 13:00 UTC,101862.52,23,,83.25,0,0,,,,,,,,,,,,1002,1202,,,10,,METAR KMKE 111300Z AUTO 00000KT 10SM SCT100 SCT120 23/20 A3008,,,,,,,,,,N,,,scattered,,,,19.99,99231.27,101776.08
KMKE,09/11/2019 13:05 UTC,101896.38,23,,83.25,1.54,140,,,,,,,,,,,,1002,,,,10,,METAR KMKE 111305Z AUTO 14003KT 10SM SCT100 23/20 A3009,,,,,,,,,,SE,,,scattered,,,,19.99,99264.26,101809.91
KMKE,09/11/2019 13:10 UTC,101896.38,23,,83.25,1.54,170,,,,,,,,,,,,1006,,,,9,,METAR KMKE 111310Z AUTO 17003KT 9SM FEW100 23/20 A3009,,,,,,,,,,S,,,thin scattered,,,,19.99,99264.26,101809.91
KMKE,09/11/2019 13:15 UTC,101896.38,23,,83.25,0,0,,,,,,,,,,,,1002,,,,9,,METAR KMKE 111315Z AUTO 00000KT 9SM SCT100 23/20 A3009,,,,,,,,,,N,,,scattered,,,,19.99,99264.26,101809.91
KMKE,09/11/2019 13:20 UTC,101896.38,23,,88.54,0,0,,,,,,,,,,,,1003,,,,9,,METAR KMKE 111320Z AUTO 00000KT 9SM BKN100 23/21 A3009,,,,3048,,,,,,N,,,broken,,,,21,99264.26,101809.89
KMKE,09/11/2019 13:25 UTC,101896.38,23,,88.54,2.06,180,,,,,,,,,,,,1003,,,,9,,METAR KMKE 111325Z AUTO 18004KT 9SM BKN100 23/21 A3009,,,,3048,,,,,,S,,,broken,,,,21,99264.26,101809.89
KMKE,09/11/2019 13:30 UTC,101896.38,24,,83.37,2.57,180,,,,,,,,,,,,1003,,,,9,,METAR KMKE 111330Z AUTO 18005KT 9SM BKN100 24/21 A3009,,,,3048,,,,,,S,,,broken,,,,21,99264.26,101801.24
KMKE,09/11/2019 13:35 UTC,101930.25,24,,83.37,2.06,180,,,,,,,,,,,,1003,,,,9,,METAR KMKE 111335Z AUTO 18004KT 9SM BKN100 24/21 A3010,,,,3048,,,,,,S,,,broken,,,,21,99297.26,101835.08
KMKE,09/11/2019 13:40 UTC,101896.38,24,,83.37,2.06,160,,,,,,,,,,,,1003,,,,9,,METAR KMKE 111340Z AUTO 16004KT 9SM BKN100 24/21 A3009,,,,3048,,,,,,SSE,,,broken,,,,21,99264.26,101801.24
KMKE,09/11/2019 13:45 UTC,101896.38,24,,83.37,2.06,200,,,,,,,,,,,,806,1003,,,9,,METAR KMKE 111345Z AUTO 20004KT 9SM FEW080 BKN100 24/21 A3009,,,,3048,,,,,,SSW,,,broken,,,,21,99264.26,101801.24
KMKE,09/11/2019 13:50 UTC,101896.38,24,,83.37,3.09,200,,,,,,,,,,,,806,1003,,,9,,METAR KMKE 111350Z AUTO 20006KT 9SM FEW080 BKN100 24/21 A3009,,,,3048,,,,,,SSW,,,broken,,,,21,99264.26,101801.24
KMKE,09/11/2019 13:52 UTC,101896.38,23.9,21.1,84.39,2.57,190,,,101850,,1503,,,,,,,806,1003,,,9,,KMKE 111352Z 19005KT 9SM FEW080 BKN100 BKN150 BKN250 24/21 A3009 RMK AO2 SLP185 T02390211,,,,3048,,,,,,S,,,broken,,,,21.1,99264.26,101802.1
KMKE,09/11/2019 13:55 UTC,101896.38,24,,83.37,2.06,170,,,,,,,,,,,,1002,,,,9,,METAR KMKE 111355Z AUTO 17004KT 9SM SCT100 24/21 A3009,,,,,,,,,,S,,,scattered,,,,21,99264.26,101801.24
KMKE,09/11/2019 14:00 UTC,101896.38,24,,88.62,1.54,180,,,,,,,,,,,,1002,,,,9,,METAR KMKE 111400Z AUTO 18003KT 9SM SCT100 24/22 A3009,,,,,,,,,,S,,,scattered,,,,22,99264.26,101801.22
KMKE,09/11/2019 14:05 UTC,101896.38,24,,88.62,1.54,160,,,,,,,,,,,,1002,,,,9,,METAR KMKE 111405Z AUTO 16003KT 9SM SCT100 24/22 A3009,,,,,,,,,,SSE,,,scattered,,,,22,99264.26,101801.22
KMKE,09/11/2019 14:10 UTC,101896.38,24,,88.62,1.54,140,,,,,,,,,,,,952,,,,9,,METAR KMKE 111410Z AUTO 14003KT 9SM SCT095 24/22 A3009,,,,,,,,,,SE,,,scattered,,,,22,99264.26,101801.22
KMKE,09/11/2019 14:15 UTC,101862.52,24,,88.62,1.54,190,,,,,,,,,,,,956,,,,9,,METAR KMKE 111415Z AUTO 19003KT 9SM FEW095 24/22 A3008,,,,,,,,,,S,,,thin scattered,,,,22,99231.27,101767.39
KMKE,09/11/2019 14:20 UTC,101896.38,25,,83.48,3.09,190,,,,,,,,,,,,1006,,,,9,,METAR KMKE 111420Z AUTO 19006KT 9SM FEW100 25/22 A3009,,,,,,,,,,S,,,thin scattered,,,,22,99264.26,101792.62
KMKE,09/11/2019 14:25 UTC,101896.38,26,,78.68,2.57,210,,,,,,,,,,,,1006,,,,9,,METAR KMKE 111425Z AUTO 21005KT 9SM FEW100 26/22 A3009,,,,,,,,,,SSW,,,thin scattered,,,,22,99264.26,101784.09
KMKE,09/11/2019 14:30 UTC,101896.38,26,,78.68,3.09,220,,,,,,,,,,,,956,,,,9,,METAR KMKE 111430Z AUTO 22006KT 9SM FEW095 26/22 A3009,,,,,,,,,,SW,,,thin scattered,,,,22,99264.26,101784.09
KMKE,09/11/2019 14:35 UTC,101862.52,26,,78.68,3.6,210,,,,,,,,,,,,1,,,,10,,METAR KMKE 111435Z AUTO 21007KT 10SM CLR 26/22 A3008,,,,,,,,,,SSW,,,clear,,,,22,99231.27,101750.26
KMKE,09/11/2019 14:40 UTC,101862.52,26,,78.68,3.09,220,,,,,,,,,,,,1,,,,10,,METAR KMKE 111440Z AUTO 22006KT 10SM CLR 26/22 A3008,,,,,,,,,,SW,,,clear,,,,22,99231.27,101750.26
KMKE,09/11/2019 14:45 UTC,101862.52,26,,78.68,3.09,220,,,,,,,,,,,,1,,,,10,,METAR KMKE 111445Z AUTO 22006KT 10SM CLR 26/22 A3008,,,,,,,,,,SW,,,clear,,,,22,99231.27,101750.26
KMKE,09/11/2019 14:50 UTC,101862.52,26,,78.68,3.6,210,,,,,,,,,,,,406,1203,,,10,,METAR KMKE 111450Z AUTO 21007KT 10SM FEW040 BKN120 26/22 A3008,,,,3657.6,,,,,,SSW,,,broken,,,,22,99231.27,101750.26
KMKE,09/11/2019 14:52 UTC,101862.52,26.1,22.2,79.18,3.09,220,,,101820,,2503,,,,8004,,,406,1203,,,10,,KMKE 111452Z 22006KT 10SM FEW040 BKN120 BKN250 26/22 A3008 RMK AO2  SLP182 T02610222 58004,,,,3657.6,,,,,,SW,,,broken,,,,22.2,99231.27,101749.4
KMKE,09/11/2019 14:55 UTC,101862.52,26,,78.68,3.6,220,,,,,,,,,,,,1,,,,10,,METAR KMKE 111455Z AUTO 22007KT 10SM CLR 26/22 A3008,,,,,,,,,,SW,,,clear,,,,22,99231.27,101750.26
KMKE,09/11/2019 15:00 UTC,101862.52,26,,78.68,4.12,230,,,,,,,,,,,,1,,,,10,,METAR KMKE 111500Z AUTO 23008KT 10SM CLR 26/22 A3008,,,,,,,,,,SW,,,clear,,,,22,99231.27,101750.26
KMKE,09/11/2019 15:05 UTC,101862.52,27,,74.19,4.12,200,,,,,,,,,,,,1,,,,10,,METAR KMKE 111505Z AUTO 20008KT 10SM CLR 27/22 A3008,,,,,,,,,,SSW,29.21,,clear,,,,22.01,99231.27,101741.78
KMKE,09/11/2019 15:10 UTC,101862.52,27,,74.19,3.6,210,,,,,,,,,,,,1,,,,10,,METAR KMKE 111510Z AUTO 21007KT 10SM CLR 27/22 A3008,,,,,,,,,,SSW,29.21,,clear,,,,22.01,99231.27,101741.78
KMKE,09/11/2019 15:15 UTC,101828.66,27,,78.82,4.12,210,,,,,,,,,,,,406,1202,,,10,,METAR KMKE 111515Z AUTO 21008KT 10SM FEW040 SCT120 27/23 A3007,,,,,,,,,,SSW,29.63,,scattered,,,,23,99198.29,101707.94
KMKE,09/11/2019 15:20 UTC,101828.66,27,,78.82,3.6,210,,,,,,,,,,,,406,1202,,,10,,METAR KMKE 111520Z AUTO 21007KT 10SM FEW040 SCT120 27/23 A3007,,,,,,,,,,SSW,29.63,,scattered,,,,23,99198.29,101707.94
KMKE,09/11/2019 15:25 UTC,101828.66,28,,74.36,4.63,210,,,,,,,,,,,,406,1202,,,10,,METAR KMKE 111525Z AUTO 21009KT 10SM FEW040 SCT120 28/23 A3007,,,,,,,,,,SSW,31.26,,scattered,,,,23.01,99198.29,101699.53
KMKE,09/11/2019 15:30 UTC,101828.66,28,,74.36,4.63,210,,,,,,,,,,,,406,1202,,,10,,METAR KMKE 111530Z AUTO 21009KT 10SM FEW040 SCT120 28/23 A3007,,,,,,,,,,SSW,31.26,,scattered,,,,23.01,99198.29,101699.53
KMKE,09/11/2019 15:35 UTC,101828.66,28,,74.36,4.12,220,,,,,,,,,,,,406,1202,,,10,,METAR KMKE 111535Z AUTO 22008KT 10SM FEW040 SCT120 28/23 A3007,,,,,,,,,,SW,31.26,,scattered,,,,23.01,99198.29,101699.53
KMKE,09/11/2019 15:40 UTC,101828.66,28,,74.36,5.14,210,,,,,,,,,,,,406,1202,,,10,,METAR KMKE 111540Z AUTO 21010KT 10SM FEW040 SCT120 28/23 A3007,,,,,,,,,,SSW,31.26,,scattered,,,,23.01,99198.29,101699.53
KMKE,09/11/2019 15:45 UTC,101828.66,28,,74.36,5.14,220,,,,,,,,,,,,406,1202,,,10,,METAR KMKE 111545Z AUTO 22010KT 10SM FEW040 SCT120 28/23 A3007,,,,,,,,,,SW,31.26,,scattered,,,,23.01,99198.29,101699.53
KMKE,09/11/2019 15:50 UTC,101828.66,28,,74.36,5.14,210,,,,,,,,,,,,406,1202,,,10,,METAR KMKE 111550Z AUTO 21010KT 10SM FEW040 SCT120 28/23 A3007,,,,,,,,,,SSW,31.26,,scattered,,,,23.01,99198.29,101699.53
KMKE,09/11/2019 15:52 UTC,101828.66,28.9,22.8,69.73,5.14,220,,,101770,,2503,,,,,,,406,1202,,,10,,KMKE 111552Z 22010KT 10SM FEW040 SCT120 BKN250 29/23 A3007 RMK AO2  SLP177 T02890228,,,,7620,,,,,,SW,32.46,,broken,,,,22.82,99198.29,101692
KMKE,09/11/2019 15:55 UTC,101828.66,29,,66.04,6.17,220,,,,,,,,,,,,1,,,,10,,METAR KMKE 111555Z AUTO 22012KT 10SM CLR 29/22 A3007,,,,,,,,,,SW,32.02,,clear,,,,22.02,99198.29,101691.19
KMKE,09/11/2019 16:00 UTC,101828.66,28,,74.36,3.6,210,,,,,,,,,,,,1,,,,10,,METAR KMKE 111600Z AUTO 21007KT 10SM CLR 28/23 A3007,,,,,,,,,,SSW,31.26,,clear,,,,23.01,99198.29,101699.53
KMKE,09/11/2019 16:05 UTC,101828.66,28,,69.98,4.12,220,,,,,,,,,,,,1,,,,10,,METAR KMKE 111605Z AUTO 22008KT 10SM CLR 28/22 A3007,,,,,,,,,,SW,30.66,,clear,,,,22.01,99198.29,101699.55
KMKE,09/11/2019 16:10 UTC,101828.66,28,,69.98,4.63,210,,,,,,,,,,,,1202,,,,10,,METAR KMKE 111610Z AUTO 21009KT 10SM SCT120 28/22 A3007,,,,,,,,,,SSW,30.66,,scattered,,,,22.01,99198.29,101699.55
KMKE,09/11/2019 16:15 UTC,101828.66,28,,69.98,4.12,220,,,,,,,,,,,,1202,,,,10,,METAR KMKE 111615Z AUTO 22008KT 10SM SCT120 28/22 A3007,,,,,,,,,,SW,30.66,,scattered,,,,22.01,99198.29,101699.55
KMKE,09/11/2019 16:20 UTC,101828.66,28,,69.98,4.12,220,,,,,,,,,,,,1202,,,,10,,METAR KMKE 111620Z AUTO 22008KT 10SM SCT120 28/22 A3007,,,,,,,,,,SW,30.66,,scattered,,,,22.01,99198.29,101699.55
KMKE,09/11/2019 16:25 UTC,101828.66,29,,70.17,3.6,230,,,,,,,,,,,,1202,,,,10,,METAR KMKE 111625Z AUTO 23007KT 10SM SCT120 29/23 A3007,,,,,,,,,,SW,32.76,,scattered,,,,23.02,99198.29,101691.16
KMKE,09/11/2019 16:30 UTC,101828.66,29,,70.17,5.14,210,,,,,,,,,,,,1202,,,,10,,METAR KMKE 111630Z AUTO 21010KT 10SM SCT120 29/23 A3007,,,,,,,,,,SSW,32.76,,scattered,,,,23.02,99198.29,101691.16
KMKE,09/11/2019 16:35 UTC,101794.79,29,,70.17,5.66,210,,,,,,,,,,,,1202,,,,10,,METAR KMKE 111635Z AUTO 21011KT 10SM SCT120 29/23 A3006,,,,,,,,,,SSW,32.76,,scattered,,,,23.02,99165.29,101657.33
KMKE,09/11/2019 16:40 UTC,101794.79,29,,70.17,5.14,210,7.72,,,,,,,,,,,1202,,,,10,,METAR KMKE 111640Z AUTO 21010G15KT 10SM SCT120 29/23 A3006,,,,,,,,,,SSW,32.76,,scattered,,,,23.02,99165.29,101657.33
KMKE,09/11/2019 16:45 UTC,101794.79,29,,70.17,5.14,220,,,,,,,,,,,,1202,,,,10,,METAR KMKE 111645Z AUTO 22010KT 10SM SCT120 29/23 A3006,,,,,,,,,,SW,32.76,,scattered,,,,23.02,99165.29,101657.33
KMKE,09/11/2019 16:50 UTC,101794.79,30,,66.25,5.66,240,8.23,,,,,,,,,,,506,,,,10,,METAR KMKE 111650Z AUTO 24011G16KT 10SM FEW050 30/23 A3006,,,,,,,,,,WSW,34.16,,thin scattered,,,,23.03,99165.29,101649.03
KMKE,09/11/2019 16:52 UTC,101794.79,30,22.8,65.45,7.2,220,,,101720,,2503,,,,,,,506,1502,,,10,,KMKE 111652Z 22014KT 10SM FEW050 SCT150 BKN250 30/23 A3006 RMK AO2  SLP172 T03000228,,,,7620,,,,,,SW,33.98,,broken,,,,22.83,99165.29,101649.04
KMKE,09/11/2019 16:55 UTC,101794.79,30,,62.35,5.66,220,,,,,,,,,,,,1,,,,10,,METAR KMKE 111655Z AUTO 22011KT 10SM CLR 30/22 A3006,,,,,,,,,,SW,33.31,,clear,,,,22.03,99165.29,101649.05
KMKE,09/11/2019 17:00 UTC,101760.93,30,,66.25,6.17,230,,,,,,,,,,,,1,,,,10,,METAR KMKE 111700Z AUTO 23012KT 10SM CLR 30/23 A3005,,,,,,,,,,SW,34.16,,clear,,,,23.03,99132.31,101615.23
KMKE,09/11/2019 17:05 UTC,101760.93,30,,62.35,5.14,230,,,,,,,,,,,,1,,,,10,,METAR KMKE 111705Z AUTO 23010KT 10SM CLR 30/22 A3005,,,,,,,,,,SW,33.31,,clear,,,,22.03,99132.31,101615.25
KMKE,09/11/2019 17:10 UTC,101760.93,31,,58.89,6.17,220,8.75,,,,,,,,,,,1,,,,10,,METAR KMKE 111710Z AUTO 22012G17KT 10SM CLR 31/22 A3005,,,,,,,,,,SW,34.57,,clear,,,,22.04,99132.31,101607
KMKE,09/11/2019 17:15 UTC,101760.93,31,,58.89,5.66,220,,,,,,,,,,,,1,,,,10,,METAR KMKE 111715Z AUTO 22011KT 10SM CLR 31/22 A3005,,,,,,,,,,SW,34.57,,clear,,,,22.04,99132.31,101607
KMKE,09/11/2019 17:20 UTC,101760.93,31,,58.89,5.14,230,,,,,,,,,,,,1,,,,10,,METAR KMKE 111720Z AUTO 23010KT 10SM CLR 31/22 A3005,,,,,,,,,,SW,34.57,,clear,,,,22.04,99132.31,101607
KMKE,09/11/2019 17:25 UTC,101727.07,31,,58.89,5.66,220,,,,,,,,,,,,336,,,,10,,METAR KMKE 111725Z AUTO 22011KT 10SM FEW033 31/22 A3004,,,,,,,,,,SW,34.57,,thin scattered,,,,22.04,99099.32,101573.19
KMKE,09/11/2019 17:30 UTC,101727.07,31,,58.89,6.17,210,,,,,,,,,,,,336,,,,10,,METAR KMKE 111730Z AUTO 21012KT 10SM FEW033 31/22 A3004,,,,,,,,,,SSW,34.57,,thin scattered,,,,22.04,99099.32,101573.19
KMKE,09/11/2019 17:35 UTC,101727.07,31,,62.58,5.66,210,,,,,,,,,,,,336,,,,10,,METAR KMKE 111735Z AUTO 21011KT 10SM FEW033 31/23 A3004,,,,,,,,,,SSW,35.51,,thin scattered,,,,23.04,99099.32,101573.17
KMKE,09/11/2019 17:40 UTC,101727.07,31,,62.58,6.17,210,8.75,,,,,,,,,,,382,,,,10,,METAR KMKE 111740Z AUTO 21012G17KT 10SM SCT038 31/23 A3004,,,,,,,,,,SSW,35.51,,scattered,,,,23.04,99099.32,101573.17
KMKE,09/11/2019 17:45 UTC,101727.07,31,,58.89,5.14,220,,,,,,,,,,,,382,,,,10,,METAR KMKE 111745Z AUTO 22010KT 10SM SCT038 31/22 A3004,,,,,,,,,,SW,34.57,,scattered,,,,22.04,99099.32,101573.19
KMKE,09/11/2019 17:50 UTC,101727.07,32,,55.65,6.69,220,9.77,,,,,,,,,,,372,,,,10,,METAR KMKE 111750Z AUTO 22013G19KT 10SM SCT037 32/22 A3004,,,,,,,,,,SW,35.82,,scattered,,,,22.05,99099.32,101565
KMKE,09/11/2019 17:52 UTC,101727.07,31.7,21.7,55.58,7.2,230,9.77,,101650,,2503,,,,8016,,,372,1502,,,10,,KMKE 111752Z 23014G19KT 10SM SCT037TCU SCT150 BKN250 32/22 A3004 RMK AO2 SLP165 TCU N T03170217 10317 20211 58016,31.7,21.1,,7620,,,,,,SW,35.18,,broken,,,,21.75,99099.32,101567.46
KMKE,09/11/2019 17:55 UTC,101727.07,32,,55.65,7.2,220,9.77,,,,,,,,,,,376,,,,10,,METAR KMKE 111755Z AUTO 22014G19KT 10SM FEW037 32/22 A3004,,,,,,,,,,SW,35.82,,thin scattered,,,,22.05,99099.32,101565
KMKE,09/11/2019 18:00 UTC,101693.2,31,,55.4,7.2,220,9.77,,,,,,,,,,,1,,,,10,,METAR KMKE 111800Z AUTO 22014G19KT 10SM CLR 31/21 A3003,,,,,,,,,,SW,33.76,,clear,,,,21.04,99066.33,101539.4
KMKE,09/11/2019 18:05 UTC,101693.2,31,,55.4,6.69,240,,,,,,,,,,,,1,,,,10,,METAR KMKE 111805Z AUTO 24013KT 10SM CLR 31/21 A3003,,,,,,,,,,WSW,33.76,,clear,,,,21.04,99066.33,101539.4
KMKE,09/11/2019 18:10 UTC,101659.34,32,,55.65,6.69,220,,,,,,,,,,,,386,,,,10,,METAR KMKE 111810Z AUTO 22013KT 10SM FEW038 32/22 A3002,,,,,,,,,,SW,35.82,,thin scattered,,,,22.05,99033.34,101497.38
KMKE,09/11/2019 18:15 UTC,101659.34,31,,55.4,7.2,230,,,,,,,,,,,,386,706,,,10,,METAR KMKE 111815Z AUTO 23014KT 10SM FEW038 FEW070 31/21 A3002,,,,,,,,,,SW,33.76,,thin scattered,,,,21.04,99033.34,101505.58
KMKE,09/11/2019 18:20 UTC,101659.34,31,,55.4,7.2,210,9.77,,,,,,,,,,,706,,,,10,,METAR KMKE 111820Z AUTO 21014G19KT 10SM FEW070 31/21 A3002,,,,,,,,,,SSW,33.76,,thin scattered,,,,21.04,99033.34,101505.58
KMKE,09/11/2019 18:25 UTC,101659.34,31,,55.4,7.72,210,,,,,,,,,,,,652,,,,10,,METAR KMKE 111825Z AUTO 21015KT 10SM SCT065 31/21 A3002,,,,,,,,,,SSW,33.76,,scattered,,,,21.04,99033.34,101505.58
KMKE,09/11/2019 18:30 UTC,101625.47,31,,55.4,7.72,220,,,,,,,,,,,,656,,,,10,,METAR KMKE 111830Z AUTO 22015KT 10SM FEW065 31/21 A3001,,,,,,,,,,SW,33.76,,thin scattered,,,,21.04,99000.35,101471.77
KMKE,09/11/2019 18:35 UTC,101625.47,32,,52.35,6.17,230,,,,,,,,,,,,376,652,,,10,,METAR KMKE 111835Z AUTO 23012KT 10SM FEW037 SCT065 32/21 A3001,,,,,,,,,,SW,34.94,,scattered,,,,21.06,99000.35,101463.59
KMKE,09/11/2019 18:40 UTC,101625.47,32,,52.35,7.2,220,,,,,,,,,,,,652,752,,,10,,METAR KMKE 111840Z AUTO 22014KT 10SM SCT065 SCT075 32/21 A3001,,,,,,,,,,SW,34.94,,scattered,,,,21.06,99000.35,101463.59
KMKE,09/11/2019 18:45 UTC,101625.47,31,,55.4,7.72,220,,,,,,,,,,,,652,,,,10,,METAR KMKE 111845Z AUTO 22015KT 10SM SCT065 31/21 A3001,,,,,,,,,,SW,33.76,,scattered,,,,21.04,99000.35,101471.77
KMKE,09/11/2019 18:50 UTC,101591.61,31,,58.89,6.69,210,9.26,,,,,,,,,,,366,652,,,10,,METAR KMKE 111850Z AUTO 21013G18KT 10SM FEW036 SCT065 31/22 A3000,,,,,,,,,,SSW,34.57,,scattered,,,,22.04,98967.36,101437.93
KMKE,09/11/2019 18:52 UTC,101591.61,31.1,21.7,57.5,7.72,220,,,101550,,2503,,,,,,,366,652,,,10,,KMKE 111852Z 22015KT 10SM FEW036TCU SCT065 BKN250 31/22 A3000 RMK AO2 LTG DSNT N SLP155 TCU NW-N CB DSNT N-NE MOV NE  T03110217,,,,7620,,,,,,SW,34.44,,broken,,,,21.74,98967.36,101437.12
KMKE,09/11/2019 18:55 UTC,101591.61,31,,58.89,8.23,220,11.32,,,,,,,,,,,366,652,,,10,,METAR KMKE 111855Z AUTO 22016G22KT 10SM FEW036 SCT065 31/22 A3000,,,,,,,,,,SW,34.57,,scattered,,,,22.04,98967.36,101437.93
KMKE,09/11/2019 19:00 UTC,101591.61,31,,58.89,8.75,220,,,,,,,,,,,,366,652,,,10,,METAR KMKE 111900Z AUTO 22017KT 10SM FEW036 SCT065 31/22 A3000,,,,,,,,,,SW,34.57,,scattered,,,,22.04,98967.36,101437.93