Station_ID,time,altimeter_set_1,air_temp,dew_point_temp,relative_humidity_set_1,wind_speed,wind_direction,wind_gust_set_1,snow_depth_set_1,sea_level_pressure_set_1,weather_cond_code_set_1,cloud_layer_3_code_set_1,cloud_low_symbol_set_1,cloud_mid_symbol_set_1,cloud_high_symbol_set_1,pressure_tendency_set_1,precip_accum_one_hour_set_1,precip_accum_three_hour_set_1,cloud_layer_1_code_set_1,cloud_layer_2_code_set_1,precip_accum_six_hour_set_1,precip_accum_24_hour_set_1,visibility_set_1,metar_remark_set_1,metar_set_1,air_temp_high_6_hour_set_1,air_temp_low_6_hour_set_1,peak_wind_speed_set_1,ceiling_set_1,pressure_change_code_set_1,air_temp_high_24_hour_set_1,air_temp_low_24_hour_set_1,peak_wind_direction_set_1,wind_chill_set_1d,wind_cardinal_direction_set_1d,heat_index_set_1d,weather_condition_set_1d,weather_summary_set_1d,cloud_layer_1_set_1d,cloud_layer_2_set_1d,cloud_layer_3_set_1d,dew_point_temperature_set_1d,pressure,sea_level_pressure_set_1d
KMKE,06/17/2018 19:00 UTC,101422.29,33,,55.9,4.12,240,,,,,,,,,,,,486,,,,10,,METAR KMKE 171900Z AUTO 24008KT 10SM FEW048 33/23 A2995,,,,,,,,,,WSW,38.11,,thin scattered,,,,23.06,98802.42,101252.58
KMKE,06/17/2018 19:05 UTC,101422.29,34,,49.75,5.14,220,8.23,,,,,,,,,,,486,,,,10,,METAR KMKE 171905Z AUTO 22010G16KT 10SM FEW048 34/22 A2995,,,,,,,,,,SW,38.31,,thin scattered,,,,22.08,98802.42,101244.55
KMKE,06/17/2018 19:10 UTC,101422.29,33,,52.61,6.17,220,9.26,,,,,,,,,,,466,,,,10,,METAR KMKE 171910Z AUTO 22012G18KT 10SM FEW046 33/22 A2995,,,,,,,,,,SW,37.06,,thin scattered,,,,22.07,98802.42,101252.6
KMKE,06/17/2018 19:15 UTC,101422.29,33,,52.61,7.2,210,,,,,,,,,,,,466,,,,10,,METAR KMKE 171915Z AUTO 21014KT 10SM FEW046 33/22 A2995,,,,,,,,,,SSW,37.06,,thin scattered,,,,22.07,98802.42,101252.6
KMKE,06/17/2018 19:20 UTC,101422.29,33,,52.61,5.14,230,,,,,,,,,,,,456,,,,10,,METAR KMKE 171920Z AUTO 23010KT 10SM FEW045 33/22 A2995,,,,,,,,,,SW,37.06,,thin scattered,,,,22.07,98802.42,101252.6
KMKE,06/17/2018 19:25 UTC,101422.29,33,,52.61,5.14,240,,,,,,,,,,,,452,552,,,10,,METAR KMKE 171925Z AUTO 24010KT 10SM SCT045 SCT055 33/22 A2995,,,,,,,,,,WSW,37.06,,scattered,,,,22.07,98802.42,101252.6
KMKE,06/17/2018 19:30 UTC,101422.29,33,,55.9,5.14,210,7.72,,,,,,,,,,,426,506,,,10,,METAR KMKE 171930Z AUTO 21010G15KT 10SM FEW042 FEW050 33/23 A2995,,,,,,,,,,SSW,38.11,,thin scattered,,,,23.06,98802.42,101252.58
KMKE,06/17/2018 19:35 UTC,101422.29,33,,55.9,5.14,200,7.72,,,,,,,,,,,426,506,,,10,,METAR KMKE 171935Z AUTO 20010G15KT 10SM FEW042 FEW050 33/23 A2995,,,,,,,,,,SSW,38.11,,thin scattered,,,,23.06,98802.42,101252.58
KMKE,06/17/2018 19:40 UTC,101422.29,33,,55.9,7.2,220,,,,,,,,,,,,426,506,,,10,,METAR KMKE 171940Z AUTO 22014KT 10SM FEW042 FEW050 33/23 A2995,,,,,,,,,,SW,38.11,,thin scattered,,,,23.06,98802.42,101252.58
KMKE,06/17/2018 19:45 UTC,101388.43,33,,55.9,5.66,210,,,,,,,,,,,,412,,,,10,,METAR KMKE 171945Z AUTO 21011KT 10SM SCT041 33/23 A2994,,,,,,,,,,SSW,38.11,,scattered,,,,23.06,98769.43,101218.77
KMKE,06/17/2018 19:50 UTC,101388.43,33,,55.9,5.66,210,,,,,,,,,,,,412,,,,10,,METAR KMKE 171950Z AUTO 21011KT 10SM SCT041 33/23 A2994,,,,,,,,,,SSW,38.11,,scattered,,,,23.06,98769.43,101218.77
KMKE,06/17/2018 19:52 UTC,101388.43,33.3,23.3,55.97,7.2,220,,,101320,,,,,,,,,412,2503,,,10,,KMKE 171952Z 22014KT 10SM SCT041TCU BKN250 33/23 A2994 RMK AO2  SLP132 TCU ALQDS T03330233,,,,7620,,,,,,SW,38.84,,broken,,,,23.37,98769.43,101216.35
KMKE,06/17/2018 19:55 UTC,101388.43,33,,55.9,6.69,220,,,,,,,,,,,,1,,,,10,,METAR KMKE 171955Z AUTO 22013KT 10SM CLR 33/23 A2994,,,,,,,,,,SW,38.11,,clear,,,,23.06,98769.43,101218.77
KMKE,06/17/2018 20:00 UTC,101388.43,33,,55.9,8.23,220,,,,,,,,,,,,1,,,,10,,METAR KMKE 172000Z AUTO 22016KT 10SM CLR 33/23 A2994,,,,,,,,,,SW,38.11,,clear,,,,23.06,98769.43,101218.77
KMKE,06/17/2018 20:05 UTC,101388.43,33,,55.9,5.66,240,,,,,,,,,,,,1,,,,10,,METAR KMKE 172005Z AUTO 24011KT 10SM CLR 33/23 A2994,,,,,,,,,,WSW,38.11,,clear,,,,23.06,98769.43,101218.77
KMKE,06/17/2018 20:10 UTC,101388.43,33,,55.9,6.17,220,,,,,,,,,,,,456,,,,10,,METAR KMKE 172010Z AUTO 22012KT 10SM FEW045 33/23 A2994,,,,,,,,,,SW,38.11,,thin scattered,,,,23.06,98769.43,101218.77
KMKE,06/17/2018 20:15 UTC,101388.43,33,,55.9,7.2,210,,,,,,,,,,,,456,,,,10,,METAR KMKE 172015Z AUTO 21014KT 10SM FEW045 33/23 A2994,,,,,,,,,,SSW,38.11,,thin scattered,,,,23.06,98769.43,101218.77
KMKE,06/17/2018 20:20 UTC,101388.43,33,,55.9,7.2,210,,,,,,,,,,,,1,,,,10,,METAR KMKE 172020Z AUTO 21014KT 10SM CLR 33/23 A2994,,,,,,,,,,SSW,38.11,,clear,,,,23.06,98769.43,101218.77
KMKE,06/17/2018 20:25 UTC,101388.43,33,,52.61,7.2,220,9.77,,,,,,,,,,,1,,,,10,,METAR KMKE 172025Z AUTO 22014G19KT 10SM CLR 33/22 A2994,,,,,,,,,,SW,37.06,,clear,,,,22.07,98769.43,101218.8
KMKE,06/17/2018 20:30 UTC,101388.43,33,,55.9,7.72,200,,,,,,,,,,,,1,,,,10,,METAR KMKE 172030Z AUTO 20015KT 10SM CLR 33/23 A2994,,,,,,,,,,SSW,38.11,,clear,,,,23.06,98769.43,101218.77
KMKE,06/17/2018 20:35 UTC,101388.43,33,,55.9,7.72,210,,,,,,,,,,,,1,,,,10,,METAR KMKE 172035Z AUTO 21015KT 10SM CLR 33/23 A2994,,,,,,,,,,SSW,38.11,,clear,,,,23.06,98769.43,101218.77
KMKE,06/17/2018 20:40 UTC,101388.43,33,,52.61,7.72,230,,,,,,,,,,,,456,,,,10,,METAR KMKE 172040Z AUTO 23015KT 10SM FEW045 33/22 A2994,,,,,,,,,,SW,37.06,,thin scattered,,,,22.07,98769.43,101218.8
KMKE,06/17/2018 20:45 UTC,101388.43,33,,52.61,5.66,210,8.75,,,,,,,,,,,456,,,,10,,METAR KMKE 172045Z AUTO 21011G17KT 10SM FEW045 33/22 A2994,,,,,,,,,,SSW,37.06,,thin scattered,,,,22.07,98769.43,101218.8
KMKE,06/17/2018 20:50 UTC,101388.43,33,,55.9,6.69,210,,,,,,,,,,,,456,,,,10,,METAR KMKE 172050Z AUTO 21013KT 10SM FEW045 33/23 A2994,,,,,,,,,,SSW,38.11,,thin scattered,,,,23.06,98769.43,101218.77
KMKE,06/17/2018 20:52 UTC,101388.43,32.8,22.8,55.85,6.69,220,10.8,,101310,,,,,,6009,,,456,2503,,,10,,KMKE 172052Z 22013G21KT 10SM FEW045 BKN250 33/23 A2994 RMK AO2  SLP131 TCU DSNT S T03280228 56009,,,,7620,,,,,,SW,37.63,,broken,,,,22.86,98769.43,101220.4
KMKE,06/17/2018 20:55 UTC,101354.56,33,,55.9,8.23,230,,,,,,,,,,,,1,,,,10,,METAR KMKE 172055Z AUTO 23016KT 10SM CLR 33/23 A2993,,,,,,,,,,SW,38.11,,clear,,,,23.06,98736.44,101184.97
KMKE,06/17/2018 21:00 UTC,101354.56,33,,55.9,6.17,220,,,,,,,,,,,,1,,,,10,,METAR KMKE 172100Z AUTO 22012KT 10SM CLR 33/23 A2993,,,,,,,,,,SW,38.11,,clear,,,,23.06,98736.44,101184.97
KMKE,06/17/2018 21:05 UTC,101354.56,33,,55.9,7.72,220,,,,,,,,,,,,1,,,,10,,METAR KMKE 172105Z AUTO 22015KT 10SM CLR 33/23 A2993,,,,,,,,,,SW,38.11,,clear,,,,23.06,98736.44,101184.97
KMKE,06/17/2018 21:10 UTC,101354.56,33,,55.9,6.69,210,9.26,,,,,,,,,,,1,,,,10,,METAR KMKE 172110Z AUTO 21013G18KT 10SM CLR 33/23 A2993,,,,,,,,,,SSW,38.11,,clear,,,,23.06,98736.44,101184.97
KMKE,06/17/2018 21:15 UTC,101320.7,33,,55.9,6.17,220,8.75,,,,,,,,,,,1,,,,10,,METAR KMKE 172115Z AUTO 22012G17KT 10SM CLR 33/23 A2992,,,,,,,,,,SW,38.11,,clear,,,,23.06,98703.45,101151.16
KMKE,06/17/2018 21:20 UTC,101320.7,33,,59.36,6.69,210,,,,,,,,,,,,1,,,,10,,METAR KMKE 172120Z AUTO 21013KT 10SM CLR 33/24 A2992,,,,,,,,,,SSW,39.29,,clear,,,,24.06,98703.45,101151.13
KMKE,06/17/2018 21:25 UTC,101320.7,33,,55.9,7.2,210,,,,,,,,,,,,1,,,,10,,METAR KMKE 172125Z AUTO 21014KT 10SM CLR 33/23 A2992,,,,,,,,,,SSW,38.11,,clear,,,,23.06,98703.45,101151.16
KMKE,06/17/2018 21:30 UTC,101320.7,33,,59.36,6.69,210,,,,,,,,,,,,1,,,,10,,METAR KMKE 172130Z AUTO 21013KT 10SM CLR 33/24 A2992,,,,,,,,,,SSW,39.29,,clear,,,,24.06,98703.45,101151.13
KMKE,06/17/2018 21:35 UTC,101320.7,33,,59.36,6.17,200,9.26,,,,,,,,,,,1,,,,10,,METAR KMKE 172135Z AUTO 20012G18KT 10SM CLR 33/24 A2992,,,,,,,,,,SSW,39.29,,clear,,,,24.06,98703.45,101151.13
KMKE,06/17/2018 21:40 UTC,101320.7,33,,59.36,7.2,200,,,,,,,,,,,,1,,,,10,,METAR KMKE 172140Z AUTO 20014KT 10SM CLR 33/24 A2992,,,,,,,,,,SSW,39.29,,clear,,,,24.06,98703.45,101151.13
KMKE,06/17/2018 21:45 UTC,101320.7,32,,59.13,6.17,200,8.75,,,,,,,,,,,1,,,,10,,METAR KMKE 172145Z AUTO 20012G17KT 10SM CLR 32/23 A2992,,,,,,,,,,SSW,36.81,,clear,,,,23.05,98703.45,101159.26
KMKE,06/17/2018 21:50 UTC,101320.7,33,,55.9,7.2,200,,,,,,,,,,,,456,,,,10,,METAR KMKE 172150Z AUTO 20014KT 10SM FEW045 33/23 A2992,,,,,,,,,,SSW,38.11,,thin scattered,,,,23.06,98703.45,101151.16
KMKE,06/17/2018 21:52 UTC,101320.7,32.8,23.3,57.56,6.69,210,,,101260,,,,,,,,,456,2003,,,10,,KMKE 172152Z 21013KT 10SM FEW045 BKN200 33/23 A2992 RMK AO2 SLP126  T03280233,,,,6096,,,,,,SSW,38.19,,broken,,,,23.36,98703.45,101152.77
KMKE,06/17/2018 21:55 UTC,101320.7,33,,59.36,7.2,220,,,,,,,,,,,,1,,,,10,,METAR KMKE 172155Z AUTO 22014KT 10SM CLR 33/24 A2992,,,,,,,,,,SW,39.29,,clear,,,,24.06,98703.45,101151.13
KMKE,06/17/2018 22:00 UTC,101320.7,33,,55.9,7.2,220,,,,,,,,,,,,1,,,,10,,METAR KMKE 172200Z AUTO 22014KT 10SM CLR 33/23 A2992,,,,,,,,,,SW,38.11,,clear,,,,23.06,98703.45,101151.16
KMKE,06/17/2018 22:05 UTC,101320.7,33,,55.9,7.72,220,11.83,,,,,,,,,,,1,,,,10,,METAR KMKE 172205Z AUTO 22015G23KT 10SM CLR 33/23 A2992,,,,,,,,,,SW,38.11,,clear,,,,23.06,98703.45,101151.16
KMKE,06/17/2018 22:10 UTC,101320.7,33,,55.9,8.23,220,,,,,,,,,,,,1,,,,10,,METAR KMKE 172210Z AUTO 22016KT 10SM CLR 33/23 A2992,,,,,,,,,,SW,38.11,,clear,,,,23.06,98703.45,101151.16
KMKE,06/17/2018 22:15 UTC,101320.7,33,,55.9,8.75,220,11.32,,,,,,,,,,,1,,,,10,,METAR KMKE 172215Z AUTO 22017G22KT 10SM CLR 33/23 A2992,,,,,,,,,,SW,38.11,,clear,,,,23.06,98703.45,101151.16
KMKE,06/17/2018 22:20 UTC,101286.84,33,,55.9,6.69,210,9.77,,,,,,,,,,,1,,,,10,,METAR KMKE 172220Z AUTO 21013G19KT 10SM CLR 33/23 A2991,,,,,,,,,,SSW,38.11,,clear,,,,23.06,98670.47,101117.36
KMKE,06/17/2018 22:25 UTC,101286.84,33,,55.9,7.2,210,,,,,,,,,,,,1,,,,10,,METAR KMKE 172225Z AUTO 21014KT 10SM CLR 33/23 A2991,,,,,,,,,,SSW,38.11,,clear,,,,23.06,98670.47,101117.36
KMKE,06/17/2018 22:30 UTC,101286.84,32,,59.13,6.69,200,,,,,,,,,,,,1,,,,10,,METAR KMKE 172230Z AUTO 20013KT 10SM CLR 32/23 A2991,,,,,,,,,,SSW,36.81,,clear,,,,23.05,98670.47,101125.46
KMKE,06/17/2018 22:35 UTC,101286.84,32,,59.13,6.17,210,,,,,,,,,,,,1,,,,10,,METAR KMKE 172235Z AUTO 21012KT 10SM CLR 32/23 A2991,,,,,,,,,,SSW,36.81,,clear,,,,23.05,98670.47,101125.46
KMKE,06/17/2018 22:40 UTC,101286.84,32,,59.13,6.17,200,,,,,,,,,,,,1,,,,10,,METAR KMKE 172240Z AUTO 20012KT 10SM CLR 32/23 A2991,,,,,,,,,,SSW,36.81,,clear,,,,23.05,98670.47,101125.46
KMKE,06/17/2018 22:45 UTC,101286.84,33,,55.9,7.72,210,,,,,,,,,,,,1,,,,10,,METAR KMKE 172245Z AUTO 21015KT 10SM CLR 33/23 A2991,,,,,,,,,,SSW,38.11,,clear,,,,23.06,98670.47,101117.36
KMKE,06/17/2018 22:50 UTC,101252.97,33,,55.9,7.2,210,10.29,,,,,,,,,,,456,,,,10,,METAR KMKE 172250Z AUTO 21014G20KT 10SM FEW045 33/23 A2990,,,,,,,,,,SSW,38.11,,thin scattered,,,,23.06,98637.47,101083.54
KMKE,06/17/2018 22:52 UTC,101252.97,32.8,22.8,55.85,6.69,210,,,101200,,2503,,,,,,,456,2003,,,10,,KMKE 172252Z 21013KT 10SM FEW045 BKN200 BKN250 33/23 A2990 RMK AO2  SLP120 T03280228,,,,6096,,,,,,SSW,37.63,,broken,,,,22.86,98637.47,101085.16
KMKE,06/17/2018 22:55 UTC,101252.97,33,,55.9,7.72,210,,,,,,,,,,,,1,,,,10,,METAR KMKE 172255Z AUTO 21015KT 10SM CLR 33/23 A2990,,,,,,,,,,SSW,38.11,,clear,,,,23.06,98637.47,101083.54
KMKE,06/17/2018 23:00 UTC,101252.97,33,,55.9,7.2,220,11.32,,,,,,,,,,,1,,,,10,,METAR KMKE 172300Z AUTO 22014G22KT 10SM CLR 33/23 A2990,,,,,,,,,,SW,38.11,,clear,,,,23.06,98637.47,101083.54
KMKE,06/17/2018 23:05 UTC,101252.97,32,,59.13,8.75,200,,,,,,,,,,,,1,,,,10,,METAR KMKE 172305Z AUTO 20017KT 10SM CLR 32/23 A2990,,,,,,,,,,SSW,36.81,,clear,,,,23.05,98637.47,101091.64
KMKE,06/17/2018 23:10 UTC,101252.97,32,,59.13,7.2,200,9.77,,,,,,,,,,,1,,,,10,,METAR KMKE 172310Z AUTO 20014G19KT 10SM CLR 32/23 A2990,,,,,,,,,,SSW,36.81,,clear,,,,23.05,98637.47,101091.64
KMKE,06/17/2018 23:15 UTC,101219.11,32,,59.13,7.2,200,,,,,,,,,,,,1,,,,10,,METAR KMKE 172315Z AUTO 20014KT 10SM CLR 32/23 A2989,,,,,,,,,,SSW,36.81,,clear,,,,23.05,98604.49,101057.84
KMKE,06/17/2018 23:20 UTC,101219.11,32,,59.13,7.72,200,,,,,,,,,,,,1,,,,10,,METAR KMKE 172320Z AUTO 20015KT 10SM CLR 32/23 A2989,,,,,,,,,,SSW,36.81,,clear,,,,23.05,98604.49,101057.84
KMKE,06/17/2018 23:25 UTC,101219.11,32,,59.13,8.75,200,11.83,,,,,,,,,,,1,,,,10,,METAR KMKE 172325Z AUTO 20017G23KT 10SM CLR 32/23 A2989,,,,,,,,,,SSW,36.81,,clear,,,,23.05,98604.49,101057.84
KMKE,06/17/2018 23:30 UTC,101219.11,32,,59.13,5.66,220,,,,,,,,,,,,1,,,,10,,METAR KMKE 172330Z AUTO 22011KT 10SM CLR 32/23 A2989,,,,,,,,,,SW,36.81,,clear,,,,23.05,98604.49,101057.84
KMKE,06/17/2018 23:35 UTC,101219.11,32,,59.13,6.69,210,,,,,,,,,,,,1,,,,10,,METAR KMKE 172335Z AUTO 21013KT 10SM CLR 32/23 A2989,,,,,,,,,,SSW,36.81,,clear,,,,23.05,98604.49,101057.84
KMKE,06/17/2018 23:40 UTC,101219.11,32,,59.13,6.69,210,,,,,,,,,,,,1,,,,10,,METAR KMKE 172340Z AUTO 21013KT 10SM CLR 32/23 A2989,,,,,,,,,,SSW,36.81,,clear,,,,23.05,98604.49,101057.84
KMKE,06/17/2018 23:45 UTC,101219.11,32,,59.13,5.14,220,7.72,,,,,,,,,,,1,,,,10,,METAR KMKE 172345Z AUTO 22010G15KT 10SM CLR 32/23 A2989,,,,,,,,,,SW,36.81,,clear,,,,23.05,98604.49,101057.84
KMKE,06/17/2018 23:50 UTC,101219.11,32,,59.13,6.69,210,10.29,,,,,,,,,,,456,,,,10,,METAR KMKE 172350Z AUTO 21013G20KT 10SM FEW045 32/23 A2989,,,,,,,,,,SSW,36.81,,thin scattered,,,,23.05,98604.49,101057.84
KMKE,06/17/2018 23:52 UTC,101252.97,32.2,23.3,59.53,7.2,210,11.32,,101160,,2503,,,,6013,,,456,2003,,,10,,KMKE 172352Z 21014G22KT 10SM FEW045 BKN200 BKN250 32/23 A2990 RMK AO2 SLP116 T03220233 10339 20322 56013,33.9,32.2,,6096,,,,,,SSW,37.4,,broken,,,,23.35,98637.47,101090.01
KMKE,06/17/2018 23:55 UTC,101252.97,32,,59.13,6.17,210,,,,,,,,,,,,1,,,,10,,METAR KMKE 172355Z AUTO 21012KT 10SM CLR 32/23 A2990,,,,,,,,,,SSW,36.81,,clear,,,,23.05,98637.47,101091.64
KMKE,06/18/2018 00:00 UTC,101219.11,32,,59.13,6.69,210,,,,,,,,,,,,1,,,,10,,METAR KMKE 180000Z AUTO 21013KT 10SM CLR 32/23 A2989,,,,,,,,,,SSW,36.81,,clear,,,,23.05,98604.49,101057.84
KMKE,06/18/2018 00:05 UTC,101219.11,32,,59.13,7.2,220,,,,,,,,,,,,1,,,,10,,METAR KMKE 180005Z AUTO 22014KT 10SM CLR 32/23 A2989,,,,,,,,,,SW,36.81,,clear,,,,23.05,98604.49,101057.84
KMKE,06/18/2018 00:10 UTC,101252.97,32,,59.13,7.2,220,,,,,,,,,,,,1,,,,10,,METAR KMKE 180010Z AUTO 22014KT 10SM CLR 32/23 A2990,,,,,,,,,,SW,36.81,,clear,,,,23.05,98637.47,101091.64
KMKE,06/18/2018 00:15 UTC,101219.11,32,,59.13,6.17,210,8.75,,,,,,,,,,,1,,,,10,,METAR KMKE 180015Z AUTO 21012G17KT 10SM CLR 32/23 A2989,,,,,,,,,,SSW,36.81,,clear,,,,23.05,98604.49,101057.84
KMKE,06/18/2018 00:20 UTC,101219.11,32,,59.13,6.17,210,8.75,,,,,,,,,,,1,,,,10,,METAR KMKE 180020Z AUTO 21012G17KT 10SM CLR 32/23 A2989,,,,,,,,,,SSW,36.81,,clear,,,,23.05,98604.49,101057.84
KMKE,06/18/2018 00:25 UTC,101219.11,32,,59.13,5.14,210,7.72,,,,,,,,,,,1,,,,10,,METAR KMKE 180025Z AUTO 21010G15KT 10SM CLR 32/23 A2989,,,,,,,,,,SSW,36.81,,clear,,,,23.05,98604.49,101057.84
KMKE,06/18/2018 00:30 UTC,101252.97,31,,62.58,6.17,210,,,,,,,,,,,,1,,,,10,,METAR KMKE 180030Z AUTO 21012KT 10SM CLR 31/23 A2990,,,,,,,,,,SSW,35.51,,clear,,,,23.04,98637.47,101099.79
KMKE,06/18/2018 00:35 UTC,101252.97,31,,62.58,6.17,210,,,,,,,,,,,,1,,,,10,,METAR KMKE 180035Z AUTO 21012KT 10SM CLR 31/23 A2990,,,,,,,,,,SSW,35.51,,clear,,,,23.04,98637.47,101099.79
KMKE,06/18/2018 00:40 UTC,101252.97,31,,62.58,7.2,210,10.29,,,,,,,,,,,1,,,,10,,METAR KMKE 180040Z AUTO 21014G20KT 10SM CLR 31/23 A2990,,,,,,,,,,SSW,35.51,,clear,,,,23.04,98637.47,101099.79
KMKE,06/18/2018 00:45 UTC,101252.97,31,,62.58,8.23,210,12.35,,,,,,,,,,,1,,,,10,,METAR KMKE 180045Z AUTO 21016G24KT 10SM CLR 31/23 A2990,,,,,,,,,,SSW,35.51,,clear,,,,23.04,98637.47,101099.79
KMKE,06/18/2018 00:50 UTC,101252.97,31,,62.58,8.75,220,,,,,,,,,,,,,,,,10,,METAR KMKE 180050Z AUTO 22017KT 10SM 31/23 A2990,,,,,,,,,,SW,35.51,,,,,,23.04,98637.47,101099.79
KMKE,06/18/2018 00:52 UTC,101252.97,31.1,22.8,61.47,7.2,230,14.4,,101180,,,,,,,,,2002,2503,,,10,,KMKE 180052Z 23014G28KT 10SM SCT200 BKN250 31/23 A2990 RMK AO2 PK  WND 22028/0049 SLP118 T03110228,,,,7620,,,,,,SW,35.44,,broken,,,,22.84,98637.47,101098.97
KMKE,06/18/2018 00:55 UTC,101252.97,31,,62.58,6.69,220,,,,,,,,,,,,1,,,,10,,METAR KMKE 180055Z AUTO 22013KT 10SM CLR 31/23 A2990,,,,,,,,,,SW,35.51,,clear,,,,23.04,98637.47,101099.79
KMKE,06/18/2018 01:00 UTC,101286.84,31,,58.89,7.2,220,,,,,,,,,,,,1,,,,10,,METAR KMKE 180100Z AUTO 22014KT 10SM CLR 31/22 A2991,,,,,,,,,,SW,34.57,,clear,,,,22.04,98670.47,101133.63
KMKE,06/18/2018 01:05 UTC,101286.84,31,,58.89,5.66,220,,,,,,,,,,,,1,,,,10,,METAR KMKE 180105Z AUTO 22011KT 10SM CLR 31/22 A2991,,,,,,,,,,SW,34.57,,clear,,,,22.04,98670.47,101133.63
KMKE,06/18/2018 01:10 UTC,101286.84,31,,58.89,5.66,220,,,,,,,,,,,,1,,,,10,,METAR KMKE 180110Z AUTO 22011KT 10SM CLR 31/22 A2991,,,,,,,,,,SW,34.57,,clear,,,,22.04,98670.47,101133.63
KMKE,06/18/2018 01:15 UTC,101286.84,31,,58.89,6.17,220,,,,,,,,,,,,1,,,,10,,METAR KMKE 180115Z AUTO 22012KT 10SM CLR 31/22 A2991,,,,,,,,,,SW,34.57,,clear,,,,22.04,98670.47,101133.63
KMKE,06/18/2018 01:20 UTC,101286.84,31,,58.89,6.17,220,,,,,,,,,,,,1,,,,10,,METAR KMKE 180120Z AUTO 22012KT 10SM CLR 31/22 A2991,,,,,,,,,,SW,34.57,,clear,,,,22.04,98670.47,101133.63
KMKE,06/18/2018 01:25 UTC,101286.84,31,,58.89,6.17,220,9.77,,,,,,,,,,,1,,,,10,,METAR KMKE 180125Z AUTO 22012G19KT 10SM CLR 31/22 A2991,,,,,,,,,,SW,34.57,,clear,,,,22.04,98670.47,101133.63
KMKE,06/18/2018 01:30 UTC,101286.84,31,,55.4,6.17,220,8.75,,,,,,,,,,,1,,,,10,,METAR KMKE 180130Z AUTO 22012G17KT 10SM CLR 31/21 A2991,,,,,,,,,,SW,33.76,,clear,,,,21.04,98670.47,101133.65
KMKE,06/18/2018 01:35 UTC,101320.7,30,,58.66,5.66,220,,,,,,,,,,,,1,,,,10,,METAR KMKE 180135Z AUTO 22011KT 10SM CLR 30/21 A2992,,,,,,,,,,SW,32.57,,clear,,,,21.03,98703.45,101175.67
KMKE,06/18/2018 01:40 UTC,101320.7,30,,58.66,5.66,210,,,,,,,,,,,,1,,,,10,,METAR KMKE 180140Z AUTO 21011KT 10SM CLR 30/21 A2992,,,,,,,,,,SSW,32.57,,clear,,,,21.03,98703.45,101175.67
KMKE,06/18/2018 01:45 UTC,101320.7,30,,58.66,5.66,220,,,,,,,,,,,,1,,,,10,,METAR KMKE 180145Z AUTO 22011KT 10SM CLR 30/21 A2992,,,,,,,,,,SW,32.57,,clear,,,,21.03,98703.45,101175.67
KMKE,06/18/2018 01:50 UTC,101320.7,30,,58.66,5.66,220,,,,,,,,,,,,,,,,10,,METAR KMKE 180150Z AUTO 22011KT 10SM 30/21 A2992,,,,,,,,,,SW,32.57,,,,,,21.03,98703.45,101175.67
KMKE,06/18/2018 01:52 UTC,101320.7,30,21.1,59.02,6.17,220,,,101240,,,,,,,,,2002,2502,,,10,,KMKE 180152Z 22012KT 10SM SCT200 SCT250 30/21 A2992 RMK AO2 SLP124  T03000211,,,,,,,,,,SW,32.64,,scattered,,,,21.13,98703.45,101175.66
KMKE,06/18/2018 01:55 UTC,101320.7,30,,58.66,5.66,220,,,,,,,,,,,,1,,,,10,,METAR KMKE 180155Z AUTO 22011KT 10SM CLR 30/21 A2992,,,,,,,,,,SW,32.57,,clear,,,,21.03,98703.45,101175.67
KMKE,06/18/2018 02:00 UTC,101320.7,29,,62.13,5.14,220,,,,,,,,,,,,1,,,,10,,METAR KMKE 180200Z AUTO 22010KT 10SM CLR 29/21 A2992,,,,,,,,,,SW,31.37,,clear,,,,21.02,98703.45,101183.93
KMKE,06/18/2018 02:05 UTC,101320.7,29,,62.13,5.66,220,,,,,,,,,,,,1,,,,10,,METAR KMKE 180205Z AUTO 22011KT 10SM CLR 29/21 A2992,,,,,,,,,,SW,31.37,,clear,,,,21.02,98703.45,101183.93
KMKE,06/18/2018 02:10 UTC,101320.7,29,,62.13,5.14,210,,,,,,,,,,,,1,,,,10,,METAR KMKE 180210Z AUTO 21010KT 10SM CLR 29/21 A2992,,,,,,,,,,SSW,31.37,,clear,,,,21.02,98703.45,101183.93
KMKE,06/18/2018 02:15 UTC,101320.7,29,,62.13,5.66,220,,,,,,,,,,,,1,,,,10,,METAR KMKE 180215Z AUTO 22011KT 10SM CLR 29/21 A2992,,,,,,,,,,SW,31.37,,clear,,,,21.02,98703.45,101183.93
KMKE,06/18/2018 02:20 UTC,101320.7,29,,62.13,6.17,210,,,,,,,,,,,,1,,,,10,,METAR KMKE 180220Z AUTO 21012KT 10SM CLR 29/21 A2992,,,,,,,,,,SSW,31.37,,clear,,,,21.02,98703.45,101183.93
KMKE,06/18/2018 02:25 UTC,101320.7,29,,62.13,5.14,220,,,,,,,,,,,,1,,,,10,,METAR KMKE 180225Z AUTO 22010KT 10SM CLR 29/21 A2992,,,,,,,,,,SW,31.37,,clear,,,,21.02,98703.45,101183.93
KMKE,06/18/2018 02:30 UTC,101354.56,29,,62.13,5.14,220,,,,,,,,,,,,1,,,,10,,METAR KMKE 180230Z AUTO 22010KT 10SM CLR 29/21 A2993,,,,,,,,,,SW,31.37,,clear,,,,21.02,98736.44,101217.75
KMKE,06/18/2018 02:35 UTC,101354.56,29,,62.13,4.63,220,,,,,,,,,,,,1,,,,10,,METAR KMKE 180235Z AUTO 22009KT 10SM CLR 29/21 A2993,,,,,,,,,,SW,31.37,,clear,,,,21.02,98736.44,101217.75
KMKE,06/18/2018 02:40 UTC,101354.56,29,,62.13,4.63,210,,,,,,,,,,,,1,,,,10,,METAR KMKE 180240Z AUTO 21009KT 10SM CLR 29/21 A2993,,,,,,,,,,SSW,31.37,,clear,,,,21.02,98736.44,101217.75
KMKE,06/18/2018 02:45 UTC,101354.56,28,,69.98,4.12,210,,,,,,,,,,,,1,,,,10,,METAR KMKE 180245Z AUTO 21008KT 10SM CLR 28/22 A2993,,,,,,,,,,SSW,30.66,,clear,,,,22.01,98736.44,101226.05
KMKE,06/18/2018 02:50 UTC,101354.56,28,,69.98,4.12,210,,,,,,,,,,,,1,,,,10,,METAR KMKE 180250Z AUTO 21008KT 10SM CLR 28/22 A2993,,,,,,,,,,SSW,30.66,,clear,,,,22.01,98736.44,101226.05
KMKE,06/18/2018 02:52 UTC,101354.56,28.3,21.7,67.53,4.63,210,,,101290,,,,,,3013,,,1,,,,10,,KMKE 180252Z 21009KT 10SM CLR 28/22 A2993 RMK AO2 SLP129 T02830217  53013,,,,,,,,,,SSW,30.9,,clear,,,,21.72,98736.44,101223.55
KMKE,06/18/2018 02:55 UTC,101354.56,28,,69.98,3.6,210,,,,,,,,,,,,1,,,,10,,METAR KMKE 180255Z AUTO 21007KT 10SM CLR 28/22 A2993,,,,,,,,,,SSW,30.66,,clear,,,,22.01,98736.44,101226.05
KMKE,06/18/2018 03:00 UTC,101354.56,28,,69.98,3.6,210,,,,,,,,,,,,1,,,,10,,METAR KMKE 180300Z AUTO 21007KT 10SM CLR 28/22 A2993,,,,,,,,,,SSW,30.66,,clear,,,,22.01,98736.44,101226.05
KMKE,06/18/2018 03:05 UTC,101354.56,28,,69.98,3.6,210,,,,,,,,,,,,1,,,,10,,METAR KMKE 180305Z AUTO 21007KT 10SM CLR 28/22 A2993,,,,,,,,,,SSW,30.66,,clear,,,,22.01,98736.44,101226.05
KMKE,06/18/2018 03:10 UTC,101388.43,28,,69.98,3.6,210,,,,,,,,,,,,1,,,,10,,METAR KMKE 180310Z AUTO 21007KT 10SM CLR 28/22 A2994,,,,,,,,,,SSW,30.66,,clear,,,,22.01,98769.43,101259.87
KMKE,06/18/2018 03:15 UTC,101388.43,28,,69.98,4.63,210,,,,,,,,,,,,1,,,,10,,METAR KMKE 180315Z AUTO 21009KT 10SM CLR 28/22 A2994,,,,,,,,,,SSW,30.66,,clear,,,,22.01,98769.43,101259.87
KMKE,06/18/2018 03:20 UTC,101354.56,28,,69.98,4.12,210,,,,,,,,,,,,1,,,,10,,METAR KMKE 180320Z AUTO 21008KT 10SM CLR 28/22 A2993,,,,,,,,,,SSW,30.66,,clear,,,,22.01,98736.44,101226.05
KMKE,06/18/2018 03:25 UTC,101354.56,28,,74.36,4.63,200,,,,,,,,,,,,1,,,,10,,METAR KMKE 180325Z AUTO 20009KT 10SM CLR 28/23 A2993,,,,,,,,,,SSW,31.26,,clear,,,,23.01,98736.44,101226.03
KMKE,06/18/2018 03:30 UTC,101354.56,28,,74.36,4.63,210,,,,,,,,,,,,1,,,,10,,METAR KMKE 180330Z AUTO 21009KT 10SM CLR 28/23 A2993,,,,,,,,,,SSW,31.26,,clear,,,,23.01,98736.44,101226.03
KMKE,06/18/2018 03:35 UTC,101354.56,28,,74.36,4.12,210,,,,,,,,,,,,1,,,,10,,METAR KMKE 180335Z AUTO 21008KT 10SM CLR 28/23 A2993,,,,,,,,,,SSW,31.26,,clear,,,,23.01,98736.44,101226.03
KMKE,06/18/2018 03:40 UTC,101354.56,28,,74.36,3.6,210,,,,,,,,,,,,1,,,,10,,METAR KMKE 180340Z AUTO 21007KT 10SM CLR 28/23 A2993,,,,,,,,,,SSW,31.26,,clear,,,,23.01,98736.44,101226.03
KMKE,06/18/2018 03:45 UTC,101354.56,28,,74.36,5.66,220,,,,,,,,,,,,1,,,,10,,METAR KMKE 180345Z AUTO 22011KT 10SM CLR 28/23 A2993,,,,,,,,,,SW,31.26,,clear,,,,23.01,98736.44,101226.03
KMKE,06/18/2018 03:50 UTC,101388.43,28,,74.36,5.14,210,,,,,,,,,,,,,,,,10,,METAR KMKE 180350Z AUTO 21010KT 10SM 28/23 A2994,,,,,,,,,,SSW,31.26,,,,,,23.01,98769.43,101259.85
KMKE,06/18/2018 03:52 UTC,101388.43,27.8,22.8,74.32,5.66,210,,,101310,,,,,,,,,2506,,,,10,,KMKE 180352Z 21011KT 10SM FEW250 28/23 A2994 RMK AO2 SLP131  T02780228,,,,,,,,,,SSW,30.83,,thin scattered,,,,22.81,98769.43,101261.53
KMKE,06/18/2018 03:55 UTC,101388.43,28,,74.36,5.14,210,,,,,,,,,,,,1,,,,10,,METAR KMKE 180355Z AUTO 21010KT 10SM CLR 28/23 A2994,,,,,,,,,,SSW,31.26,,clear,,,,23.01,98769.43,101259.85
KMKE,06/18/2018 04:00 UTC,101388.43,28,,74.36,4.63,210,,,,,,,,,,,,,,,,10,,METAR KMKE 180400Z AUTO 21009KT 10SM 28/23 A2994,,,,,,,,,,SSW,31.26,,,,,,23.01,98769.43,101259.85
KMKE,06/18/2018 04:05 UTC,101388.43,28,,74.36,4.63,220,,,,,,,,,,,,,,,,10,,METAR KMKE 180405Z AUTO 22009KT 10SM 28/23 A2994,,,,,,,,,,SW,31.26,,,,,,23.01,98769.43,101259.85
KMKE,06/18/2018 04:10 UTC,101388.43,28,,74.36,5.66,210,,,,,,,,,,,,,,,,10,,METAR KMKE 180410Z AUTO 21011KT 10SM 28/23 A2994,,,,,,,,,,SSW,31.26,,,,,,23.01,98769.43,101259.85
KMKE,06/18/2018 04:15 UTC,101388.43,28,,74.36,5.14,220,,,,,,,,,,,,,,,,10,,METAR KMKE 180415Z AUTO 22010KT 10SM 28/23 A2994,,,,,,,,,,SW,31.26,,,,,,23.01,98769.43,101259.85
KMKE,06/18/2018 04:20 UTC,101388.43,28,,74.36,5.66,210,8.23,,,,,,,,,,,,,,,10,,METAR KMKE 180420Z AUTO 21011G16KT 10SM 28/23 A2994,,,,,,,,,,SSW,31.26,,,,,,23.01,98769.43,101259.85
KMKE,06/18/2018 04:25 UTC,101354.56,28,,74.36,5.14,210,,,,,,,,,,,,,,,,10,,METAR KMKE 180425Z AUTO 21010KT 10SM 28/23 A2993,,,,,,,,,,SSW,31.26,,,,,,23.01,98736.44,101226.03
KMKE,06/18/2018 04:30 UTC,101354.56,28,,74.36,5.66,220,,,,,,,,,,,,,,,,10,,METAR KMKE 180430Z AUTO 22011KT 10SM 28/23 A2993,,,,,,,,,,SW,31.26,,,,,,23.01,98736.44,101226.03
KMKE,06/18/2018 04:35 UTC,101354.56,28,,74.36,5.14,210,,,,,,,,,,,,,,,,10,,METAR KMKE 180435Z AUTO 21010KT 10SM 28/23 A2993,,,,,,,,,,SSW,31.26,,,,,,23.01,98736.44,101226.03
KMKE,06/18/2018 04:40 UTC,101354.56,28,,74.36,5.66,210,,,,,,,,,,,,,,,,10,,METAR KMKE 180440Z AUTO 21011KT 10SM 28/23 A2993,,,,,,,,,,SSW,31.26,,,,,,23.01,98736.44,101226.03
KMKE,06/18/2018 04:45 UTC,101354.56,28,,74.36,5.66,210,,,,,,,,,,,,,,,,10,,METAR KMKE 180445Z AUTO 21011KT 10SM 28/23 A2993,,,,,,,,,,SSW,31.26,,,,,,23.01,98736.44,101226.03
KMKE,06/18/2018 04:50 UTC,101320.7,28,,74.36,5.66,210,,,,,,,,,,,,,,,,10,,METAR KMKE 180450Z AUTO 21011KT 10SM 28/23 A2992,,,,,,,,,,SSW,31.26,,,,,,23.01,98703.45,101192.21
KMKE,06/18/2018 04:52 UTC,101320.7,27.8,23.3,76.6,5.14,220,,,101260,,,,,,,,,2006,2502,,,10,,KMKE 180452Z 22010KT 10SM FEW200 SCT250 28/23 A2992 RMK AO2 SLP126  T02780233,,,,,,,,,,SW,31.13,,scattered,,,,23.31,98703.45,101193.87
KMKE,06/18/2018 04:55 UTC,101320.7,28,,74.36,5.66,210,,,,,,,,,,,,1,,,,10,,METAR KMKE 180455Z AUTO 21011KT 10SM CLR 28/23 A2992,,,,,,,,,,SSW,31.26,,clear,,,,23.01,98703.45,101192.21
KMKE,06/18/2018 05:00 UTC,101320.7,28,,74.36,5.66,210,,,,,,,,,,,,1,,,,10,,METAR KMKE 180500Z AUTO 21011KT 10SM CLR 28/23 A2992,,,,,,,,,,SSW,31.26,,clear,,,,23.01,98703.45,101192.21
KMKE,06/18/2018 05:05 UTC,101320.7,28,,74.36,5.14,210,,,,,,,,,,,,1,,,,10,,METAR KMKE 180505Z AUTO 21010KT 10SM CLR 28/23 A2992,,,,,,,,,,SSW,31.26,,clear,,,,23.01,98703.45,101192.21
KMKE,06/18/2018 05:10 UTC,101320.7,28,,74.36,5.66,210,,,,,,,,,,,,1,,,,10,,METAR KMKE 180510Z AUTO 21011KT 10SM CLR 28/23 A2992,,,,,,,,,,SSW,31.26,,clear,,,,23.01,98703.45,101192.21
KMKE,06/18/2018 05:15 UTC,101320.7,28,,74.36,6.69,210,,,,,,,,,,,,1,,,,10,,METAR KMKE 180515Z AUTO 21013KT 10SM CLR 28/23 A2992,,,,,,,,,,SSW,31.26,,clear,,,,23.01,98703.45,101192.21
KMKE,06/18/2018 05:20 UTC,101320.7,28,,74.36,6.17,210,,,,,,,,,,,,1,,,,10,,METAR KMKE 180520Z AUTO 21012KT 10SM CLR 28/23 A2992,,,,,,,,,,SSW,31.26,,clear,,,,23.01,98703.45,101192.21
KMKE,06/18/2018 05:25 UTC,101320.7,28,,74.36,5.66,210,,,,,,,,,,,,1,,,,10,,METAR KMKE 180525Z AUTO 21011KT 10SM CLR 28/23 A2992,,,,,,,,,,SSW,31.26,,clear,,,,23.01,98703.45,101192.21
KMKE,06/18/2018 05:30 UTC,101320.7,28,,74.36,5.66,210,8.75,,,,,,,,,,,1,,,,10,,METAR KMKE 180530Z AUTO 21011G17KT 10SM CLR 28/23 A2992,,,,,,,,,,SSW,31.26,,clear,,,,23.01,98703.45,101192.21
KMKE,06/18/2018 05:35 UTC,101320.7,28,,74.36,5.66,220,,,,,,,,,,,,1,,,,10,,METAR KMKE 180535Z AUTO 22011KT 10SM CLR 28/23 A2992,,,,,,,,,,SW,31.26,,clear,,,,23.01,98703.45,101192.21
KMKE,06/18/2018 05:40 UTC,101320.7,28,,74.36,5.14,220,,,,,,,,,,,,1,,,,10,,METAR KMKE 180540Z AUTO 22010KT 10SM CLR 28/23 A2992,,,,,,,,,,SW,31.26,,clear,,,,23.01,98703.45,101192.21
KMKE,06/18/2018 05:45 UTC,101320.7,28,,74.36,5.66,220,,,,,,,,,,,,1,,,,10,,METAR KMKE 180545Z AUTO 22011KT 10SM CLR 28/23 A2992,,,,,,,,,,SW,31.26,,clear,,,,23.01,98703.45,101192.21
KMKE,06/18/2018 05:50 UTC,101320.7,28,,74.36,5.66,220,,,,,,,,,,,,1,,,,10,,METAR KMKE 180550Z AUTO 22011KT 10SM CLR 28/23 A2992,,,,,,,,,,SW,31.26,,clear,,,,23.01,98703.45,101192.21
KMKE,06/18/2018 05:52 UTC,101320.7,27.8,23.3,76.6,6.17,220,,,101250,,,,,,8004,,,1702,2503,,,10,,KMKE 180552Z 22012KT 10SM SCT170 BKN250 28/23 A2992 RMK AO2 SLP125  T02780233 10322 20278 403390244 58004,32.2,27.8,,7620,,33.9,24.4,,,SW,31.13,,broken,,,,23.31,98703.45,101193.87
KMKE,06/18/2018 05:55 UTC,101320.7,28,,78.97,5.14,220,,,,,,,,,,,,,,,,10,,METAR KMKE 180555Z AUTO 22010KT 10SM 28/24 A2992,,,,,,,,,,SW,31.94,,,,,,24.01,98703.45,101192.18
KMKE,06/18/2018 06:00 UTC,101320.7,28,,78.97,5.14,220,,,,,,,,,,,,,,,,10,,METAR KMKE 180600Z AUTO 22010KT 10SM 28/24 A2992,,,,,,,,,,SW,31.94,,,,,,24.01,98703.45,101192.18
KMKE,06/18/2018 06:05 UTC,101320.7,28,,78.97,5.14,210,,,,,,,,,,,,,,,,10,,METAR KMKE 180605Z AUTO 21010KT 10SM 28/24 A2992,,,,,,,,,,SSW,31.94,,,,,,24.01,98703.45,101192.18
KMKE,06/18/2018 06:10 UTC,101320.7,28,,78.97,5.14,210,,,,,,,,,,,,,,,,10,,METAR KMKE 180610Z AUTO 21010KT 10SM 28/24 A2992,,,,,,,,,,SSW,31.94,,,,,,24.01,98703.45,101192.18
KMKE,06/18/2018 06:15 UTC,101320.7,28,,78.97,4.63,210,,,,,,,,,,,,,,,,10,,METAR KMKE 180615Z AUTO 21009KT 10SM 28/24 A2992,,,,,,,,,,SSW,31.94,,,,,,24.01,98703.45,101192.18
KMKE,06/18/2018 06:20 UTC,101320.7,28,,78.97,5.66,210,,,,,,,,,,,,,,,,10,,METAR KMKE 180620Z AUTO 21011KT 10SM 28/24 A2992,,,,,,,,,,SSW,31.94,,,,,,24.01,98703.45,101192.18
KMKE,06/18/2018 06:25 UTC,101320.7,28,,78.97,4.63,210,,,,,,,,,,,,,,,,10,,METAR KMKE 180625Z AUTO 21009KT 10SM 28/24 A2992,,,,,,,,,,SSW,31.94,,,,,,24.01,98703.45,101192.18
KMKE,06/18/2018 06:30 UTC,101286.84,28,,78.97,6.17,220,,,,,,,,,,,,,,,,10,,METAR KMKE 180630Z AUTO 22012KT 10SM 28/24 A2991,,,,,,,,,,SW,31.94,,,,,,24.01,98670.47,101158.37
KMKE,06/18/2018 06:35 UTC,101286.84,28,,78.97,5.66,220,,,,,,,,,,,,,,,,10,,METAR KMKE 180635Z AUTO 22011KT 10SM 28/24 A2991,,,,,,,,,,SW,31.94,,,,,,24.01,98670.47,101158.37
KMKE,06/18/2018 06:40 UTC,101286.84,28,,78.97,5.14,220,,,,,,,,,,,,,,,,10,,METAR KMKE 180640Z AUTO 22010KT 10SM 28/24 A2991,,,,,,,,,,SW,31.94,,,,,,24.01,98670.47,101158.37
KMKE,06/18/2018 06:45 UTC,101286.84,28,,78.97,4.63,210,,,,,,,,,,,,,,,,10,,METAR KMKE 180645Z AUTO 21009KT 10SM 28/24 A2991,,,,,,,,,,SSW,31.94,,,,,,24.01,98670.47,101158.37
KMKE,06/18/2018 06:50 UTC,101286.84,28,,78.97,5.66,220,,,,,,,,,,,,,,,,10,,METAR KMKE 180650Z AUTO 22011KT 10SM 28/24 A2991,,,,,,,,,,SW,31.94,,,,,,24.01,98670.47,101158.37
KMKE,06/18/2018 06:52 UTC,101286.84,27.8,23.9,79.41,5.14,220,,,101220,,,,,,,,,1702,2503,,,10,,KMKE 180652Z 22010KT 10SM SCT170 BKN250 28/24 A2991 RMK AO2 SLP122  T02780239,,,,7620,,,,,,SW,31.52,,broken,,,,23.91,98670.47,101160.05
KMKE,06/18/2018 06:55 UTC,101286.84,28,,78.97,5.66,220,,,,,,,,,,,,1,,,,10,,METAR KMKE 180655Z AUTO 22011KT 10SM CLR 28/24 A2991,,,,,,,,,,SW,31.94,,clear,,,,24.01,98670.47,101158.37
KMKE,06/18/2018 07:00 UTC,101286.84,28,,78.97,6.17,220,,,,,,,,,,,,1,,,,10,,METAR KMKE 180700Z AUTO 22012KT 10SM CLR 28/24 A2991,,,,,,,,,,SW,31.94,,clear,,,,24.01,98670.47,101158.37
KMKE,06/18/2018 07:05 UTC,101252.97,28,,78.97,6.69,220,,,,,,,,,,,,1,,,,10,,METAR KMKE 180705Z AUTO 22013KT 10SM CLR 28/24 A2990,,,,,,,,,,SW,31.94,,clear,,,,24.01,98637.47,101124.54
KMKE,06/18/2018 07:10 UTC,101252.97,28,,74.36,5.66,210,,,,,,,,,,,,1,,,,10,,METAR KMKE 180710Z AUTO 21011KT 10SM CLR 28/23 A2990,,,,,,,,,,SSW,31.26,,clear,,,,23.01,98637.47,101124.56
KMKE,06/18/2018 07:15 UTC,101252.97,28,,74.36,7.2,220,,,,,,,,,,,,1,,,,10,,METAR KMKE 180715Z AUTO 22014KT 10SM CLR 28/23 A2990,,,,,,,,,,SW,31.26,,clear,,,,23.01,98637.47,101124.56
KMKE,06/18/2018 07:20 UTC,101252.97,28,,74.36,6.17,220,8.75,,,,,,,,,,,1,,,,10,,METAR KMKE 180720Z AUTO 22012G17KT 10SM CLR 28/23 A2990,,,,,,,,,,SW,31.26,,clear,,,,23.01,98637.47,101124.56
KMKE,06/18/2018 07:25 UTC,101252.97,28,,74.36,6.69,220,,,,,,,,,,,,1,,,,10,,METAR KMKE 180725Z AUTO 22013KT 10SM CLR 28/23 A2990,,,,,,,,,,SW,31.26,,clear,,,,23.01,98637.47,101124.56
KMKE,06/18/2018 07:30 UTC,101252.97,28,,74.36,6.17,220,,,,,,,,,,,,1,,,,10,,METAR KMKE 180730Z AUTO 22012KT 10SM CLR 28/23 A2990,,,,,,,,,,SW,31.26,,clear,,,,23.01,98637.47,101124.56
KMKE,06/18/2018 07:35 UTC,101252.97,28,,74.36,5.66,220,,,,,,,,,,,,,,,,10,,METAR KMKE 180735Z AUTO 22011KT 10SM 28/23 A2990,,,,,,,,,,SW,31.26,,,,,,23.01,98637.47,101124.56
KMKE,06/18/2018 07:40 UTC,101252.97,28,,74.36,6.17,220,,,,,,,,,,,,,,,,10,,METAR KMKE 180740Z AUTO 22012KT 10SM 28/23 A2990,,,,,,,,,,SW,31.26,,,,,,23.01,98637.47,101124.56
KMKE,06/18/2018 07:45 UTC,101252.97,28,,74.36,5.14,220,,,,,,,,,,,,,,,,10,,METAR KMKE 180745Z AUTO 22010KT 10SM 28/23 A2990,,,,,,,,,,SW,31.26,,,,,,23.01,98637.47,101124.56
KMKE,06/18/2018 07:50 UTC,101252.97,28,,74.36,6.17,220,,,,,,,,,,,,,,,,10,,METAR KMKE 180750Z AUTO 22012KT 10SM 28/23 A2990,,,,,,,,,,SW,31.26,,,,,,23.01,98637.47,101124.56
KMKE,06/18/2018 07:52 UTC,101252.97,27.8,23.3,76.6,6.17,220,,,101170,,,,,,,,,1702,2203,,,10,,KMKE 180752Z 22012KT 10SM SCT170 BKN220 28/23 A2990 RMK AO2 SLP117  T02780233,,,,6705.6,,,,,,SW,31.13,,broken,,,,23.31,98637.47,101126.23
KMKE,06/18/2018 07:55 UTC,101252.97,28,,74.36,6.17,220,,,,,,,,,,,,,,,,10,,METAR KMKE 180755Z AUTO 22012KT 10SM 28/23 A2990,,,,,,,,,,SW,31.26,,,,,,23.01,98637.47,101124.56
KMKE,06/18/2018 08:00 UTC,101252.97,28,,74.36,6.17,220,,,,,,,,,,,,,,,,10,,METAR KMKE 180800Z AUTO 22012KT 10SM 28/23 A2990,,,,,,,,,,SW,31.26,,,,,,23.01,98637.47,101124.56
KMKE,06/18/2018 08:05 UTC,101252.97,28,,74.36,5.14,220,,,,,,,,,,,,,,,,10,,METAR KMKE 180805Z AUTO 22010KT 10SM 28/23 A2990,,,,,,,,,,SW,31.26,,,,,,23.01,98637.47,101124.56
KMKE,06/18/2018 08:10 UTC,101252.97,28,,74.36,5.14,220,,,,,,,,,,,,,,,,10,,METAR KMKE 180810Z AUTO 22010KT 10SM 28/23 A2990,,,,,,,,,,SW,31.26,,,,,,23.01,98637.47,101124.56
KMKE,06/18/2018 08:15 UTC,101252.97,28,,74.36,5.66,220,,,,,,,,,,,,,,,,10,,METAR KMKE 180815Z AUTO 22011KT 10SM 28/23 A2990,,,,,,,,,,SW,31.26,,,,,,23.01,98637.47,101124.56
KMKE,06/18/2018 08:20 UTC,101286.84,28,,74.36,5.14,220,,,,,,,,,,,,,,,,10,,METAR KMKE 180820Z AUTO 22010KT 10SM 28/23 A2991,,,,,,,,,,SW,31.26,,,,,,23.01,98670.47,101158.4
KMKE,06/18/2018 08:25 UTC,101286.84,28,,74.36,5.14,220,,,,,,,,,,,,,,,,10,,METAR KMKE 180825Z AUTO 22010KT 10SM 28/23 A2991,,,,,,,,,,SW,31.26,,,,,,23.01,98670.47,101158.4
KMKE,06/18/2018 08:30 UTC,101286.84,27,,78.82,5.66,220,,,,,,,,,,,,,,,,10,,METAR KMKE 180830Z AUTO 22011KT 10SM 27/23 A2991,,,,,,,,,,SW,29.63,,,,,,23,98670.47,101166.77
KMKE,06/18/2018 08:35 UTC,101286.84,27,,78.82,5.14,220,,,,,,,,,,,,,,,,10,,METAR KMKE 180835Z AUTO 22010KT 10SM 27/23 A2991,,,,,,,,,,SW,29.63,,,,,,23,98670.47,101166.77
KMKE,06/18/2018 08:40 UTC,101286.84,27,,78.82,4.63,220,,,,,,,,,,,,,,,,10,,METAR KMKE 180840Z AUTO 22009KT 10SM 27/23 A2991,,,,,,,,,,SW,29.63,,,,,,23,98670.47,101166.77
KMKE,06/18/2018 08:45 UTC,101286.84,27,,78.82,5.14,220,,,,,,,,,,,,,,,,10,,METAR KMKE 180845Z AUTO 22010KT 10SM 27/23 A2991,,,,,,,,,,SW,29.63,,,,,,23,98670.47,101166.77
KMKE,06/18/2018 08:50 UTC,101286.84,27,,78.82,5.14,220,,,,,,,,,,,,,,,,10,,METAR KMKE 180850Z AUTO 22010KT 10SM 27/23 A2991,,,,,,,,,,SW,29.63,,,,,,23,98670.47,101166.77
KMKE,06/18/2018 08:52 UTC,101286.84,27.2,22.8,76.97,5.14,220,,,101200,,,,,,5005,,,1502,2003,,,10,,KMKE 180852Z 22010KT 10SM SCT150 BKN200 27/23 A2991 RMK AO2 SLP120  T02720228 55005,,,,6096,,,,,,SW,29.87,,broken,,,,22.81,98670.47,101165.09
KMKE,06/18/2018 08:55 UTC,101286.84,27,,78.82,5.66,220,,,,,,,,,,,,1,,,,10,,METAR KMKE 180855Z AUTO 22011KT 10SM CLR 27/23 A2991,,,,,,,,,,SW,29.63,,clear,,,,23,98670.47,101166.77
KMKE,06/18/2018 09:00 UTC,101286.84,27,,78.82,6.17,220,,,,,,,,,,,,1,,,,10,,METAR KMKE 180900Z AUTO 22012KT 10SM CLR 27/23 A2991,,,,,,,,,,SW,29.63,,clear,,,,23,98670.47,101166.77
KMKE,06/18/2018 09:05 UTC,101286.84,27,,78.82,5.14,220,,,,,,,,,,,,1,,,,10,,METAR KMKE 180905Z AUTO 22010KT 10SM CLR 27/23 A2991,,,,,,,,,,SW,29.63,,clear,,,,23,98670.47,101166.77
KMKE,06/18/2018 09:10 UTC,101286.84,27,,78.82,4.63,220,,,,,,,,,,,,1,,,,10,,METAR KMKE 180910Z AUTO 22009KT 10SM CLR 27/23 A2991,,,,,,,,,,SW,29.63,,clear,,,,23,98670.47,101166.77
KMKE,06/18/2018 09:15 UTC,101286.84,27,,78.82,4.63,230,,,,,,,,,,,,1,,,,10,,METAR KMKE 180915Z AUTO 23009KT 10SM CLR 27/23 A2991,,,,,,,,,,SW,29.63,,clear,,,,23,98670.47,101166.77
KMKE,06/18/2018 09:20 UTC,101286.84,27,,78.82,5.14,220,,,,,,,,,,,,1,,,,10,,METAR KMKE 180920Z AUTO 22010KT 10SM CLR 27/23 A2991,,,,,,,,,,SW,29.63,,clear,,,,23,98670.47,101166.77
KMKE,06/18/2018 09:25 UTC,101286.84,27,,78.82,4.12,220,,,,,,,,,,,,1,,,,10,,METAR KMKE 180925Z AUTO 22008KT 10SM CLR 27/23 A2991,,,,,,,,,,SW,29.63,,clear,,,,23,98670.47,101166.77
KMKE,06/18/2018 09:30 UTC,101252.97,27,,78.82,5.14,230,,,,,,,,,,,,1006,,,,10,,METAR KMKE 180930Z AUTO 23010KT 10SM FEW100 27/23 A2990,,,,,,,,,,SW,29.63,,thin scattered,,,,23,98637.47,101132.93
KMKE,06/18/2018 09:35 UTC,101252.97,28,,74.36,5.14,230,,,,,,,,,,,,1006,,,,10,,METAR KMKE 180935Z AUTO 23010KT 10SM FEW100 28/23 A2990,,,,,,,,,,SW,31.26,,thin scattered,,,,23.01,98637.47,101124.56
KMKE,06/18/2018 09:40 UTC,101252.97,28,,74.36,5.14,230,,,,,,,,,,,,1006,,,,10,,METAR KMKE 180940Z AUTO 23010KT 10SM FEW100 28/23 A2990,,,,,,,,,,SW,31.26,,thin scattered,,,,23.01,98637.47,101124.56
KMKE,06/18/2018 09:45 UTC,101252.97,28,,74.36,4.63,220,,,,,,,,,,,,,,,,10,,METAR KMKE 180945Z AUTO 22009KT 10SM 28/23 A2990,,,,,,,,,,SW,31.26,,,,,,23.01,98637.47,101124.56
KMKE,06/18/2018 09:50 UTC,101252.97,27,,78.82,4.63,220,,,,,,,,,,,,,,,,10,,METAR KMKE 180950Z AUTO 22009KT 10SM 27/23 A2990,,,,,,,,,,SW,29.63,,,,,,23,98637.47,101132.93
KMKE,06/18/2018 09:52 UTC,101252.97,27.2,22.8,76.97,4.63,230,,,101180,,2503,,,,,,,1506,1802,,,10,,KMKE 180952Z 23009KT 10SM FEW150 SCT180 BKN250 27/23 A2990 RMK AO2  SLP118 T02720228,,,,7620,,,,,,SW,29.87,,broken,,,,22.81,98637.47,101131.26
KMKE,06/18/2018 09:55 UTC,101252.97,28,,74.36,3.6,230,,,,,,,,,,,,,,,,10,,METAR KMKE 180955Z AUTO 23007KT 10SM 28/23 A2990,,,,,,,,,,SW,31.26,,,,,,23.01,98637.47,101124.56
KMKE,06/18/2018 10:00 UTC,101252.97,28,,74.36,3.09,230,,,,,,,,,,,,,,,,10,,METAR KMKE 181000Z AUTO 23006KT 10SM 28/23 A2990,,,,,,,,,,SW,31.26,,,,,,23.01,98637.47,101124.56
KMKE,06/18/2018 10:05 UTC,101286.84,28,,74.36,2.57,250,,,,,,,,,,,,,,,,10,,METAR KMKE 181005Z AUTO 25005KT 10SM 28/23 A2991,,,,,,,,,,WSW,31.26,,,,,,23.01,98670.47,101158.4
KMKE,06/18/2018 10:10 UTC,101286.84,28,,74.36,0,0,,,,,,,,,,,,,,,,10,,METAR KMKE 181010Z AUTO 00000KT 10SM 28/23 A2991,,,,,,,,,,N,31.26,,,,,,23.01,98670.47,101158.4
KMKE,06/18/2018 10:15 UTC,101286.84,24,,83.37,3.09,30,,,,,,,,,,,,,,,,10,,METAR KMKE 181015Z AUTO 03006KT 10SM 24/21 A2991,,,,,,,,,,NNE,,,,,,,21,98670.47,101192.27
KMKE,06/18/2018 10:20 UTC,101286.84,23,,78.24,1.54,20,,,,,,,,,,,,,,,,10,,METAR KMKE 181020Z AUTO 02003KT 10SM 23/19 A2991,,,,,,,,,,NNE,,,,,,,18.99,98670.47,101200.91
KMKE,06/18/2018 10:25 UTC,101286.84,23,,78.24,1.54,40,,,,,,,,,,,,,,,,10,,METAR KMKE 181025Z AUTO 04003KT 10SM 23/19 A2991,,,,,,,,,,NE,,,,,,,18.99,98670.47,101200.91
KMKE,06/18/2018 10:30 UTC,101286.84,23,,78.24,0,0,,,,,,,,,,,,,,,,10,,METAR KMKE 181030Z AUTO 00000KT 10SM 23/19 A2991,,,,,,,,,,N,,,,,,,18.99,98670.47,101200.91
KMKE,06/18/2018 10:35 UTC,101286.84,22,,83.13,0,0,,,,,,,,,,,,,,,,10,,METAR KMKE 181035Z AUTO 00000KT 10SM 22/19 A2991,,,,,,,,,,N,,,,,,,18.99,98670.47,101209.58
KMKE,06/18/2018 10:40 UTC,101286.84,22,,83.13,0,0,,,,,,,,,,,,,,,,10,,METAR KMKE 181040Z AUTO 00000KT 10SM 22/19 A2991,,,,,,,,,,N,,,,,,,18.99,98670.47,101209.58
KMKE,06/18/2018 10:45 UTC,101286.84,22,,83.13,0,0,,,,,,,,,,,,,,,,10,,METAR KMKE 181045Z AUTO 00000KT 10SM 22/19 A2991,,,,,,,,,,N,,,,,,,18.99,98670.47,101209.58
KMKE,06/18/2018 10:50 UTC,101286.84,22,,83.13,0,0,,,,,,,,,,,,,,,,10,,METAR KMKE 181050Z AUTO 00000KT 10SM 22/19 A2991,,,,,,,,,,N,,,,,,,18.99,98670.47,101209.58
KMKE,06/18/2018 10:52 UTC,101286.84,22.2,20,87.39,0,0,,,101210,,,,,,,,,1802,2503,,,10,,KMKE 181052Z 00000KT 10SM SCT180 BKN250 22/20 A2991 RMK AO2 SLP121  T02220200,,,,7620,,,,,,N,,,broken,,,,19.99,98670.47,101207.82
KMKE,06/18/2018 10:55 UTC,101286.84,22,,88.46,0,0,,,,,,,,,,,,,,,,10,,METAR KMKE 181055Z AUTO 00000KT 10SM 22/20 A2991,,,,,,,,,,N,,,,,,,20,98670.47,101209.56
KMKE,06/18/2018 11:00 UTC,101286.84,22,,88.46,0,0,,,,,,,,,,,,,,,,10,,METAR KMKE 181100Z AUTO 00000KT 10SM 22/20 A2991,,,,,,,,,,N,,,,,,,20,98670.47,101209.56
KMKE,06/18/2018 11:05 UTC,101286.84,23,,83.25,0,0,,,,,,,,,,,,,,,,10,,METAR KMKE 181105Z AUTO 00000KT 10SM 23/20 A2991,,,,,,,,,,N,,,,,,,19.99,98670.47,101200.9
KMKE,06/18/2018 11:10 UTC,101286.84,23,,83.25,0,0,,,,,,,,,,,,,,,,10,,METAR KMKE 181110Z AUTO 00000KT 10SM 23/20 A2991,,,,,,,,,,N,,,,,,,19.99,98670.47,101200.9
KMKE,06/18/2018 11:15 UTC,101286.84,23,,83.25,0,0,,,,,,,,,,,,,,,,10,,METAR KMKE 181115Z AUTO 00000KT 10SM 23/20 A2991,,,,,,,,,,N,,,,,,,19.99,98670.47,101200.9
KMKE,06/18/2018 11:20 UTC,101286.84,23,,83.25,0,0,,,,,,,,,,,,,,,,10,,METAR KMKE 181120Z AUTO 00000KT 10SM 23/20 A2991,,,,,,,,,,N,,,,,,,19.99,98670.47,101200.9
KMKE,06/18/2018 11:25 UTC,101286.84,23,,83.25,0,0,,,,,,,,,,,,,,,,10,,METAR KMKE 181125Z AUTO 00000KT 10SM 23/20 A2991,,,,,,,,,,N,,,,,,,19.99,98670.47,101200.9
KMKE,06/18/2018 11:30 UTC,101286.84,23,,88.54,0,0,,,,,,,,,,,,,,,,10,,METAR KMKE 181130Z AUTO 00000KT 10SM 23/21 A2991,,,,,,,,,,N,,,,,,,21,98670.47,101200.88
KMKE,06/18/2018 11:35 UTC,101286.84,24,,83.37,2.06,220,,,,,,,,,,,,,,,,10,,METAR KMKE 181135Z AUTO 22004KT 10SM 24/21 A2991,,,,,,,,,,SW,,,,,,,21,98670.47,101192.27
KMKE,06/18/2018 11:40 UTC,101286.84,26,,78.68,3.09,230,,,,,,,,,,,,,,,,10,,METAR KMKE 181140Z AUTO 23006KT 10SM 26/22 A2991,,,,,,,,,,SW,,,,,,,22,98670.47,101175.22
KMKE,06/18/2018 11:45 UTC,101286.84,27,,78.82,5.14,230,,,,,,,,,,,,,,,,10,,METAR KMKE 181145Z AUTO 23010KT 10SM 27/23 A2991,,,,,,,,,,SW,29.63,,,,,,23,98670.47,101166.77
KMKE,06/18/2018 11:50 UTC,101320.7,27,,78.82,4.63,240,,,,,,,,,,,,1006,,,,10,,METAR KMKE 181150Z AUTO 24009KT 10SM FEW100 27/23 A2992,,,,,,,,,,WSW,29.63,,thin scattered,,,,23,98703.45,101200.58
KMKE,06/18/2018 11:52 UTC,101320.7,27.2,22.8,76.97,4.12,240,,,101240,,2503,,,,3004,,,1006,1802,,,10,,KMKE 181152Z 24008KT 10SM FEW100 SCT180 BKN250 27/23 A2992 RMK AO2  SLP124 T02720228 10278 20217 53004,27.8,21.7,,7620,,,,,,WSW,29.87,,broken,,,,22.81,98703.45,101198.91
KMKE,06/18/2018 11:55 UTC,101320.7,27,,78.82,5.14,240,,,,,,,,,,,,1,,,,10,,METAR KMKE 181155Z AUTO 24010KT 10SM CLR 27/23 A2992,,,,,,,,,,WSW,29.63,,clear,,,,23,98703.45,101200.58
KMKE,06/18/2018 12:00 UTC,101320.7,28,,69.98,6.17,240,8.75,,,,,,,,,,,1,,,,10,,METAR KMKE 181200Z AUTO 24012G17KT 10SM CLR 28/22 A2992,,,,,,,,,,WSW,30.66,,clear,,,,22.01,98703.45,101192.23
KMKE,06/18/2018 12:05 UTC,101320.7,28,,69.98,4.63,240,,,,,,,,,,,,1,,,,10,,METAR KMKE 181205Z AUTO 24009KT 10SM CLR 28/22 A2992,,,,,,,,,,WSW,30.66,,clear,,,,22.01,98703.45,101192.23
KMKE,06/18/2018 12:10 UTC,101320.7,28,,69.98,5.66,230,,,,,,,,,,,,1,,,,10,,METAR KMKE 181210Z AUTO 23011KT 10SM CLR 28/22 A2992,,,,,,,,,,SW,30.66,,clear,,,,22.01,98703.45,101192.23
KMKE,06/18/2018 12:15 UTC,101320.7,28,,74.36,5.14,240,,,,,,,,,,,,1,,,,10,,METAR KMKE 181215Z AUTO 24010KT 10SM CLR 28/23 A2992,,,,,,,,,,WSW,31.26,,clear,,,,23.01,98703.45,101192.21
KMKE,06/18/2018 12:20 UTC,101320.7,28,,74.36,5.14,240,,,,,,,,,,,,1006,,,,10,,METAR KMKE 181220Z AUTO 24010KT 10SM FEW100 28/23 A2992,,,,,,,,,,WSW,31.26,,thin scattered,,,,23.01,98703.45,101192.21
KMKE,06/18/2018 12:25 UTC,101320.7,28,,69.98,6.17,240,,,,,,,,,,,,1006,,,,10,,METAR KMKE 181225Z AUTO 24012KT 10SM FEW100 28/22 A2992,,,,,,,,,,WSW,30.66,,thin scattered,,,,22.01,98703.45,101192.23
KMKE,06/18/2018 12:30 UTC,101320.7,28,,69.98,6.69,240,9.77,,,,,,,,,,,1006,,,,10,,METAR KMKE 181230Z AUTO 24013G19KT 10SM FEW100 28/22 A2992,,,,,,,,,,WSW,30.66,,thin scattered,,,,22.01,98703.45,101192.23
KMKE,06/18/2018 12:35 UTC,101320.7,28,,69.98,5.66,250,,,,,,,,,,,,1006,,,,10,,METAR KMKE 181235Z AUTO 25011KT 10SM FEW100 28/22 A2992,,,,,,,,,,WSW,30.66,,thin scattered,,,,22.01,98703.45,101192.23
KMKE,06/18/2018 12:40 UTC,101320.7,28,,74.36,5.14,250,,,,,,,,,,,,1006,,,,10,,METAR KMKE 181240Z AUTO 25010KT 10SM FEW100 28/23 A2992,,,,,,,,,,WSW,31.26,,thin scattered,,,,23.01,98703.45,101192.21
KMKE,06/18/2018 12:45 UTC,101320.7,28,,69.98,5.14,260,7.72,,,,,,,,,,,1006,,,,10,,METAR KMKE 181245Z AUTO 26010G15KT 10SM FEW100 28/22 A2992,,,,,,,,,,W,30.66,,thin scattered,,,,22.01,98703.45,101192.23
KMKE,06/18/2018 12:50 UTC,101320.7,28,,69.98,5.66,250,8.75,,,,,,,,,,,556,,,,10,,METAR KMKE 181250Z AUTO 25011G17KT 10SM FEW055 28/22 A2992,,,,,,,,,,WSW,30.66,,thin scattered,,,,22.01,98703.45,101192.23
KMKE,06/18/2018 12:52 UTC,101320.7,28.3,22.2,69.61,6.69,260,,,101260,,2503,,,,,,,556,1802,,,10,,KMKE 181252Z 26013KT 10SM FEW055 SCT180 BKN250 28/22 A2992 RMK AO2  SLP126 T02830222,,,,7620,,,,,,W,31.2,,broken,,,,22.21,98703.45,101189.72
KMKE,06/18/2018 12:55 UTC,101354.56,28,,69.98,6.69,260,,,,,,,,,,,,1,,,,10,,METAR KMKE 181255Z AUTO 26013KT 10SM CLR 28/22 A2993,,,,,,,,,,W,30.66,,clear,,,,22.01,98736.44,101226.05
KMKE,06/18/2018 13:00 UTC,101354.56,28,,69.98,7.2,250,,,,,,,,,,,,1,,,,10,,METAR KMKE 181300Z AUTO 25014KT 10SM CLR 28/22 A2993,,,,,,,,,,WSW,30.66,,clear,,,,22.01,98736.44,101226.05
KMKE,06/18/2018 13:05 UTC,101354.56,28,,69.98,6.17,250,9.77,,,,,,,,,,,556,,,,10,,METAR KMKE 181305Z AUTO 25012G19KT 10SM FEW055 28/22 A2993,,,,,,,,,,WSW,30.66,,thin scattered,,,,22.01,98736.44,101226.05
KMKE,06/18/2018 13:10 UTC,101320.7,28,,69.98,6.17,250,,,,,,,,,,,,556,,,,10,,METAR KMKE 181310Z AUTO 25012KT 10SM FEW055 28/22 A2992,,,,,,,,,,WSW,30.66,,thin scattered,,,,22.01,98703.45,101192.23
KMKE,06/18/2018 13:15 UTC,101354.56,29,,70.17,5.66,250,,,,,,,,,,,,556,,,,10,,METAR KMKE 181315Z AUTO 25011KT 10SM FEW055 29/23 A2993,,,,,,,,,,WSW,32.76,,thin scattered,,,,23.02,98736.44,101217.71
KMKE,06/18/2018 13:20 UTC,101354.56,29,,66.04,5.66,260,8.75,,,,,,,,,,,556,,,,10,,METAR KMKE 181320Z AUTO 26011G17KT 10SM FEW055 29/22 A2993,,,,,,,,,,W,32.02,,thin scattered,,,,22.02,98736.44,101217.73
KMKE,06/18/2018 13:25 UTC,101354.56,29,,66.04,6.17,260,8.75,,,,,,,,,,,556,,,,10,,METAR KMKE 181325Z AUTO 26012G17KT 10SM FEW055 29/22 A2993,,,,,,,,,,W,32.02,,thin scattered,,,,22.02,98736.44,101217.73
KMKE,06/18/2018 13:30 UTC,101354.56,30,,66.25,8.23,260,,,,,,,,,,,,556,,,,10,,METAR KMKE 181330Z AUTO 26016KT 10SM FEW055 30/23 A2993,,,,,,,,,,W,34.16,,thin scattered,,,,23.03,98736.44,101209.44
KMKE,06/18/2018 13:35 UTC,101388.43,30,,66.25,6.17,270,10.8,,,,,,,,,,,556,,,,10,,METAR KMKE 181335Z AUTO 27012G21KT 10SM FEW055 30/23 A2994,,,,,,,,,,W,34.16,,thin scattered,,,,23.03,98769.43,101243.26
KMKE,06/18/2018 13:40 UTC,101388.43,30,,62.35,7.72,280,11.83,,,,,,,,,,,556,,,,10,,METAR KMKE 181340Z AUTO 28015G23KT 10SM FEW055 30/22 A2994,,,,,,,,,,W,33.31,,thin scattered,,,,22.03,98769.43,101243.28
KMKE,06/18/2018 13:45 UTC,101388.43,30,,62.35,8.23,280,11.83,,,,,,,,,,,556,,,,10,,METAR KMKE 181345Z AUTO 28016G23KT 10SM FEW055 30/22 A2994,,,,,,,,,,W,33.31,,thin scattered,,,,22.03,98769.43,101243.28
KMKE,06/18/2018 13:50 UTC,101388.43,29,,66.04,5.66,270,8.23,,,,,,,,,,,322,552,,,10,,METAR KMKE 181350Z AUTO 27011G16KT 10SM SCT032 SCT055 29/22 A2994,,,,,,,,,,W,32.02,,scattered,,,,22.02,98769.43,101251.55
KMKE,06/18/2018 13:52 UTC,101388.43,29.4,22.2,65.33,7.72,270,13.38,,101310,,2503,,,,,,,322,552,,,10,,KMKE 181352Z 27015G26KT 10SM SCT032 SCT055 BKN250 29/22 A2994 RMK AO2 PK WND 28027/1329 SLP131 T02940222,,,13.89,7620,,,,280,,W,32.69,,broken,,,,22.22,98769.43,101248.23
KMKE,06/18/2018 13:55 UTC,101388.43,29,,66.04,7.2,270,,,,,,,,,,,,1,,,,10,,METAR KMKE 181355Z AUTO 27014KT 10SM CLR 29/22 A2994,,,,,,,,,,W,32.02,,clear,,,,22.02,98769.43,101251.55
KMKE,06/18/2018 14:00 UTC,101354.56,29,,66.04,5.14,280,8.23,,,,,,,,,,,312,552,,,10,,METAR KMKE 181400Z AUTO 28010G16KT 10SM SCT031 SCT055 29/22 A2993,,,,,,,,,,W,32.02,,scattered,,,,22.02,98736.44,101217.73
KMKE,06/18/2018 14:05 UTC,101388.43,29,,66.04,5.14,280,7.72,,,,,,,,,,,312,552,,,10,,METAR KMKE 181405Z AUTO 28010G15KT 10SM SCT031 SCT055 29/22 A2994,,,,,,,,,,W,32.02,,scattered,,,,22.02,98769.43,101251.55
KMKE,06/18/2018 14:10 UTC,101354.56,29,,70.17,7.2,270,,,,,,,,,,,,316,552,,,10,,METAR KMKE 181410Z AUTO 27014KT 10SM FEW031 SCT055 29/23 A2993,,,,,,,,,,W,32.76,,scattered,,,,23.02,98736.44,101217.71
KMKE,06/18/2018 14:15 UTC,101354.56,29,,66.04,6.17,270,,,,,,,,,,,,316,552,,,10,,METAR KMKE 181415Z AUTO 27012KT 10SM FEW031 SCT055 29/22 A2993,,,,,,,,,,W,32.02,,scattered,,,,22.02,98736.44,101217.73
KMKE,06/18/2018 14:20 UTC,101354.56,29,,66.04,7.72,270,,,,,,,,,,,,316,552,,,10,,METAR KMKE 181420Z AUTO 27015KT 10SM FEW031 SCT055 29/22 A2993,,,,,,,,,,W,32.02,,scattered,,,,22.02,98736.44,101217.73
KMKE,06/18/2018 14:25 UTC,101354.56,29,,66.04,5.66,280,8.23,,,,,,,,,,,316,552,,,10,,METAR KMKE 181425Z AUTO 28011G16KT 10SM FEW031 SCT055 29/22 A2993,,,,,,,,,,W,32.02,,scattered,,,,22.02,98736.44,101217.73
KMKE,06/18/2018 14:30 UTC,101354.56,30,,62.35,4.12,290,,,,,,,,,,,,316,552,,,10,,METAR KMKE 181430Z AUTO 29008KT 10SM FEW031 SCT055 30/22 A2993,,,,,,,,,,WNW,33.31,,scattered,,,,22.03,98736.44,101209.46
KMKE,06/18/2018 14:35 UTC,101354.56,31,,55.4,5.66,280,,,,,,,,,,,,316,552,,,10,,METAR KMKE 181435Z AUTO 28011KT 10SM FEW031 SCT055 31/21 A2993,,,,,,,,,,W,33.76,,scattered,,,,21.04,98736.44,101201.27
KMKE,06/18/2018 14:40 UTC,101354.56,31,,55.4,5.66,300,,,,,,,,,,,,316,552,,,10,,METAR KMKE 181440Z AUTO 30011KT 10SM FEW031 SCT055 31/21 A2993,,,,,,,,,,WNW,33.76,,scattered,,,,21.04,98736.44,101201.27
KMKE,06/18/2018 14:45 UTC,101354.56,31,,55.4,4.12,290,,,,,,,,,,,,316,552,,,10,,METAR KMKE 181445Z AUTO 29008KT 10SM FEW031 SCT055 31/21 A2993,,,,,,,,,,WNW,33.76,,scattered,,,,21.04,98736.44,101201.27
KMKE,06/18/2018 14:50 UTC,101354.56,31,,55.4,3.6,280,,,,,,,,,,,,356,,,,10,,METAR KMKE 181450Z AUTO 28007KT 10SM FEW035 31/21 A2993,,,,,,,,,,W,33.76,,thin scattered,,,,21.04,98736.44,101201.27
KMKE,06/18/2018 14:52 UTC,101354.56,30.6,20.6,55.3,3.6,280,,,101270,,2503,,,,4,,,376,1502,,,10,,KMKE 181452Z 28007KT 10SM FEW037 SCT150 BKN250 31/21 A2993 RMK AO2  SLP127 T03060206 50004,,,,7620,,,,,,W,32.99,,broken,,,,20.64,98736.44,101204.56
KMKE,06/18/2018 14:55 UTC,101354.56,31,,55.4,4.63,260,7.2,,,,,,,,,,,376,,,,10,,METAR KMKE 181455Z AUTO 26009G14KT 10SM FEW037 31/21 A2993,,,,,,,,,,W,33.76,,thin scattered,,,,21.04,98736.44,101201.27
KMKE,06/18/2018 15:00 UTC,101354.56,31,,55.4,5.66,270,,,,,,,,,,,,376,,,,10,,METAR KMKE 181500Z AUTO 27011KT 10SM FEW037 31/21 A2993,,,,,,,,,,W,33.76,,thin scattered,,,,21.04,98736.44,101201.27
KMKE,06/18/2018 15:05 UTC,101354.56,31,,55.4,6.69,290,,,,,,,,,,,,376,,,,10,,METAR KMKE 181505Z AUTO 29013KT 10SM FEW037 31/21 A2993,,,,,,,,,,WNW,33.76,,thin scattered,,,,21.04,98736.44,101201.27
KMKE,06/18/2018 15:10 UTC,101320.7,31,,55.4,4.63,280,,,,,,,,,,,,376,,,,10,,METAR KMKE 181510Z AUTO 28009KT 10SM FEW037 31/21 A2992,,,,,,,,,,W,33.76,,thin scattered,,,,21.04,98703.45,101167.46
KMKE,06/18/2018 15:15 UTC,101354.56,32,,55.65,5.14,260,,,,,,,,,,,,376,,,,10,,METAR KMKE 181515Z AUTO 26010KT 10SM FEW037 32/22 A2993,,,,,,,,,,W,35.82,,thin scattered,,,,22.05,98736.44,101193.09
KMKE,06/18/2018 15:20 UTC,101354.56,32,,55.65,6.17,270,,,,,,,,,,,,376,,,,10,,METAR KMKE 181520Z AUTO 27012KT 10SM FEW037 32/22 A2993,,,,,,,,,,W,35.82,,thin scattered,,,,22.05,98736.44,101193.09
KMKE,06/18/2018 15:25 UTC,101354.56,31,,58.89,6.17,280,,,,,,,,,,,,376,,,,10,,METAR KMKE 181525Z AUTO 28012KT 10SM FEW037 31/22 A2993,,,,,,,,,,W,34.57,,thin scattered,,,,22.04,98736.44,101201.25
KMKE,06/18/2018 15:30 UTC,101354.56,32,,55.65,5.66,270,,,,,,,,,,,,376,,,,10,,METAR KMKE 181530Z AUTO 27011KT 10SM FEW037 32/22 A2993,,,,,,,,,,W,35.82,,thin scattered,,,,22.05,98736.44,101193.09
KMKE,06/18/2018 15:35 UTC,101320.7,32,,55.65,7.2,240,,,,,,,,,,,,376,,,,10,,METAR KMKE 181535Z AUTO 24014KT 10SM FEW037 32/22 A2992,,,,,,,,,,WSW,35.82,,thin scattered,,,,22.05,98703.45,101159.28
KMKE,06/18/2018 15:40 UTC,101320.7,31,,58.89,5.66,260,,,,,,,,,,,,376,,,,10,,METAR KMKE 181540Z AUTO 26011KT 10SM FEW037 31/22 A2992,,,,,,,,,,W,34.57,,thin scattered,,,,22.04,98703.45,101167.44
KMKE,06/18/2018 15:45 UTC,101320.7,31,,58.89,5.14,260,,,,,,,,,,,,376,,,,10,,METAR KMKE 181545Z AUTO 26010KT 10SM FEW037 31/22 A2992,,,,,,,,,,W,34.57,,thin scattered,,,,22.04,98703.45,101167.44
KMKE,06/18/2018 15:50 UTC,101320.7,32,,55.65,6.17,230,,,,,,,,,,,,386,,,,10,,METAR KMKE 181550Z AUTO 23012KT 10SM FEW038 32/22 A2992,,,,,,,,,,SW,35.82,,thin scattered,,,,22.05,98703.45,101159.28
KMKE,06/18/2018 15:52 UTC,101320.7,31.7,22.2,57.29,5.14,240,,,101240,,2503,,,,,,,386,1802,,,10,,KMKE 181552Z 24010KT 10SM FEW038 SCT180 BKN250 32/22 A2992 RMK AO2  SLP124 T03170222,,,,7620,,,,,,WSW,35.63,,broken,,,,22.25,98703.45,101161.72
KMKE,06/18/2018 15:55 UTC,101320.7,32,,55.65,4.63,250,,,,,,,,,,,,386,,,,10,,METAR KMKE 181555Z AUTO 25009KT 10SM FEW038 32/22 A2992,,,,,,,,,,WSW,35.82,,thin scattered,,,,22.05,98703.45,101159.28
KMKE,06/18/2018 16:00 UTC,101320.7,32,,55.65,5.14,240,7.72,,,,,,,,,,,386,,,,10,,METAR KMKE 181600Z AUTO 24010G15KT 10SM FEW038 32/22 A2992,,,,,,,,,,WSW,35.82,,thin scattered,,,,22.05,98703.45,101159.28
KMKE,06/18/2018 16:05 UTC,101320.7,32,,59.13,5.66,230,,,,,,,,,,,,386,,,,10,,METAR KMKE 181605Z AUTO 23011KT 10SM FEW038 32/23 A2992,,,,,,,,,,SW,36.81,,thin scattered,,,,23.05,98703.45,101159.26
KMKE,06/18/2018 16:10 UTC,101320.7,32,,55.65,4.63,260,,,,,,,,,,,,386,,,,10,,METAR KMKE 181610Z AUTO 26009KT 10SM FEW038 32/22 A2992,,,,,,,,,,W,35.82,,thin scattered,,,,22.05,98703.45,101159.28
KMKE,06/18/2018 16:15 UTC,101320.7,32,,55.65,5.14,250,,,,,,,,,,,,386,,,,10,,METAR KMKE 181615Z AUTO 25010KT 10SM FEW038 32/22 A2992,,,,,,,,,,WSW,35.82,,thin scattered,,,,22.05,98703.45,101159.28
KMKE,06/18/2018 16:20 UTC,101320.7,32,,59.13,3.09,230,,,,,,,,,,,,386,,,,10,,METAR KMKE 181620Z AUTO 23006KT 10SM FEW038 32/23 A2992,,,,,,,,,,SW,36.81,,thin scattered,,,,23.05,98703.45,101159.26
KMKE,06/18/2018 16:25 UTC,101320.7,32,,59.13,5.66,230,,,,,,,,,,,,386,,,,10,,METAR KMKE 181625Z AUTO 23011KT 10SM FEW038 32/23 A2992,,,,,,,,,,SW,36.81,,thin scattered,,,,23.05,98703.45,101159.26
KMKE,06/18/2018 16:30 UTC,101320.7,32,,59.13,6.69,230,,,,,,,,,,,,386,,,,10,,METAR KMKE 181630Z AUTO 23013KT 10SM FEW038 32/23 A2992,,,,,,,,,,SW,36.81,,thin scattered,,,,23.05,98703.45,101159.26
KMKE,06/18/2018 16:35 UTC,101320.7,32,,59.13,6.69,230,9.26,,,,,,,,,,,386,,,,10,,METAR KMKE 181635Z AUTO 23013G18KT 10SM FEW038 32/23 A2992,,,,,,,,,,SW,36.81,,thin scattered,,,,23.05,98703.45,101159.26
KMKE,06/18/2018 16:40 UTC,101320.7,32,,59.13,7.2,220,,,,,,,,,,,,386,,,,10,,METAR KMKE 181640Z AUTO 22014KT 10SM FEW038 32/23 A2992,,,,,,,,,,SW,36.81,,thin scattered,,,,23.05,98703.45,101159.26
KMKE,06/18/2018 16:45 UTC,101286.84,32,,59.13,6.17,240,,,,,,,,,,,,386,,,,10,,METAR KMKE 181645Z AUTO 24012KT 10SM FEW038 32/23 A2991,,,,,,,,,,WSW,36.81,,thin scattered,,,,23.05,98670.47,101125.46
KMKE,06/18/2018 16:50 UTC,101286.84,32,,59.13,5.14,210,,,,,,,,,,,,386,,,,10,,METAR KMKE 181650Z AUTO 21010KT 10SM FEW038 32/23 A2991,,,,,,,,,,SSW,36.81,,thin scattered,,,,23.05,98670.47,101125.46
KMKE,06/18/2018 16:52 UTC,101286.84,32.2,22.8,57.76,6.17,220,,,101220,,,,,,,,,386,2503,,,10,,KMKE 181652Z 22012KT 10SM FEW038 BKN250 32/23 A2991 RMK AO2 SLP122  T03220228,,,,7620,,,,,,SW,36.86,,broken,,,,22.85,98670.47,101123.84
KMKE,06/18/2018 16:55 UTC,101286.84,32,,59.13,4.63,240,,,,,,,,,,,,386,,,,10,,METAR KMKE 181655Z AUTO 24009KT 10SM FEW038 32/23 A2991,,,,,,,,,,WSW,36.81,,thin scattered,,,,23.05,98670.47,101125.46
KMKE,06/18/2018 17:00 UTC,101286.84,32,,59.13,6.69,240,9.77,,,,,,,,,,,1,,,,10,,METAR KMKE 181700Z AUTO 24013G19KT 10SM CLR 32/23 A2991,,,,,,,,,,WSW,36.81,,clear,,,,23.05,98670.47,101125.46
KMKE,06/18/2018 17:05 UTC,101286.84,32,,59.13,6.69,230,9.77,,,,,,,,,,,1,,,,10,,METAR KMKE 181705Z AUTO 23013G19KT 10SM CLR 32/23 A2991,,,,,,,,,,SW,36.81,,clear,,,,23.05,98670.47,101125.46
KMKE,06/18/2018 17:10 UTC,101286.84,32,,59.13,7.2,240,,,,,,,,,,,,1,,,,10,,METAR KMKE 181710Z AUTO 24014KT 10SM CLR 32/23 A2991,,,,,,,,,,WSW,36.81,,clear,,,,23.05,98670.47,101125.46
KMKE,06/18/2018 17:15 UTC,101286.84,32,,59.13,5.66,250,,,,,,,,,,,,1,,,,10,,METAR KMKE 181715Z AUTO 25011KT 10SM CLR 32/23 A2991,,,,,,,,,,WSW,36.81,,clear,,,,23.05,98670.47,101125.46
KMKE,06/18/2018 17:20 UTC,101286.84,32,,59.13,6.17,270,8.75,,,,,,,,,,,1,,,,10,,METAR KMKE 181720Z AUTO 27012G17KT 10SM CLR 32/23 A2991,,,,,,,,,,W,36.81,,clear,,,,23.05,98670.47,101125.46
KMKE,06/18/2018 17:25 UTC,101286.84,32,,59.13,4.12,240,,,,,,,,,,,,1,,,,10,,METAR KMKE 181725Z AUTO 24008KT 10SM CLR 32/23 A2991,,,,,,,,,,WSW,36.81,,clear,,,,23.05,98670.47,101125.46
KMKE,06/18/2018 17:30 UTC,101286.84,32,,59.13,5.66,210,,,,,,,,,,,,412,,,,10,,METAR KMKE 181730Z AUTO 21011KT 10SM SCT041 32/23 A2991,,,,,,,,,,SSW,36.81,,scattered,,,,23.05,98670.47,101125.46
KMKE,06/18/2018 17:35 UTC,101286.84,32,,59.13,6.17,220,,,,,,,,,,,,412,,,,10,,METAR KMKE 181735Z AUTO 22012KT 10SM SCT041 32/23 A2991,,,,,,,,,,SW,36.81,,scattered,,,,23.05,98670.47,101125.46
KMKE,06/18/2018 17:40 UTC,101286.84,32,,62.8,6.69,220,,,,,,,,,,,,412,,,,10,,METAR KMKE 181740Z AUTO 22013KT 10SM SCT041 32/24 A2991,,,,,,,,,,SW,37.95,,scattered,,,,24.05,98670.47,101125.44
KMKE,06/18/2018 17:45 UTC,101286.84,32,,59.13,6.69,240,9.77,,,,,,,,,,,412,,,,10,,METAR KMKE 181745Z AUTO 24013G19KT 10SM SCT041 32/23 A2991,,,,,,,,,,WSW,36.81,,scattered,,,,23.05,98670.47,101125.46
KMKE,06/18/2018 17:50 UTC,101286.84,32,,59.13,7.2,230,,,,,,,,,,,,412,,,,10,,METAR KMKE 181750Z AUTO 23014KT 10SM SCT041 32/23 A2991,,,,,,,,,,SW,36.81,,scattered,,,,23.05,98670.47,101125.46
KMKE,06/18/2018 17:52 UTC,101286.84,32.2,22.8,57.76,6.17,240,10.29,,101210,,,,,,6006,,,412,2503,,,10,,KMKE 181752Z 24012G20KT 10SM SCT041 BKN250 32/23 A2991 RMK AO2  SLP121 T03220228 10328 20272 56006,32.8,27.2,,7620,,,,,,WSW,36.86,,broken,,,,22.85,98670.47,101123.84
KMKE,06/18/2018 17:55 UTC,101286.84,32,,59.13,5.66,240,,,,,,,,,,,,346,,,,10,,METAR KMKE 181755Z AUTO 24011KT 10SM FEW034 32/23 A2991,,,,,,,,,,WSW,36.81,,thin scattered,,,,23.05,98670.47,101125.46
KMKE,06/18/2018 18:00 UTC,101286.84,33,,55.9,6.69,230,9.26,,,,,,,,,,,362,,,,10,,METAR KMKE 181800Z AUTO 23013G18KT 10SM SCT036 33/23 A2991,,,,,,,,,,SW,38.11,,scattered,,,,23.06,98670.47,101117.36
KMKE,06/18/2018 18:05 UTC,101286.84,32,,59.13,7.2,220,9.77,,,,,,,,,,,362,,,,10,,METAR KMKE 181805Z AUTO 22014G19KT 10SM SCT036 32/23 A2991,,,,,,,,,,SW,36.81,,scattered,,,,23.05,98670.47,101125.46
KMKE,06/18/2018 18:10 UTC,101286.84,32,,59.13,7.72,240,10.29,,,,,,,,,,,362,,,,10,,METAR KMKE 181810Z AUTO 24015G20KT 10SM SCT036 32/23 A2991,,,,,,,,,,WSW,36.81,,scattered,,,,23.05,98670.47,101125.46
KMKE,06/18/2018 18:15 UTC,101286.84,33,,55.9,5.14,240,,,,,,,,,,,,362,,,,10,,METAR KMKE 181815Z AUTO 24010KT 10SM SCT036 33/23 A2991,,,,,,,,,,WSW,38.11,,scattered,,,,23.06,98670.47,101117.36
KMKE,06/18/2018 18:20 UTC,101286.84,33,,55.9,4.63,250,,,,,,,,,,,,362,,,,10,,METAR KMKE 181820Z AUTO 25009KT 10SM SCT036 33/23 A2991,,,,,,,,,,WSW,38.11,,scattered,,,,23.06,98670.47,101117.36
KMKE,06/18/2018 18:25 UTC,101252.97,33,,55.9,6.69,210,,,,,,,,,,,,362,,,,10,,METAR KMKE 181825Z AUTO 21013KT 10SM SCT036 33/23 A2990,,,,,,,,,,SSW,38.11,,scattered,,,,23.06,98637.47,101083.54
KMKE,06/18/2018 18:30 UTC,101252.97,33,,55.9,7.2,230,,,,,,,,,,,,362,,,,10,,METAR KMKE 181830Z AUTO 23014KT 10SM SCT036 33/23 A2990,,,,,,,,,,SW,38.11,,scattered,,,,23.06,98637.47,101083.54
KMKE,06/18/2018 18:35 UTC,101219.11,33,,55.9,7.72,230,10.29,,,,,,,,,,,362,,,,10,,METAR KMKE 181835Z AUTO 23015G20KT 10SM SCT036 33/23 A2989,,,,,,,,,,SW,38.11,,scattered,,,,23.06,98604.49,101049.74
KMKE,06/18/2018 18:40 UTC,101219.11,33,,55.9,6.17,240,,,,,,,,,,,,362,,,,10,,METAR KMKE 181840Z AUTO 24012KT 10SM SCT036 33/23 A2989,,,,,,,,,,WSW,38.11,,scattered,,,,23.06,98604.49,101049.74
KMKE,06/18/2018 18:45 UTC,101219.11,33,23.3,55.9,7.72,220,10.29,,,5,2503,,,,,,,362,903,,,10,,METAR KMKE 181845Z AUTO 22015KT 10SM SCT036 BKN090 33/23 A2989 RMK AO2 LTG DSNT N AND W TSB41 OCNL LTGCGIC NW TS NW MOV E CB  DSNT NE MOV E T03280233,,,,2743.2,,,,,,SW,38.11,thunder,thunder,,,,23.06,98604.49,101049.74
KMKE,06/18/2018 18:47 UTC,101219.11,32,23,59.13,8.23,220,10.29,,,5,2503,,,,,,,362,903,,,10,,KMKE 181847Z 22016G20KT 10SM TS SCT036CB BKN090 BKN250 32/23 A2989 RMK AO2 LTG DSNT N TSB41 OCNL LTGCGIC NW TS NW MOV E CB DSNT  NE MOV E,,,,2743.2,,,,,,SW,36.81,thunder,thunder,,,,23.05,98604.49,101057.84
KMKE,06/18/2018 18:50 UTC,101219.11,32,,59.13,6.69,250,,,,13,,,,,,,,373,903,,,10,,METAR KMKE 181850Z AUTO 25013KT 10SM -RA BKN037 BKN090 32/23 A2989,,,,1127.76,,,,,,WSW,36.81,light rain,light rain,,,,23.05,98604.49,101057.84
KMKE,06/18/2018 18:52 UTC,101219.11,31.7,23.3,61.24,5.14,240,10.29,,101140,77,2503,,,,,0.025,,373,903,,,10,,KMKE 181852Z 24010G20KT 10SM -TSRA BKN037CB BKN090 BKN250 32/23  A2989 RMK AO2 RAB50 TSB41 SLP114 OCNL LTGCGIC NW-N TS NW-N  MOV E P0000 T03170233,,,,1127.76,,,,,,WSW,36.74,light rain/thunderstorm,light rain/thunderstorm,,,,23.34,98604.49,101060.27
KMKE,06/18/2018 18:55 UTC,101219.11,32,,59.13,5.14,240,,,,13,,,,,,,,403,903,,,10,,METAR KMKE 181855Z AUTO 24010KT 10SM -RA BKN040 BKN090 32/23 A2989,,,,1219.2,,,,,,WSW,36.81,light rain,light rain,,,,23.05,98604.49,101057.84
KMKE,06/18/2018 19:00 UTC,101252.97,31,,66.46,8.23,300,11.32,,,1,,,,,,,,403,903,,,9,,METAR KMKE 181900Z AUTO 30016G22KT 9SM RA BKN040 BKN090 31/24 A2990,,,,1219.2,,,,,,WNW,36.56,rain,rain,,,,24.03,98637.47,101099.76